"Station Name","YORKTON A"
"Province","SASKATCHEWAN"
"Latitude","51.27"
"Longitude","-102.47"
"Elevation","498.30"
"Climate Identifier","4019080"
"WMO Identifier","71138"
"TC Identifier","YQV"
"All times are specified in Local Standard Time (LST). Add 1 hour to adjust for Daylight Saving Time where and when it is observed."

"Legend"
"E","Estimated"
"M","Missing"
"NA","Not Available"
"‡","Partner data that is not subject to review by the National Climate Archives"

"Date/Time","Year","Month","Day","Time","Data Quality","Temp (°C)","Temp Flag","Dew Point Temp (°C)","Dew Point Temp Flag","Rel Hum (%)","Rel Hum Flag","Wind Dir (10s deg)","Wind Dir Flag","Wind Spd (km/h)","Wind Spd Flag","Visibility (km)","Visibility Flag","Stn Press (kPa)","Stn Press Flag","Hmdx","Hmdx Flag","Wind Chill","Wind Chill Flag","Weather"
"1996-03-01 00:00","1996","03","01","00:00"," ","-10.8","","-14.7","","73","","30","","22","","24.1","","94.83","","","","-19","","Cloudy"
"1996-03-01 01:00","1996","03","01","01:00"," ","-10.9","","-14.5","","75","","29","","20","","24.1","","94.80","","","","-19","","Mostly Cloudy"
"1996-03-01 02:00","1996","03","01","02:00"," ","-10.7","","-13.9","","77","","29","","22","","24.1","","94.73","","","","-19","","Cloudy"
"1996-03-01 03:00","1996","03","01","03:00"," ","-11.3","","-14.0","","80","","29","","17","","24.1","","94.67","","","","-19","","Mostly Cloudy"
"1996-03-01 04:00","1996","03","01","04:00"," ","-10.9","","-13.2","","83","","28","","17","","24.1","","94.64","","","","-18","","Snow"
"1996-03-01 05:00","1996","03","01","05:00"," ","-10.5","","-12.5","","85","","29","","15","","24.1","","94.57","","","","-17","","Snow"
"1996-03-01 06:00","1996","03","01","06:00"," ","-9.9","","-12.3","","83","","30","","22","","24.1","","94.57","","","","-18","","Snow"
"1996-03-01 07:00","1996","03","01","07:00"," ","-10.4","","-12.5","","85","","33","","20","","24.1","","94.60","","","","-18","","Snow"
"1996-03-01 08:00","1996","03","01","08:00"," ","-10.9","","-13.6","","80","","33","","17","","24.1","","94.64","","","","-18","","Mostly Cloudy"
"1996-03-01 09:00","1996","03","01","09:00"," ","-10.4","","-12.8","","83","","33","","28","","4.8","","94.67","","","","-20","","Snow"
"1996-03-01 10:00","1996","03","01","10:00"," ","-10.5","","-15.2","","68","","33","","37","","24.1","","94.67","","","","-21","","Mainly Clear"
"1996-03-01 11:00","1996","03","01","11:00"," ","-10.2","","-15.0","","68","","31","","37","","24.1","","94.67","","","","-21","","Mainly Clear"
"1996-03-01 12:00","1996","03","01","12:00"," ","-10.1","","-16.3","","60","","32","","41","","24.1","","94.70","","","","-21","","Mainly Clear"
"1996-03-01 13:00","1996","03","01","13:00"," ","-9.7","","-16.3","","59","","32","","44","","24.1","","94.67","","","","-21","","Clear"
"1996-03-01 14:00","1996","03","01","14:00"," ","-9.9","","-16.9","","57","","31","","44","","24.1","","94.64","","","","-21","","Clear"
"1996-03-01 15:00","1996","03","01","15:00"," ","-10.0","","-17.7","","53","","31","","44","","24.1","","94.73","","","","-21","","Mainly Clear"
"1996-03-01 16:00","1996","03","01","16:00"," ","-10.3","","-18.0","","53","","31","","48","","24.1","","94.77","","","","-22","","Mainly Clear"
"1996-03-01 17:00","1996","03","01","17:00"," ","-10.5","","-21.0","","42","","32","","48","","24.1","","94.83","","","","-22","","Mainly Clear"
"1996-03-01 18:00","1996","03","01","18:00"," ","-11.6","","-21.4","","44","","33","","33","","24.1","","94.90","","","","-22","","Mainly Clear"
"1996-03-01 19:00","1996","03","01","19:00"," ","-13.0","","-22.8","","44","","33","","33","","24.1","","94.99","","","","-24","","Clear"
"1996-03-01 20:00","1996","03","01","20:00"," ","-13.8","","-23.1","","45","","33","","32","","24.1","","95.02","","","","-25","","Clear"
"1996-03-01 21:00","1996","03","01","21:00"," ","-14.5","","-23.3","","47","","32","","32","","24.1","","95.09","","","","-26","","Clear"
"1996-03-01 22:00","1996","03","01","22:00"," ","-14.8","","-23.6","","47","","33","","28","","24.1","","95.22","","","","-25","","Clear"
"1996-03-01 23:00","1996","03","01","23:00"," ","-16.2","","-24.1","","51","","33","","24","","24.1","","95.31","","","","-27","","Clear"
"1996-03-02 00:00","1996","03","02","00:00"," ","-16.8","","-24.5","","51","","32","","20","","24.1","","95.35","","","","-26","","Clear"
"1996-03-02 01:00","1996","03","02","01:00"," ","-18.1","","-24.9","","55","","33","","22","","24.1","","95.41","","","","-29","","Clear"
"1996-03-02 02:00","1996","03","02","02:00"," ","-18.7","","-25.7","","54","","31","","19","","24.1","","95.51","","","","-29","","Clear"
"1996-03-02 03:00","1996","03","02","03:00"," ","-19.4","","-25.9","","56","","31","","17","","24.1","","95.54","","","","-29","","Clear"
"1996-03-02 04:00","1996","03","02","04:00"," ","-20.1","","-26.4","","57","","30","","20","","24.1","","95.57","","","","-31","","Clear"
"1996-03-02 05:00","1996","03","02","05:00"," ","-22.0","","-27.2","","63","","29","","15","","24.1","","95.64","","","","-32","","Clear"
"1996-03-02 06:00","1996","03","02","06:00"," ","-22.9","","-28.1","","62","","28","","15","","24.1","","95.67","","","","-33","","Clear"
"1996-03-02 07:00","1996","03","02","07:00"," ","-22.9","","-28.0","","63","","29","","19","","24.1","","95.64","","","","-34","","Clear"
"1996-03-02 08:00","1996","03","02","08:00"," ","-23.0","","-27.8","","65","","29","","9","","24.1","","95.67","","","","-30","","Clear"
"1996-03-02 09:00","1996","03","02","09:00"," ","-21.9","","-27.1","","63","","26","","17","","24.1","","95.67","","","","-32","","Mainly Clear"
"1996-03-02 10:00","1996","03","02","10:00"," ","-20.5","","-26.2","","60","","25","","11","","24.1","","95.70","","","","-28","","Mostly Cloudy"
"1996-03-02 11:00","1996","03","02","11:00"," ","-17.6","","-23.8","","58","","27","","9","","24.1","","95.67","","","","-24","","Mostly Cloudy"
"1996-03-02 12:00","1996","03","02","12:00"," ","-15.9","","-22.3","","58","","28","","9","","24.1","","95.64","","","","-22","","Mostly Cloudy"
"1996-03-02 13:00","1996","03","02","13:00"," ","-13.7","","-20.9","","55","","28","","13","","24.1","","95.57","","","","-21","","Mostly Cloudy"
"1996-03-02 14:00","1996","03","02","14:00"," ","-13.0","","-21.0","","51","","31","","19","","24.1","","95.48","","","","-21","","Mostly Cloudy"
"1996-03-02 15:00","1996","03","02","15:00"," ","-12.9","","-20.7","","52","","31","","20","","24.1","","95.44","","","","-22","","Cloudy"
"1996-03-02 16:00","1996","03","02","16:00"," ","-12.7","","-19.9","","55","","31","","20","","24.1","","95.44","","","","-21","","Cloudy"
"1996-03-02 17:00","1996","03","02","17:00"," ","-12.9","","-20.0","","55","","30","","19","","24.1","","95.41","","","","-21","","Cloudy"
"1996-03-02 18:00","1996","03","02","18:00"," ","-13.7","","-20.6","","56","","31","","19","","24.1","","95.44","","","","-22","","Mostly Cloudy"
"1996-03-02 19:00","1996","03","02","19:00"," ","-14.9","","-21.6","","57","","31","","13","","24.1","","95.44","","","","-22","","Mostly Cloudy"
"1996-03-02 20:00","1996","03","02","20:00"," ","-16.8","","-22.4","","62","","29","","11","","24.1","","95.44","","","","-24","","Mainly Clear"
"1996-03-02 21:00","1996","03","02","21:00"," ","-17.4","","-22.9","","62","","30","","15","","24.1","","95.44","","","","-26","","Clear"
"1996-03-02 22:00","1996","03","02","22:00"," ","-18.5","","-23.6","","64","","30","","15","","24.1","","95.48","","","","-27","","Clear"
"1996-03-02 23:00","1996","03","02","23:00"," ","-18.8","","-23.6","","66","","31","","15","","24.1","","95.51","","","","-28","","Mainly Clear"
"1996-03-03 00:00","1996","03","03","00:00"," ","-19.2","","-23.4","","69","","29","","17","","24.1","","95.57","","","","-29","","Mostly Cloudy"
"1996-03-03 01:00","1996","03","03","01:00"," ","-20.9","","-25.5","","66","","29","","9","","24.1","","95.57","","","","-28","","Mainly Clear"
"1996-03-03 02:00","1996","03","03","02:00"," ","-24.0","","-28.8","","65","","24","","11","","24.1","","95.57","","","","-32","","Mainly Clear"
"1996-03-03 03:00","1996","03","03","03:00"," ","-21.4","","-26.1","","66","","28","","9","","24.1","","95.57","","","","-28","","Mainly Clear"
"1996-03-03 04:00","1996","03","03","04:00"," ","-20.4","","-25.0","","67","","27","","13","","24.1","","95.61","","","","-29","","Clear"
"1996-03-03 05:00","1996","03","03","05:00"," ","-22.6","","-27.1","","67","","26","","17","","24.1","","95.61","","","","-33","","Clear"
"1996-03-03 06:00","1996","03","03","06:00"," ","-20.1","","-25.5","","62","","26","","19","","24.1","","95.64","","","","-30","","Mainly Clear"
"1996-03-03 07:00","1996","03","03","07:00"," ","-19.3","","-24.5","","63","","28","","19","","24.1","","95.67","","","","-29","","Cloudy"
"1996-03-03 08:00","1996","03","03","08:00"," ","-17.7","","-23.3","","62","","31","","22","","24.1","","95.70","","","","-28","","Cloudy"
"1996-03-03 09:00","1996","03","03","09:00"," ","-17.3","","-23.2","","60","","31","","20","","24.1","","95.67","","","","-27","","Mostly Cloudy"
"1996-03-03 10:00","1996","03","03","10:00"," ","-16.8","","-22.7","","60","","30","","22","","24.1","","95.73","","","","-27","","Mostly Cloudy"
"1996-03-03 11:00","1996","03","03","11:00"," ","-16.7","","-22.6","","60","","30","","22","","24.1","","95.80","","","","-27","","Mostly Cloudy"
"1996-03-03 12:00","1996","03","03","12:00"," ","-15.9","","-22.0","","59","","30","","22","","24.1","","95.90","","","","-26","","Mainly Clear"
"1996-03-03 13:00","1996","03","03","13:00"," ","-15.5","","-22.3","","56","","30","","26","","24.1","","95.86","","","","-26","","Mainly Clear"
"1996-03-03 14:00","1996","03","03","14:00"," ","-14.7","","-22.3","","52","","30","","30","","24.1","","95.83","","","","-26","","Mainly Clear"
"1996-03-03 15:00","1996","03","03","15:00"," ","-13.9","","-20.2","","59","","30","","30","","24.1","","95.80","","","","-25","","Mostly Cloudy"
"1996-03-03 16:00","1996","03","03","16:00"," ","-14.1","","-20.6","","58","","30","","28","","24.1","","95.80","","","","-25","","Mostly Cloudy"
"1996-03-03 17:00","1996","03","03","17:00"," ","-14.4","","-20.6","","59","","30","","28","","24.1","","95.80","","","","-25","","Mostly Cloudy"
"1996-03-03 18:00","1996","03","03","18:00"," ","-14.8","","-20.9","","60","","29","","17","","24.1","","95.80","","","","-23","","Mainly Clear"
"1996-03-03 19:00","1996","03","03","19:00"," ","-16.3","","-21.7","","63","","29","","15","","24.1","","95.83","","","","-25","","Mainly Clear"
"1996-03-03 20:00","1996","03","03","20:00"," ","-17.6","","-22.3","","67","","29","","15","","24.1","","95.86","","","","-26","","Mainly Clear"
"1996-03-03 21:00","1996","03","03","21:00"," ","-18.3","","-23.6","","63","","29","","13","","24.1","","95.90","","","","-26","","Mainly Clear"
"1996-03-03 22:00","1996","03","03","22:00"," ","-20.6","","-25.8","","63","","28","","11","","24.1","","95.93","","","","-28","","Mainly Clear"
"1996-03-03 23:00","1996","03","03","23:00"," ","-21.4","","-25.7","","68","","27","","15","","24.1","","95.99","","","","-31","","Mainly Clear"
"1996-03-04 00:00","1996","03","04","00:00"," ","-21.7","","-26.3","","66","","27","","15","","24.1","","96.02","","","","-31","","Mainly Clear"
"1996-03-04 01:00","1996","03","04","01:00"," ","-21.6","","-26.2","","66","","27","","15","","24.1","","95.99","","","","-31","","Mostly Cloudy"
"1996-03-04 02:00","1996","03","04","02:00"," ","-23.4","","-27.5","","69","","24","","13","","24.1","","95.99","","","","-33","","Mostly Cloudy"
"1996-03-04 03:00","1996","03","04","03:00"," ","-23.9","","-28.3","","67","","24","","13","","24.1","","95.99","","","","-33","","Cloudy"
"1996-03-04 04:00","1996","03","04","04:00"," ","-24.1","","-28.6","","66","","24","","13","","24.1","","95.99","","","","-33","","Mostly Cloudy"
"1996-03-04 05:00","1996","03","04","05:00"," ","-24.1","","-28.3","","68","","25","","7","","24.1","","95.99","","","","-30","","Mostly Cloudy"
"1996-03-04 06:00","1996","03","04","06:00"," ","-23.7","","-27.8","","69","","29","","7","","24.1","","95.93","","","","-30","","Cloudy"
"1996-03-04 07:00","1996","03","04","07:00"," ","-26.4","","-29.9","","72","","23","","4","","24.1","","95.96","","","","-31","","Mostly Cloudy"
"1996-03-04 08:00","1996","03","04","08:00"," ","-25.9","","-30.3","","66","","21","","7","","24.1","","95.99","","","","-33","","Cloudy"
"1996-03-04 09:00","1996","03","04","09:00"," ","-23.5","","-27.9","","67","","22","","13","","24.1","","95.99","","","","-33","","Mostly Cloudy"
"1996-03-04 10:00","1996","03","04","10:00"," ","-21.4","","-26.0","","66","","23","","11","","24.1","","96.02","","","","-29","","Mostly Cloudy"
"1996-03-04 11:00","1996","03","04","11:00"," ","-19.4","","-24.7","","63","","23","","7","","24.1","","96.02","","","","-25","","Mainly Clear"
"1996-03-04 12:00","1996","03","04","12:00"," ","-17.9","","-23.5","","62","","24","","6","","24.1","","96.02","","","","-23","","Clear"
"1996-03-04 13:00","1996","03","04","13:00"," ","-15.9","","-22.0","","59","","22","","6","","24.1","","96.02","","","","-20","","Mainly Clear"
"1996-03-04 14:00","1996","03","04","14:00"," ","-14.9","","-21.5","","57","","23","","7","","24.1","","95.90","","","","-20","","Mainly Clear"
"1996-03-04 15:00","1996","03","04","15:00"," ","-14.3","","-21.4","","55","","30","","11","","24.1","","95.86","","","","-21","","Mainly Clear"
"1996-03-04 16:00","1996","03","04","16:00"," ","-13.7","","-21.1","","54","","32","","4","","24.1","","95.83","","","","-16","","Snow Showers"
"1996-03-04 17:00","1996","03","04","17:00"," ","-14.2","","-19.0","","67","","31","","17","","4.0","","95.86","","","","-22","","Snow Showers"
"1996-03-04 18:00","1996","03","04","18:00"," ","-14.8","","-21.5","","57","","30","","15","","24.1","","95.86","","","","-23","","Mainly Clear"
"1996-03-04 19:00","1996","03","04","19:00"," ","-16.3","","-22.5","","59","","31","","11","","24.1","","95.90","","","","-23","","Mainly Clear"
"1996-03-04 20:00","1996","03","04","20:00"," ","-18.9","","-24.0","","64","","27","","9","","24.1","","95.99","","","","-25","","Mainly Clear"
"1996-03-04 21:00","1996","03","04","21:00"," ","-19.6","","-23.9","","69","","29","","17","","24.1","","95.99","","","","-29","","Mainly Clear"
"1996-03-04 22:00","1996","03","04","22:00"," ","-20.0","","-24.6","","67","","31","","17","","24.1","","96.02","","","","-30","","Mostly Cloudy"
"1996-03-04 23:00","1996","03","04","23:00"," ","-20.7","","-25.4","","66","","31","","13","","24.1","","96.06","","","","-29","","Cloudy"
"1996-03-05 00:00","1996","03","05","00:00"," ","-21.7","","-26.3","","66","","32","","15","","24.1","","96.09","","","","-31","","Mostly Cloudy"
"1996-03-05 01:00","1996","03","05","01:00"," ","-23.8","","-28.1","","68","","28","","9","","24.1","","96.15","","","","-31","","Ice Crystals"
"1996-03-05 02:00","1996","03","05","02:00"," ","-24.6","","-29.0","","67","","31","","13","","24.1","","96.15","","","","-34","","Mainly Clear"
"1996-03-05 03:00","1996","03","05","03:00"," ","-25.2","","-29.1","","70","","32","","15","","24.1","","96.12","","","","-35","","Mainly Clear"
"1996-03-05 04:00","1996","03","05","04:00"," ","-25.8","","-29.9","","68","","33","","13","","24.1","","96.12","","","","-35","","Mainly Clear"
"1996-03-05 05:00","1996","03","05","05:00"," ","-26.9","","-30.5","","71","","35","","11","","24.1","","96.19","","","","-36","","Mainly Clear"
"1996-03-05 06:00","1996","03","05","06:00"," ","-28.3","","-32.1","","70","","35","","11","","24.1","","96.22","","","","-38","","Mainly Clear"
"1996-03-05 07:00","1996","03","05","07:00"," ","-28.6","","-32.7","","68","","33","","7","","24.1","","96.25","","","","-36","","Mainly Clear"
"1996-03-05 08:00","1996","03","05","08:00"," ","-28.7","","-32.3","","71","","33","","9","","24.1","","96.28","","","","-37","","Mainly Clear"
"1996-03-05 09:00","1996","03","05","09:00"," ","-28.3","","-32.3","","68","","32","","4","","24.1","","96.32","","","","-33","","Mainly Clear"
"1996-03-05 10:00","1996","03","05","10:00"," ","-26.4","","-30.3","","70","","34","","7","","24.1","","96.41","","","","-33","","Mainly Clear"
"1996-03-05 11:00","1996","03","05","11:00"," ","-25.5","","-29.5","","69","","36","","9","","24.1","","96.48","","","","-33","","Ice Crystals"
"1996-03-05 12:00","1996","03","05","12:00"," ","-23.9","","-28.2","","68","","2","","9","","24.1","","96.48","","","","-31","","Ice Crystals"
"1996-03-05 13:00","1996","03","05","13:00"," ","-21.8","","-26.2","","67","","36","","7","","24.1","","96.54","","","","-28","","Ice Crystals"
"1996-03-05 14:00","1996","03","05","14:00"," ","-20.7","","-26.2","","61","","36","","6","","24.1","","96.57","","","","-26","","Clear"
"1996-03-05 15:00","1996","03","05","15:00"," ","-20.2","","-25.9","","60","","1","","6","","24.1","","96.57","","","","-25","","Clear"
"1996-03-05 16:00","1996","03","05","16:00"," ","-19.9","","-26.5","","56","","1","","6","","24.1","","96.57","","","","-25","","Mainly Clear"
"1996-03-05 17:00","1996","03","05","17:00"," ","-19.9","","-26.6","","55","","1","","6","","24.1","","96.64","","","","-25","","Clear"
"1996-03-05 18:00","1996","03","05","18:00"," ","-20.2","","-26.6","","57","","4","","6","","24.1","","96.64","","","","-25","","Clear"
"1996-03-05 19:00","1996","03","05","19:00"," ","-23.6","","-28.7","","63","","4","","2","","24.1","","96.67","","","","-26","","Mainly Clear"
"1996-03-05 20:00","1996","03","05","20:00"," ","-25.6","","-30.1","","66","","23","","7","","24.1","","96.77","","","","-32","","Mainly Clear"
"1996-03-05 21:00","1996","03","05","21:00"," ","-23.5","","-28.4","","64","","30","","7","","24.1","","96.83","","","","-30","","Clear"
"1996-03-05 22:00","1996","03","05","22:00"," ","-23.6","","-29.0","","61","","30","","15","","24.1","","96.90","","","","-34","","Clear"
"1996-03-05 23:00","1996","03","05","23:00"," ","-24.1","","-30.8","","54","","31","","13","","24.1","","96.96","","","","-33","","Mainly Clear"
"1996-03-06 00:00","1996","03","06","00:00"," ","-24.7","","-30.9","","56","","30","","11","","24.1","","97.03","","","","-33","","Clear"
"1996-03-06 01:00","1996","03","06","01:00"," ","-27.3","","-31.9","","65","","27","","11","","24.1","","97.06","","","","-36","","Clear"
"1996-03-06 02:00","1996","03","06","02:00"," ","-28.1","","-32.7","","65","","26","","11","","24.1","","97.09","","","","-37","","Clear"
"1996-03-06 03:00","1996","03","06","03:00"," ","-28.2","","-32.9","","64","","27","","9","","24.1","","97.09","","","","-36","","Clear"
"1996-03-06 04:00","1996","03","06","04:00"," ","-28.3","","-32.6","","67","","26","","11","","24.1","","97.09","","","","-38","","Clear"
"1996-03-06 05:00","1996","03","06","05:00"," ","-28.7","","-33.3","","65","","26","","11","","24.1","","97.09","","","","-38","","Clear"
"1996-03-06 06:00","1996","03","06","06:00"," ","-29.4","","-33.3","","69","","26","","13","","24.1","","97.12","","","","-40","","Clear"
"1996-03-06 07:00","1996","03","06","07:00"," ","-29.9","","-34.3","","65","","26","","15","","24.1","","97.15","","","","-41","","Clear"
"1996-03-06 08:00","1996","03","06","08:00"," ","-29.3","","-34.6","","60","","26","","15","","24.1","","97.19","","","","-41","","Mainly Clear"
"1996-03-06 09:00","1996","03","06","09:00"," ","-28.2","","-33.3","","62","","25","","13","","24.1","","97.25","","","","-38","","Mainly Clear"
"1996-03-06 10:00","1996","03","06","10:00"," ","-26.3","","-31.8","","60","","25","","13","","24.1","","97.25","","","","-36","","Clear"
"1996-03-06 11:00","1996","03","06","11:00"," ","-22.4","","-29.2","","54","","28","","9","","24.1","","97.32","","","","-30","","Mainly Clear"
"1996-03-06 12:00","1996","03","06","12:00"," ","-20.9","","-28.3","","51","","23","","4","","24.1","","97.32","","","","-24","","Mostly Cloudy"
"1996-03-06 13:00","1996","03","06","13:00"," ","-19.1","","-28.6","","43","","31","","22","","24.1","","97.28","","","","-30","","Mostly Cloudy"
"1996-03-06 14:00","1996","03","06","14:00"," ","-18.8","","-28.2","","43","","31","","20","","24.1","","97.25","","","","-29","","Mostly Cloudy"
"1996-03-06 15:00","1996","03","06","15:00"," ","-18.5","","-28.0","","43","","31","","28","","24.1","","97.22","","","","-30","","Mostly Cloudy"
"1996-03-06 16:00","1996","03","06","16:00"," ","-18.5","","-27.9","","43","","32","","24","","24.1","","97.22","","","","-29","","Cloudy"
"1996-03-06 17:00","1996","03","06","17:00"," ","-18.5","","-27.8","","44","","30","","26","","24.1","","97.25","","","","-30","","Mostly Cloudy"
"1996-03-06 18:00","1996","03","06","18:00"," ","-19.2","","-27.3","","49","","31","","22","","24.1","","97.25","","","","-30","","Mainly Clear"
"1996-03-06 19:00","1996","03","06","19:00"," ","-20.1","","-27.8","","50","","31","","24","","24.1","","97.28","","","","-32","","Mainly Clear"
"1996-03-06 20:00","1996","03","06","20:00"," ","-21.0","","-28.6","","50","","30","","17","","24.1","","97.35","","","","-31","","Mainly Clear"
"1996-03-06 21:00","1996","03","06","21:00"," ","-21.8","","-29.1","","52","","32","","17","","24.1","","97.41","","","","-32","","Clear"
"1996-03-06 22:00","1996","03","06","22:00"," ","-22.2","","-29.9","","50","","31","","17","","24.1","","97.48","","","","-32","","Clear"
"1996-03-06 23:00","1996","03","06","23:00"," ","-23.0","","-30.2","","52","","31","","19","","24.1","","97.51","","","","-34","","Clear"
"1996-03-07 00:00","1996","03","07","00:00"," ","-23.4","","-30.5","","52","","31","","17","","24.1","","97.57","","","","-34","","Clear"
"1996-03-07 01:00","1996","03","07","01:00"," ","-24.9","","-31.0","","57","","31","","15","","24.1","","97.64","","","","-35","","Clear"
"1996-03-07 02:00","1996","03","07","02:00"," ","-25.3","","-31.0","","59","","30","","15","","24.1","","97.70","","","","-36","","Clear"
"1996-03-07 03:00","1996","03","07","03:00"," ","-26.3","","-31.2","","63","","30","","13","","24.1","","97.74","","","","-36","","Clear"
"1996-03-07 04:00","1996","03","07","04:00"," ","-27.1","","-32.5","","60","","29","","15","","24.1","","97.74","","","","-38","","Mainly Clear"
"1996-03-07 05:00","1996","03","07","05:00"," ","-27.4","","-32.6","","61","","29","","17","","24.1","","97.77","","","","-39","","Mainly Clear"
"1996-03-07 06:00","1996","03","07","06:00"," ","-26.7","","-32.5","","58","","28","","17","","24.1","","97.80","","","","-38","","Mainly Clear"
"1996-03-07 07:00","1996","03","07","07:00"," ","-26.6","","-32.4","","58","","29","","22","","24.1","","97.83","","","","-39","","Clear"
"1996-03-07 08:00","1996","03","07","08:00"," ","-26.3","","-31.8","","60","","30","","22","","24.1","","97.83","","","","-39","","Clear"
"1996-03-07 09:00","1996","03","07","09:00"," ","-25.5","","-31.4","","58","","30","","22","","24.1","","97.83","","","","-38","","Clear"
"1996-03-07 10:00","1996","03","07","10:00"," ","-24.0","","-30.3","","56","","30","","19","","24.1","","97.86","","","","-35","","Clear"
"1996-03-07 11:00","1996","03","07","11:00"," ","-22.3","","-28.4","","58","","30","","24","","24.1","","97.86","","","","-34","","Clear"
"1996-03-07 12:00","1996","03","07","12:00"," ","-20.8","","-28.0","","52","","30","","28","","24.1","","97.83","","","","-33","","Clear"
"1996-03-07 13:00","1996","03","07","13:00"," ","-18.8","","-25.6","","55","","31","","32","","24.1","","97.83","","","","-31","","Mainly Clear"
"1996-03-07 14:00","1996","03","07","14:00"," ","-18.0","","-24.5","","57","","31","","30","","24.1","","97.74","","","","-30","","Mainly Clear"
"1996-03-07 15:00","1996","03","07","15:00"," ","-16.2","","-22.3","","59","","31","","33","","24.1","","97.67","","","","-28","","Clear"
"1996-03-07 16:00","1996","03","07","16:00"," ","-15.2","","-20.9","","62","","30","","30","","24.1","","97.67","","","","-26","","Clear"
"1996-03-07 17:00","1996","03","07","17:00"," ","-15.1","","-20.9","","61","","31","","30","","24.1","","97.67","","","","-26","","Clear"
"1996-03-07 18:00","1996","03","07","18:00"," ","-15.3","","-20.9","","62","","31","","30","","24.1","","97.67","","","","-26","","Clear"
"1996-03-07 19:00","1996","03","07","19:00"," ","-16.4","","-22.0","","62","","31","","37","","24.1","","97.67","","","","-29","","Clear"
"1996-03-07 20:00","1996","03","07","20:00"," ","-17.0","","-22.6","","62","","30","","33","","24.1","","97.67","","","","-29","","Clear"
"1996-03-07 21:00","1996","03","07","21:00"," ","-17.9","","-23.4","","62","","30","","30","","24.1","","97.67","","","","-30","","Clear"
"1996-03-07 22:00","1996","03","07","22:00"," ","-18.6","","-24.1","","62","","30","","26","","24.1","","97.67","","","","-30","","Clear"
"1996-03-07 23:00","1996","03","07","23:00"," ","-18.8","","-24.8","","59","","29","","28","","24.1","","97.61","","","","-31","","Clear"
"1996-03-08 00:00","1996","03","08","00:00"," ","-18.8","","-24.9","","59","","31","","22","","24.1","","97.64","","","","-29","","Clear"
"1996-03-08 01:00","1996","03","08","01:00"," ","-18.8","","-25.2","","57","","31","","22","","24.1","","97.57","","","","-29","","Clear"
"1996-03-08 02:00","1996","03","08","02:00"," ","-18.8","","-25.5","","55","","31","","22","","24.1","","97.54","","","","-29","","Clear"
"1996-03-08 03:00","1996","03","08","03:00"," ","-18.8","","-25.4","","56","","31","","26","","24.1","","97.48","","","","-30","","Clear"
"1996-03-08 04:00","1996","03","08","04:00"," ","-19.2","","-25.7","","56","","30","","28","","24.1","","97.45","","","","-31","","Clear"
"1996-03-08 05:00","1996","03","08","05:00"," ","-19.2","","-25.6","","57","","30","","28","","24.1","","97.48","","","","-31","","Clear"
"1996-03-08 06:00","1996","03","08","06:00"," ","-19.4","","-26.1","","55","","30","","20","","24.1","","97.48","","","","-30","","Clear"
"1996-03-08 07:00","1996","03","08","07:00"," ","-19.9","","-26.2","","57","","30","","22","","24.1","","97.48","","","","-31","","Clear"
"1996-03-08 08:00","1996","03","08","08:00"," ","-20.0","","-26.4","","57","","30","","15","","24.1","","97.48","","","","-29","","Clear"
"1996-03-08 09:00","1996","03","08","09:00"," ","-18.8","","-25.6","","55","","30","","20","","24.1","","97.41","","","","-29","","Clear"
"1996-03-08 10:00","1996","03","08","10:00"," ","-17.2","","-24.8","","52","","31","","19","","24.1","","97.41","","","","-27","","Clear"
"1996-03-08 11:00","1996","03","08","11:00"," ","-15.8","","-22.5","","56","","29","","17","","24.1","","97.38","","","","-24","","Clear"
"1996-03-08 12:00","1996","03","08","12:00"," ","-14.4","","-22.5","","50","","30","","17","","24.1","","97.32","","","","-23","","Clear"
"1996-03-08 13:00","1996","03","08","13:00"," ","-12.4","","-19.8","","54","","31","","22","","24.1","","97.25","","","","-21","","Clear"
"1996-03-08 14:00","1996","03","08","14:00"," ","-11.3","","-19.4","","51","","31","","17","","24.1","","97.22","","","","-19","","Clear"
"1996-03-08 15:00","1996","03","08","15:00"," ","-10.1","","-18.0","","52","","30","","13","","24.1","","97.15","","","","-16","","Clear"
"1996-03-08 16:00","1996","03","08","16:00"," ","-9.5","","-18.2","","49","","29","","9","","24.1","","97.09","","","","-14","","Clear"
"1996-03-08 17:00","1996","03","08","17:00"," ","-9.7","","-16.5","","58","","34","","4","","24.1","","97.06","","","","-12","","Clear"
"1996-03-08 18:00","1996","03","08","18:00"," ","-10.7","","-17.5","","57","","36","","4","","24.1","","96.99","","","","-13","","Clear"
"1996-03-08 19:00","1996","03","08","19:00"," ","-12.4","","-19.7","","54","","26","","4","","24.1","","96.99","","","","-15","","Clear"
"1996-03-08 20:00","1996","03","08","20:00"," ","-15.0","","-20.6","","62","","24","","13","","24.1","","96.96","","","","-22","","Mainly Clear"
"1996-03-08 21:00","1996","03","08","21:00"," ","-15.6","","-21.8","","59","","23","","17","","24.1","","96.86","","","","-24","","Clear"
"1996-03-08 22:00","1996","03","08","22:00"," ","-17.2","","-22.3","","64","","23","","15","","24.1","","96.83","","","","-26","","Clear"
"1996-03-08 23:00","1996","03","08","23:00"," ","-18.8","","-23.8","","65","","23","","17","","24.1","","96.83","","","","-28","","Clear"
"1996-03-09 00:00","1996","03","09","00:00"," ","-20.3","","-25.5","","63","","21","","15","","24.1","","96.74","","","","-29","","Clear"
"1996-03-09 01:00","1996","03","09","01:00"," ","-18.9","","-25.5","","56","","19","","17","","24.1","","96.64","","","","-28","","Clear"
"1996-03-09 02:00","1996","03","09","02:00"," ","-20.3","","-26.2","","59","","19","","19","","24.1","","96.51","","","","-31","","Clear"
"1996-03-09 03:00","1996","03","09","03:00"," ","-20.9","","-26.3","","62","","20","","19","","24.1","","96.48","","","","-31","","Clear"
"1996-03-09 04:00","1996","03","09","04:00"," ","-21.5","","-26.5","","64","","17","","13","","24.1","","96.32","","","","-30","","Mainly Clear"
"1996-03-09 05:00","1996","03","09","05:00"," ","-21.4","","-26.6","","63","","18","","13","","24.1","","96.28","","","","-30","","Mostly Cloudy"
"1996-03-09 06:00","1996","03","09","06:00"," ","-20.0","","-25.3","","63","","19","","15","","24.1","","96.25","","","","-29","","Mostly Cloudy"
"1996-03-09 07:00","1996","03","09","07:00"," ","-19.2","","-24.2","","65","","17","","6","","24.1","","96.22","","","","-24","","Mostly Cloudy"
"1996-03-09 08:00","1996","03","09","08:00"," ","-18.2","","-23.6","","63","","20","","11","","24.1","","96.19","","","","-25","","Mostly Cloudy"
"1996-03-09 09:00","1996","03","09","09:00"," ","-16.7","","-21.9","","64","","20","","11","","24.1","","96.12","","","","-24","","Mostly Cloudy"
"1996-03-09 10:00","1996","03","09","10:00"," ","-14.7","","-19.8","","65","","23","","11","","24.1","","96.15","","","","-21","","Mostly Cloudy"
"1996-03-09 11:00","1996","03","09","11:00"," ","-12.7","","-18.5","","62","","23","","7","","24.1","","96.12","","","","-17","","Mostly Cloudy"
"1996-03-09 12:00","1996","03","09","12:00"," ","-11.6","","-17.7","","61","","23","","4","","24.1","","96.12","","","","-14","","Cloudy"
"1996-03-09 13:00","1996","03","09","13:00"," ","-10.0","","-15.7","","63","","20","","6","","24.1","","96.09","","","","-14","","Cloudy"
"1996-03-09 14:00","1996","03","09","14:00"," ","-8.7","","-14.8","","61","","21","","9","","24.1","","95.99","","","","-13","","Cloudy"
"1996-03-09 15:00","1996","03","09","15:00"," ","-8.0","","-12.5","","70","","21","","9","","24.1","","95.93","","","","-13","","Cloudy"
"1996-03-09 16:00","1996","03","09","16:00"," ","-7.5","","-13.1","","64","","14","","7","","24.1","","95.96","","","","-11","","Cloudy"
"1996-03-09 17:00","1996","03","09","17:00"," ","-7.2","","-12.7","","65","","16","","11","","24.1","","95.93","","","","-12","","Cloudy"
"1996-03-09 18:00","1996","03","09","18:00"," ","-7.8","","-12.9","","67","","15","","11","","24.1","","95.90","","","","-13","","Cloudy"
"1996-03-09 19:00","1996","03","09","19:00"," ","-9.5","","-13.1","","75","","14","","11","","24.1","","95.83","","","","-15","","Cloudy"
"1996-03-09 20:00","1996","03","09","20:00"," ","-10.7","","-13.6","","79","","14","","13","","24.1","","95.83","","","","-17","","Mainly Clear"
"1996-03-09 21:00","1996","03","09","21:00"," ","-10.5","","-13.5","","79","","17","","15","","24.1","","95.80","","","","-17","","Cloudy"
"1996-03-09 22:00","1996","03","09","22:00"," ","-10.1","","-13.0","","79","","17","","13","","24.1","","95.73","","","","-16","","Cloudy"
"1996-03-09 23:00","1996","03","09","23:00"," ","-9.6","","-12.4","","80","","15","","17","","24.1","","95.57","","","","-17","","Cloudy"
"1996-03-10 00:00","1996","03","10","00:00"," ","-9.0","","-11.6","","81","","16","","17","","24.1","","95.51","","","","-16","","Cloudy"
"1996-03-10 01:00","1996","03","10","01:00"," ","-8.7","","-11.3","","81","","15","","20","","24.1","","95.35","","","","-16","","Cloudy"
"1996-03-10 02:00","1996","03","10","02:00"," ","-8.0","","-10.4","","83","","15","","19","","24.1","","95.28","","","","-15","","Mostly Cloudy"
"1996-03-10 03:00","1996","03","10","03:00"," ","-6.9","","-9.4","","82","","15","","20","","24.1","","95.22","","","","-14","","Cloudy"
"1996-03-10 04:00","1996","03","10","04:00"," ","-6.9","","-9.2","","84","","15","","22","","24.1","","95.09","","","","-14","","Cloudy"
"1996-03-10 05:00","1996","03","10","05:00"," ","-7.6","","-9.5","","86","","16","","17","","24.1","","95.12","","","","-14","","Cloudy"
"1996-03-10 06:00","1996","03","10","06:00"," ","-8.7","","-10.7","","85","","17","","11","","24.1","","95.12","","","","-14","","Mostly Cloudy"
"1996-03-10 07:00","1996","03","10","07:00"," ","-9.1","","-10.7","","88","","16","","13","","24.1","","95.09","","","","-15","","Mostly Cloudy"
"1996-03-10 08:00","1996","03","10","08:00"," ","-9.2","","-10.7","","89","","19","","4","","24.1","","95.09","","","","-11","","Cloudy"
"1996-03-10 09:00","1996","03","10","09:00"," ","-8.5","","-10.4","","86","","","","0","","19.3","","95.15","","","","","","Cloudy"
"1996-03-10 10:00","1996","03","10","10:00"," ","-6.7","","-9.1","","83","","18","","4","","24.1","","95.15","","","","-9","","Cloudy"
"1996-03-10 11:00","1996","03","10","11:00"," ","-4.4","","-7.0","","82","","24","","9","","24.1","","95.19","","","","-8","","Cloudy"
"1996-03-10 12:00","1996","03","10","12:00"," ","-2.1","","-4.8","","82","","30","","15","","24.1","","95.22","","","","-7","","Cloudy"
"1996-03-10 13:00","1996","03","10","13:00"," ","-0.8","","-3.8","","80","","33","","13","","24.1","","95.25","","","","-5","","Cloudy"
"1996-03-10 14:00","1996","03","10","14:00"," ","0.1","","-3.3","","78","","31","","11","","24.1","","95.25","","","","","","Cloudy"
"1996-03-10 15:00","1996","03","10","15:00"," ","0.4","","-2.7","","80","","33","","15","","24.1","","95.25","","","","","","Cloudy"
"1996-03-10 16:00","1996","03","10","16:00"," ","1.1","","-3.1","","74","","31","","13","","24.1","","95.31","","","","","","Cloudy"
"1996-03-10 17:00","1996","03","10","17:00"," ","1.3","","-3.4","","71","","31","","11","","24.1","","95.31","","","","","","Cloudy"
"1996-03-10 18:00","1996","03","10","18:00"," ","0.7","","-2.4","","80","","26","","9","","24.1","","95.35","","","","","","Cloudy"
"1996-03-10 19:00","1996","03","10","19:00"," ","-0.1","","-2.4","","84","","27","","7","","24.1","","95.38","","","","-3","","Cloudy"
"1996-03-10 20:00","1996","03","10","20:00"," ","-1.7","","-3.1","","90","","18","","2","","24.1","","95.35","","","","-2","","Mostly Cloudy"
"1996-03-10 21:00","1996","03","10","21:00"," ","-1.0","","-2.7","","88","","21","","4","","24.1","","95.38","","","","-2","","Mostly Cloudy"
"1996-03-10 22:00","1996","03","10","22:00"," ","-1.1","","-2.7","","89","","23","","7","","24.1","","95.41","","","","-4","","Cloudy"
"1996-03-10 23:00","1996","03","10","23:00"," ","-0.6","","-2.0","","90","","24","","13","","24.1","","95.41","","","","-5","","Mostly Cloudy"
"1996-03-11 00:00","1996","03","11","00:00"," ","-0.8","","-2.3","","90","","31","","4","","24.1","","95.41","","","","-2","","Cloudy"
"1996-03-11 01:00","1996","03","11","01:00"," ","-1.6","","-2.4","","94","","16","","4","","24.1","","95.38","","","","-3","","Mostly Cloudy"
"1996-03-11 02:00","1996","03","11","02:00"," ","-1.5","","-2.2","","95","","8","","2","","19.3","","95.35","","","","-2","","Cloudy"
"1996-03-11 03:00","1996","03","11","03:00"," ","-1.1","","-2.3","","92","","12","","6","","24.1","","95.35","","","","-3","","Cloudy"
"1996-03-11 04:00","1996","03","11","04:00"," ","-1.3","","-2.4","","92","","19","","6","","24.1","","95.38","","","","-4","","Cloudy"
"1996-03-11 05:00","1996","03","11","05:00"," ","-1.0","","-2.1","","92","","21","","13","","24.1","","95.41","","","","-5","","Cloudy"
"1996-03-11 06:00","1996","03","11","06:00"," ","-0.3","","-1.7","","90","","21","","13","","24.1","","95.38","","","","-4","","Mostly Cloudy"
"1996-03-11 07:00","1996","03","11","07:00"," ","-0.6","","-1.8","","92","","18","","2","","24.1","","95.38","","","","-1","","Mostly Cloudy"
"1996-03-11 08:00","1996","03","11","08:00"," ","-0.8","","-1.8","","93","","","","0","","16.1","","95.38","","","","","","Cloudy"
"1996-03-11 09:00","1996","03","11","09:00"," ","1.1","","-1.1","","85","","18","","15","","16.1","","95.38","","","","","","Cloudy"
"1996-03-11 10:00","1996","03","11","10:00"," ","1.8","","-0.6","","84","","","","0","","16.1","","95.41","","","","","","Cloudy"
"1996-03-11 11:00","1996","03","11","11:00"," ","2.0","","-0.8","","82","","20","","7","","24.1","","95.38","","","","","","Cloudy"
"1996-03-11 12:00","1996","03","11","12:00"," ","3.3","","-0.2","","78","","21","","2","","24.1","","95.35","","","","","","Cloudy"
"1996-03-11 13:00","1996","03","11","13:00"," ","3.9","","0.2","","77","","8","","2","","24.1","","95.31","","","","","","Cloudy"
"1996-03-11 14:00","1996","03","11","14:00"," ","2.7","","-0.2","","81","","12","","6","","24.1","","95.25","","","","","","Cloudy"
"1996-03-11 15:00","1996","03","11","15:00"," ","2.9","","0.0","","81","","12","","7","","24.1","","95.22","","","","","","Mostly Cloudy"
"1996-03-11 16:00","1996","03","11","16:00"," ","4.4","","0.3","","75","","12","","6","","24.1","","95.19","","","","","","Mostly Cloudy"
"1996-03-11 17:00","1996","03","11","17:00"," ","3.0","","0.1","","81","","13","","6","","24.1","","95.12","","","","","","Mostly Cloudy"
"1996-03-11 18:00","1996","03","11","18:00"," ","3.4","","0.5","","81","","11","","6","","24.1","","95.09","","","","","","Mostly Cloudy"
"1996-03-11 19:00","1996","03","11","19:00"," ","2.1","","0.1","","87","","15","","11","","24.1","","95.09","","","","","","Rain Showers"
"1996-03-11 20:00","1996","03","11","20:00"," ","2.3","","-0.2","","84","","15","","13","","24.1","","95.06","","","","","","Rain Showers"
"1996-03-11 21:00","1996","03","11","21:00"," ","2.1","","-0.3","","84","","16","","13","","16.1","","94.99","","","","","","Rain"
"1996-03-11 22:00","1996","03","11","22:00"," ","1.5","","-0.3","","88","","15","","13","","16.1","","94.99","","","","","","Mainly Clear"
"1996-03-11 23:00","1996","03","11","23:00"," ","1.6","","-0.3","","87","","17","","15","","16.1","","94.96","","","","","","Cloudy"
"1996-03-12 00:00","1996","03","12","00:00"," ","1.3","","-0.2","","90","","18","","15","","19.3","","94.93","","","","","","Cloudy"
"1996-03-12 01:00","1996","03","12","01:00"," ","0.8","","-0.3","","92","","18","","11","","16.1","","94.90","","","","","","Cloudy"
"1996-03-12 02:00","1996","03","12","02:00"," ","0.9","","-0.2","","92","","18","","13","","12.9","","94.86","","","","","","Cloudy"
"1996-03-12 03:00","1996","03","12","03:00"," ","0.5","","-0.4","","94","","18","","11","","16.1","","94.83","","","","","","Mostly Cloudy"
"1996-03-12 04:00","1996","03","12","04:00"," ","0.7","","-0.3","","93","","17","","7","","16.1","","94.80","","","","","","Cloudy"
"1996-03-12 05:00","1996","03","12","05:00"," ","0.3","","-0.4","","95","","30","","6","","12.9","","94.80","","","","","","Cloudy"
"1996-03-12 06:00","1996","03","12","06:00"," ","-0.1","","-0.6","","96","","23","","2","","8.0","","94.80","","","","-1","","Fog"
"1996-03-12 07:00","1996","03","12","07:00"," ","0.2","","-0.5","","95","","27","","4","","4.0","","94.77","","","","","","Fog"
"1996-03-12 08:00","1996","03","12","08:00"," ","-0.4","","-1.0","","96","","31","","2","","4.0","","94.77","","","","-1","","Fog"
"1996-03-12 09:00","1996","03","12","09:00"," ","0.5","","-0.6","","92","","31","","9","","4.0","","94.80","","","","","","Fog"
"1996-03-12 10:00","1996","03","12","10:00"," ","1.2","","-0.2","","90","","29","","6","","4.8","","94.80","","","","","","Fog"
"1996-03-12 11:00","1996","03","12","11:00"," ","1.8","","0.2","","89","","33","","11","","6.4","","94.77","","","","","","Fog"
"1996-03-12 12:00","1996","03","12","12:00"," ","1.8","","0.3","","90","","33","","6","","9.7","","94.73","","","","","","Fog"
"1996-03-12 13:00","1996","03","12","13:00"," ","3.3","","0.8","","84","","29","","7","","16.1","","94.77","","","","","","Cloudy"
"1996-03-12 14:00","1996","03","12","14:00"," ","4.3","","1.2","","80","","29","","13","","19.3","","94.73","","","","","","Cloudy"
"1996-03-12 15:00","1996","03","12","15:00"," ","3.7","","1.0","","82","","29","","11","","24.1","","94.73","","","","","","Cloudy"
"1996-03-12 16:00","1996","03","12","16:00"," ","4.4","","1.3","","80","","29","","11","","24.1","","94.73","","","","","","Mostly Cloudy"
"1996-03-12 17:00","1996","03","12","17:00"," ","4.3","","1.0","","79","","28","","9","","24.1","","94.70","","","","","","Mostly Cloudy"
"1996-03-12 18:00","1996","03","12","18:00"," ","3.6","","0.8","","82","","28","","11","","24.1","","94.70","","","","","","Mostly Cloudy"
"1996-03-12 19:00","1996","03","12","19:00"," ","2.5","","0.9","","89","","29","","11","","24.1","","94.73","","","","","","Mostly Cloudy"
"1996-03-12 20:00","1996","03","12","20:00"," ","1.7","","0.3","","90","","31","","13","","24.1","","94.73","","","","","","Mainly Clear"
"1996-03-12 21:00","1996","03","12","21:00"," ","1.1","","0.0","","92","","30","","9","","19.3","","94.77","","","","","","Clear"
"1996-03-12 22:00","1996","03","12","22:00"," ","1.2","","0.2","","93","","30","","11","","16.1","","94.77","","","","","","Mainly Clear"
"1996-03-12 23:00","1996","03","12","23:00"," ","1.1","","-0.1","","92","","31","","19","","16.1","","94.80","","","","","","Mainly Clear"
"1996-03-13 00:00","1996","03","13","00:00"," ","1.5","","-0.5","","87","","31","","11","","16.1","","94.83","","","","","","Mainly Clear"
"1996-03-13 01:00","1996","03","13","01:00"," ","1.4","","-0.7","","86","","32","","13","","19.3","","94.86","","","","","","Mainly Clear"
"1996-03-13 02:00","1996","03","13","02:00"," ","1.7","","-1.0","","82","","31","","17","","19.3","","94.90","","","","","","Mostly Cloudy"
"1996-03-13 03:00","1996","03","13","03:00"," ","1.6","","-0.7","","85","","32","","11","","24.1","","94.90","","","","","","Mostly Cloudy"
"1996-03-13 04:00","1996","03","13","04:00"," ","1.9","","-0.1","","87","","31","","11","","24.1","","94.93","","","","","","Cloudy"
"1996-03-13 05:00","1996","03","13","05:00"," ","1.7","","0.2","","90","","29","","13","","24.1","","94.96","","","","","","Mostly Cloudy"
"1996-03-13 06:00","1996","03","13","06:00"," ","2.2","","0.6","","89","","30","","17","","24.1","","94.96","","","","","","Mostly Cloudy"
"1996-03-13 07:00","1996","03","13","07:00"," ","1.7","","-0.4","","86","","30","","22","","24.1","","95.06","","","","","","Mostly Cloudy"
"1996-03-13 08:00","1996","03","13","08:00"," ","0.5","","-0.9","","90","","31","","32","","24.1","","95.12","","","","","","Mostly Cloudy"
"1996-03-13 09:00","1996","03","13","09:00"," ","0.9","","-0.6","","90","","32","","24","","24.1","","95.22","","","","","","Rain"
"1996-03-13 10:00","1996","03","13","10:00"," ","1.1","","-0.7","","88","","32","","28","","24.1","","95.31","","","","","","Cloudy"
"1996-03-13 11:00","1996","03","13","11:00"," ","0.9","","-1.3","","85","","33","","32","","24.1","","95.41","","","","","","Cloudy"
"1996-03-13 12:00","1996","03","13","12:00"," ","1.0","","-2.4","","78","","33","","28","","24.1","","95.48","","","","","","Mostly Cloudy"
"1996-03-13 13:00","1996","03","13","13:00"," ","0.6","","-3.2","","76","","33","","24","","24.1","","95.57","","","","","","Mostly Cloudy"
"1996-03-13 14:00","1996","03","13","14:00"," ","-1.3","","-3.3","","86","","31","","28","","24.1","","95.64","","","","-8","","Cloudy"
"1996-03-13 15:00","1996","03","13","15:00"," ","-2.0","","-4.3","","84","","31","","30","","24.1","","95.73","","","","-9","","Cloudy"
"1996-03-13 16:00","1996","03","13","16:00"," ","-2.4","","-5.8","","77","","31","","30","","24.1","","95.80","","","","-10","","Cloudy"
"1996-03-13 17:00","1996","03","13","17:00"," ","-3.5","","-7.2","","75","","31","","28","","24.1","","95.83","","","","-11","","Mostly Cloudy"
"1996-03-13 18:00","1996","03","13","18:00"," ","-4.7","","-8.5","","75","","31","","24","","24.1","","95.90","","","","-12","","Mainly Clear"
"1996-03-13 19:00","1996","03","13","19:00"," ","-5.8","","-9.2","","77","","30","","19","","24.1","","95.93","","","","-12","","Mainly Clear"
"1996-03-13 20:00","1996","03","13","20:00"," ","-6.5","","-9.9","","77","","31","","19","","24.1","","95.99","","","","-13","","Mainly Clear"
"1996-03-13 21:00","1996","03","13","21:00"," ","-7.2","","-10.8","","75","","30","","15","","24.1","","95.99","","","","-13","","Clear"
"1996-03-13 22:00","1996","03","13","22:00"," ","-9.2","","-11.4","","84","","27","","9","","24.1","","95.93","","","","-14","","Clear"
"1996-03-13 23:00","1996","03","13","23:00"," ","-8.9","","-10.7","","87","","27","","6","","24.1","","95.96","","","","-12","","Mainly Clear"
"1996-03-14 00:00","1996","03","14","00:00"," ","-8.9","","-10.7","","87","","21","","7","","24.1","","95.90","","","","-13","","Mainly Clear"
"1996-03-14 01:00","1996","03","14","01:00"," ","-9.7","","-11.5","","87","","21","","11","","24.1","","95.83","","","","-15","","Mainly Clear"
"1996-03-14 02:00","1996","03","14","02:00"," ","-8.3","","-10.2","","86","","15","","7","","24.1","","95.70","","","","-12","","Mostly Cloudy"
"1996-03-14 03:00","1996","03","14","03:00"," ","-8.4","","-10.2","","87","","18","","13","","24.1","","95.57","","","","-14","","Cloudy"
"1996-03-14 04:00","1996","03","14","04:00"," ","-8.0","","-10.0","","85","","16","","20","","24.1","","95.48","","","","-15","","Mostly Cloudy"
"1996-03-14 05:00","1996","03","14","05:00"," ","-7.8","","-9.5","","88","","16","","22","","24.1","","95.31","","","","-15","","Cloudy"
"1996-03-14 06:00","1996","03","14","06:00"," ","-6.8","","-8.4","","88","","17","","28","","24.1","","95.15","","","","-15","","Cloudy"
"1996-03-14 07:00","1996","03","14","07:00"," ","-4.8","","-6.5","","88","","19","","32","","24.1","","94.93","","","","-13","","Cloudy"
"1996-03-14 08:00","1996","03","14","08:00"," ","-3.9","","-5.8","","87","","19","","22","","24.1","","94.77","","","","-10","","Cloudy"
"1996-03-14 09:00","1996","03","14","09:00"," ","-1.8","","-3.7","","87","","21","","19","","24.1","","94.80","","","","-7","","Cloudy"
"1996-03-14 10:00","1996","03","14","10:00"," ","0.4","","-1.8","","85","","25","","17","","24.1","","94.80","","","","","","Mostly Cloudy"
"1996-03-14 11:00","1996","03","14","11:00"," ","2.9","","-0.3","","79","","29","","24","","24.1","","94.77","","","","","","Mostly Cloudy"
"1996-03-14 12:00","1996","03","14","12:00"," ","3.0","","-0.2","","79","","30","","26","","24.1","","94.90","","","","","","Mainly Clear"
"1996-03-14 13:00","1996","03","14","13:00"," ","3.3","","0.0","","79","","30","","28","","24.1","","94.93","","","","","","Mainly Clear"
"1996-03-14 14:00","1996","03","14","14:00"," ","3.6","","0.1","","78","","30","","28","","24.1","","94.99","","","","","","Mainly Clear"
"1996-03-14 15:00","1996","03","14","15:00"," ","3.8","","0.0","","76","","30","","32","","24.1","","95.06","","","","","","Mostly Cloudy"
"1996-03-14 16:00","1996","03","14","16:00"," ","4.0","","-0.1","","75","","31","","32","","24.1","","95.09","","","","","","Mostly Cloudy"
"1996-03-14 17:00","1996","03","14","17:00"," ","4.0","","0.1","","76","","30","","26","","24.1","","95.15","","","","","","Mostly Cloudy"
"1996-03-14 18:00","1996","03","14","18:00"," ","4.0","","-0.3","","74","","30","","22","","24.1","","95.22","","","","","","Mostly Cloudy"
"1996-03-14 19:00","1996","03","14","19:00"," ","3.2","","-0.5","","77","","30","","24","","24.1","","95.25","","","","","","Mostly Cloudy"
"1996-03-14 20:00","1996","03","14","20:00"," ","2.6","","-0.7","","79","","31","","26","","24.1","","95.28","","","","","","Mainly Clear"
"1996-03-14 21:00","1996","03","14","21:00"," ","2.2","","-1.1","","79","","30","","22","","24.1","","95.31","","","","","","Clear"
"1996-03-14 22:00","1996","03","14","22:00"," ","1.5","","-1.6","","80","","30","","19","","24.1","","95.35","","","","","","Clear"
"1996-03-14 23:00","1996","03","14","23:00"," ","0.6","","-2.1","","82","","28","","15","","24.1","","95.41","","","","","","Clear"
"1996-03-15 00:00","1996","03","15","00:00"," ","0.4","","-2.6","","80","","28","","19","","24.1","","95.41","","","","","","Clear"
"1996-03-15 01:00","1996","03","15","01:00"," ","-0.7","","-3.2","","83","","27","","15","","24.1","","95.38","","","","-5","","Clear"
"1996-03-15 02:00","1996","03","15","02:00"," ","-0.9","","-3.4","","83","","26","","13","","24.1","","95.35","","","","-5","","Mainly Clear"
"1996-03-15 03:00","1996","03","15","03:00"," ","-2.5","","-4.1","","89","","25","","15","","24.1","","95.31","","","","-7","","Clear"
"1996-03-15 04:00","1996","03","15","04:00"," ","-1.8","","-3.3","","89","","24","","15","","24.1","","95.25","","","","-7","","Cloudy"
"1996-03-15 05:00","1996","03","15","05:00"," ","-0.9","","-2.6","","88","","23","","15","","24.1","","95.22","","","","-6","","Cloudy"
"1996-03-15 06:00","1996","03","15","06:00"," ","-0.9","","-2.5","","89","","19","","11","","24.1","","95.22","","","","-5","","Cloudy"
"1996-03-15 07:00","1996","03","15","07:00"," ","-1.8","","-3.1","","91","","16","","13","","24.1","","95.09","","","","-6","","Mostly Cloudy"
"1996-03-15 08:00","1996","03","15","08:00"," ","-0.4","","-2.4","","86","","19","","17","","24.1","","95.02","","","","-5","","Mostly Cloudy"
"1996-03-15 09:00","1996","03","15","09:00"," ","0.5","","-1.2","","88","","17","","17","","24.1","","94.90","","","","","","Mostly Cloudy"
"1996-03-15 10:00","1996","03","15","10:00"," ","1.5","","-0.9","","84","","17","","17","","24.1","","94.80","","","","","","Mostly Cloudy"
"1996-03-15 11:00","1996","03","15","11:00"," ","3.1","","-0.3","","78","","19","","20","","24.1","","94.67","","","","","","Mostly Cloudy"
"1996-03-15 12:00","1996","03","15","12:00"," ","3.3","","-0.1","","78","","16","","20","","24.1","","94.57","","","","","","Mostly Cloudy"
"1996-03-15 13:00","1996","03","15","13:00"," ","4.7","","0.6","","75","","15","","20","","24.1","","94.44","","","","","","Mostly Cloudy"
"1996-03-15 14:00","1996","03","15","14:00"," ","4.4","","0.2","","74","","14","","22","","24.1","","94.25","","","","","","Mostly Cloudy"
"1996-03-15 15:00","1996","03","15","15:00"," ","4.5","","0.2","","74","","14","","28","","24.1","","94.12","","","","","","Mainly Clear"
"1996-03-15 16:00","1996","03","15","16:00"," ","3.9","","0.3","","77","","15","","30","","24.1","","93.99","","","","","","Mainly Clear"
"1996-03-15 17:00","1996","03","15","17:00"," ","3.4","","0.5","","81","","15","","32","","24.1","","93.90","","","","","","Mainly Clear"
"1996-03-15 18:00","1996","03","15","18:00"," ","2.6","","0.5","","86","","15","","32","","24.1","","93.80","","","","","","Mainly Clear"
"1996-03-15 19:00","1996","03","15","19:00"," ","1.9","","0.5","","90","","15","","30","","24.1","","93.77","","","","","","Mostly Cloudy"
"1996-03-15 20:00","1996","03","15","20:00"," ","1.9","","0.4","","90","","15","","26","","24.1","","93.67","","","","","","Mostly Cloudy"
"1996-03-15 21:00","1996","03","15","21:00"," ","2.1","","0.7","","90","","14","","26","","24.1","","93.64","","","","","","Mostly Cloudy"
"1996-03-15 22:00","1996","03","15","22:00"," ","2.3","","1.0","","91","","16","","26","","24.1","","93.54","","","","","","Cloudy"
"1996-03-15 23:00","1996","03","15","23:00"," ","3.3","","1.5","","88","","22","","30","","24.1","","93.48","","","","","","Cloudy"
"1996-03-16 00:00","1996","03","16","00:00"," ","2.6","","1.2","","90","","24","","24","","24.1","","93.48","","","","","","Cloudy"
"1996-03-16 01:00","1996","03","16","01:00"," ","2.0","","0.0","","87","","24","","28","","24.1","","93.41","","","","","","Cloudy"
"1996-03-16 02:00","1996","03","16","02:00"," ","1.7","","-0.9","","83","","27","","37","","24.1","","93.44","","","","","","Cloudy"
"1996-03-16 03:00","1996","03","16","03:00"," ","1.1","","-1.5","","83","","27","","32","","24.1","","93.44","","","","","","Mainly Clear"
"1996-03-16 04:00","1996","03","16","04:00"," ","0.8","","-2.4","","79","","28","","37","","24.1","","93.44","","","","","","Snow"
"1996-03-16 05:00","1996","03","16","05:00"," ","-0.9","","-4.7","","75","","29","","56","","24.1","","93.51","","","","-10","","Snow"
"1996-03-16 06:00","1996","03","16","06:00"," ","-2.5","","-5.9","","77","","30","","50","","24.1","","93.60","","","","-12","","Snow"
"1996-03-16 07:00","1996","03","16","07:00"," ","-4.3","","-7.7","","77","","30","","48","","24.1","","93.70","","","","-14","","Snow"
"1996-03-16 08:00","1996","03","16","08:00"," ","-5.6","","-8.8","","78","","30","","52","","9.7","","93.80","","","","-16","","Snow"
"1996-03-16 09:00","1996","03","16","09:00"," ","-6.6","","-9.7","","79","","31","","41","","4.0","","93.90","","","","-16","","Snow,Blowing Snow"
"1996-03-16 10:00","1996","03","16","10:00"," ","-7.6","","-11.7","","72","","31","","44","","3.2","","93.96","","","","-18","","Snow,Blowing Snow"
"1996-03-16 11:00","1996","03","16","11:00"," ","-8.2","","-11.3","","78","","32","","43","","1.2","","94.06","","","","-19","","Snow,Blowing Snow"
"1996-03-16 12:00","1996","03","16","12:00"," ","-7.9","","-11.7","","74","","32","","48","","2.4","","94.09","","","","-19","","Snow,Blowing Snow"
"1996-03-16 13:00","1996","03","16","13:00"," ","-8.2","","-12.4","","72","","31","","44","","3.2","","94.12","","","","-19","","Snow,Blowing Snow"
"1996-03-16 14:00","1996","03","16","14:00"," ","-8.3","","-11.2","","80","","32","","46","","0.8","","94.15","","","","-19","","Snow,Blowing Snow"
"1996-03-16 15:00","1996","03","16","15:00"," ","-8.3","","-11.3","","79","","32","","44","","0.8","","94.22","","","","-19","","Snow,Blowing Snow"
"1996-03-16 16:00","1996","03","16","16:00"," ","-7.7","","-10.1","","83","","32","","43","","0.8","","94.25","","","","-18","","Snow,Blowing Snow"
"1996-03-16 17:00","1996","03","16","17:00"," ","-6.6","","-10.0","","77","","32","","33","","4.0","","94.25","","","","-15","","Snow,Blowing Snow"
"1996-03-16 18:00","1996","03","16","18:00"," ","-6.3","","-9.4","","79","","33","","30","","4.0","","94.31","","","","-15","","Snow,Blowing Snow"
"1996-03-16 19:00","1996","03","16","19:00"," ","-6.3","","-8.3","","86","","32","","33","","2.4","","94.38","","","","-15","","Snow,Blowing Snow"
"1996-03-16 20:00","1996","03","16","20:00"," ","-6.0","","-9.1","","79","","32","","35","","12.9","","94.38","","","","-15","","Snow"
"1996-03-16 21:00","1996","03","16","21:00"," ","-6.1","","-8.8","","81","","32","","30","","12.9","","94.44","","","","-14","","Snow"
"1996-03-16 22:00","1996","03","16","22:00"," ","-6.3","","-9.6","","77","","32","","32","","19.3","","94.48","","","","-15","","Snow"
"1996-03-16 23:00","1996","03","16","23:00"," ","-6.6","","-10.5","","74","","32","","35","","24.1","","94.48","","","","-16","","Mostly Cloudy"
"1996-03-17 00:00","1996","03","17","00:00"," ","-7.1","","-11.3","","72","","32","","32","","24.1","","94.48","","","","-16","","Mainly Clear"
"1996-03-17 01:00","1996","03","17","01:00"," ","-8.0","","-11.7","","75","","33","","33","","24.1","","94.48","","","","-17","","Mainly Clear"
"1996-03-17 02:00","1996","03","17","02:00"," ","-8.5","","-12.0","","76","","32","","26","","24.1","","94.51","","","","-17","","Clear"
"1996-03-17 03:00","1996","03","17","03:00"," ","-8.8","","-12.3","","76","","32","","30","","24.1","","94.51","","","","-18","","Clear"
"1996-03-17 04:00","1996","03","17","04:00"," ","-9.2","","-12.4","","78","","32","","26","","24.1","","94.57","","","","-18","","Mostly Cloudy"
"1996-03-17 05:00","1996","03","17","05:00"," ","-9.4","","-12.9","","76","","32","","32","","24.1","","94.60","","","","-19","","Mostly Cloudy"
"1996-03-17 06:00","1996","03","17","06:00"," ","-9.7","","-13.2","","76","","32","","35","","24.1","","94.64","","","","-20","","Mainly Clear"
"1996-03-17 07:00","1996","03","17","07:00"," ","-9.8","","-13.0","","77","","32","","32","","24.1","","94.67","","","","-20","","Cloudy"
"1996-03-17 08:00","1996","03","17","08:00"," ","-10.1","","-13.5","","76","","32","","35","","24.1","","94.73","","","","-20","","Mostly Cloudy"
"1996-03-17 09:00","1996","03","17","09:00"," ","-10.4","","-13.7","","77","","32","","37","","24.1","","94.80","","","","-21","","Mostly Cloudy"
"1996-03-17 10:00","1996","03","17","10:00"," ","-9.6","","-12.9","","77","","32","","35","","24.1","","94.86","","","","-20","","Mostly Cloudy"
"1996-03-17 11:00","1996","03","17","11:00"," ","-8.8","","-12.5","","75","","31","","35","","24.1","","94.86","","","","-19","","Cloudy"
"1996-03-17 12:00","1996","03","17","12:00"," ","-8.1","","-11.6","","76","","32","","33","","24.1","","94.93","","","","-17","","Cloudy"
"1996-03-17 13:00","1996","03","17","13:00"," ","-6.7","","-9.7","","79","","33","","35","","19.3","","94.96","","","","-16","","Snow"
"1996-03-17 14:00","1996","03","17","14:00"," ","-5.9","","-9.4","","76","","33","","30","","24.1","","94.99","","","","-14","","Mostly Cloudy"
"1996-03-17 15:00","1996","03","17","15:00"," ","-5.3","","-9.0","","75","","32","","26","","24.1","","95.09","","","","-13","","Snow"
"1996-03-17 16:00","1996","03","17","16:00"," ","-4.1","","-8.9","","69","","34","","28","","24.1","","95.15","","","","-12","","Snow"
"1996-03-17 17:00","1996","03","17","17:00"," ","-4.3","","-8.6","","72","","33","","32","","24.1","","95.22","","","","-12","","Mostly Cloudy"
"1996-03-17 18:00","1996","03","17","18:00"," ","-4.5","","-9.1","","70","","33","","32","","24.1","","95.31","","","","-13","","Mostly Cloudy"
"1996-03-17 19:00","1996","03","17","19:00"," ","-5.4","","-9.8","","71","","33","","20","","24.1","","95.35","","","","-12","","Mainly Clear"
"1996-03-17 20:00","1996","03","17","20:00"," ","-5.8","","-10.2","","71","","32","","19","","24.1","","95.41","","","","-12","","Mainly Clear"
"1996-03-17 21:00","1996","03","17","21:00"," ","-5.9","","-10.2","","72","","33","","28","","24.1","","95.48","","","","-14","","Mainly Clear"
"1996-03-17 22:00","1996","03","17","22:00"," ","-5.8","","-10.0","","72","","33","","28","","24.1","","95.51","","","","-14","","Mostly Cloudy"
"1996-03-17 23:00","1996","03","17","23:00"," ","-6.6","","-10.7","","73","","33","","24","","24.1","","95.57","","","","-14","","Mainly Clear"
"1996-03-18 00:00","1996","03","18","00:00"," ","-7.0","","-10.7","","75","","33","","24","","24.1","","95.64","","","","-15","","Mainly Clear"
"1996-03-18 01:00","1996","03","18","01:00"," ","-7.8","","-10.9","","78","","33","","19","","24.1","","95.70","","","","-15","","Clear"
"1996-03-18 02:00","1996","03","18","02:00"," ","-8.4","","-11.2","","80","","33","","19","","24.1","","95.73","","","","-16","","Mainly Clear"
"1996-03-18 03:00","1996","03","18","03:00"," ","-9.0","","-11.6","","81","","33","","20","","24.1","","95.80","","","","-17","","Mainly Clear"
"1996-03-18 04:00","1996","03","18","04:00"," ","-8.1","","-10.6","","82","","33","","24","","24.1","","95.86","","","","-16","","Cloudy"
"1996-03-18 05:00","1996","03","18","05:00"," ","-8.3","","-11.0","","81","","33","","24","","24.1","","95.96","","","","-16","","Cloudy"
"1996-03-18 06:00","1996","03","18","06:00"," ","-9.4","","-11.9","","82","","32","","26","","24.1","","96.06","","","","-18","","Mainly Clear"
"1996-03-18 07:00","1996","03","18","07:00"," ","-10.2","","-12.4","","84","","32","","26","","24.1","","96.15","","","","-19","","Mostly Cloudy"
"1996-03-18 08:00","1996","03","18","08:00"," ","-9.9","","-12.4","","82","","33","","26","","8.0","","96.32","","","","-19","","Snow"
"1996-03-18 09:00","1996","03","18","09:00"," ","-9.4","","-12.1","","81","","34","","30","","4.8","","96.38","","","","-19","","Snow"
"1996-03-18 10:00","1996","03","18","10:00"," ","-9.4","","-11.9","","82","","35","","37","","2.4","","96.41","","","","-20","","Snow,Blowing Snow"
"1996-03-18 11:00","1996","03","18","11:00"," ","-8.1","","-12.1","","73","","35","","33","","19.3","","96.48","","","","-17","","Mostly Cloudy"
"1996-03-18 12:00","1996","03","18","12:00"," ","-7.2","","-11.6","","71","","35","","35","","24.1","","96.51","","","","-16","","Mostly Cloudy"
"1996-03-18 13:00","1996","03","18","13:00"," ","-6.3","","-10.9","","70","","35","","37","","24.1","","96.57","","","","-16","","Mostly Cloudy"
"1996-03-18 14:00","1996","03","18","14:00"," ","-5.4","","-9.7","","72","","35","","32","","24.1","","96.57","","","","-14","","Mostly Cloudy"
"1996-03-18 15:00","1996","03","18","15:00"," ","-5.0","","-10.0","","68","","35","","37","","24.1","","96.67","","","","-14","","Mostly Cloudy"
"1996-03-18 16:00","1996","03","18","16:00"," ","-5.0","","-10.2","","67","","35","","37","","24.1","","96.74","","","","-14","","Mostly Cloudy"
"1996-03-18 17:00","1996","03","18","17:00"," ","-4.4","","-10.0","","65","","35","","35","","24.1","","96.77","","","","-13","","Mostly Cloudy"
"1996-03-18 18:00","1996","03","18","18:00"," ","-4.7","","-10.0","","66","","35","","33","","24.1","","96.83","","","","-13","","Mainly Clear"
"1996-03-18 19:00","1996","03","18","19:00"," ","-5.1","","-10.3","","67","","35","","28","","24.1","","96.90","","","","-13","","Mostly Cloudy"
"1996-03-18 20:00","1996","03","18","20:00"," ","-6.0","","-10.1","","73","","36","","22","","24.1","","96.93","","","","-13","","Mainly Clear"
"1996-03-18 21:00","1996","03","18","21:00"," ","-6.6","","-10.7","","73","","36","","20","","24.1","","97.03","","","","-14","","Clear"
"1996-03-18 22:00","1996","03","18","22:00"," ","-7.3","","-10.6","","77","","36","","22","","24.1","","97.09","","","","-15","","Clear"
"1996-03-18 23:00","1996","03","18","23:00"," ","-7.8","","-10.9","","78","","36","","19","","24.1","","97.15","","","","-15","","Mostly Cloudy"
"1996-03-19 00:00","1996","03","19","00:00"," ","-8.2","","-11.2","","79","","1","","24","","24.1","","97.19","","","","-16","","Snow"
"1996-03-19 01:00","1996","03","19","01:00"," ","-9.6","","-11.9","","83","","1","","19","","24.1","","97.19","","","","-17","","Snow"
"1996-03-19 02:00","1996","03","19","02:00"," ","-10.4","","-12.2","","87","","2","","13","","24.1","","97.22","","","","-17","","Mainly Clear"
"1996-03-19 03:00","1996","03","19","03:00"," ","-11.6","","-13.7","","84","","2","","17","","24.1","","97.28","","","","-19","","Clear"
"1996-03-19 04:00","1996","03","19","04:00"," ","-12.2","","-14.2","","85","","4","","19","","24.1","","97.32","","","","-20","","Clear"
"1996-03-19 05:00","1996","03","19","05:00"," ","-12.8","","-14.6","","86","","3","","20","","24.1","","97.35","","","","-21","","Clear"
"1996-03-19 06:00","1996","03","19","06:00"," ","-13.7","","-15.6","","86","","2","","19","","24.1","","97.41","","","","-22","","Clear"
"1996-03-19 07:00","1996","03","19","07:00"," ","-13.9","","-15.9","","85","","2","","22","","24.1","","97.45","","","","-23","","Clear"
"1996-03-19 08:00","1996","03","19","08:00"," ","-14.1","","-16.3","","83","","2","","22","","24.1","","97.48","","","","-23","","Mainly Clear"
"1996-03-19 09:00","1996","03","19","09:00"," ","-13.4","","-15.8","","82","","3","","17","","24.1","","97.48","","","","-21","","Mainly Clear"
"1996-03-19 10:00","1996","03","19","10:00"," ","-13.0","","-15.7","","80","","2","","17","","24.1","","97.51","","","","-21","","Mainly Clear"
"1996-03-19 11:00","1996","03","19","11:00"," ","-12.7","","-15.4","","80","","2","","15","","24.1","","97.54","","","","-20","","Mainly Clear"
"1996-03-19 12:00","1996","03","19","12:00"," ","-11.9","","-14.6","","80","","1","","17","","24.1","","97.54","","","","-20","","Mainly Clear"
"1996-03-19 13:00","1996","03","19","13:00"," ","-10.7","","-13.7","","79","","4","","17","","24.1","","97.51","","","","-18","","Clear"
"1996-03-19 14:00","1996","03","19","14:00"," ","-9.8","","-13.2","","76","","2","","11","","24.1","","97.48","","","","-15","","Clear"
"1996-03-19 15:00","1996","03","19","15:00"," ","-9.2","","-13.2","","73","","8","","7","","24.1","","97.48","","","","-13","","Clear"
"1996-03-19 16:00","1996","03","19","16:00"," ","-8.4","","-12.8","","71","","9","","7","","24.1","","97.38","","","","-12","","Clear"
"1996-03-19 17:00","1996","03","19","17:00"," ","-8.1","","-12.3","","72","","7","","9","","24.1","","97.41","","","","-13","","Clear"
"1996-03-19 18:00","1996","03","19","18:00"," ","-8.4","","-12.5","","72","","6","","9","","24.1","","97.38","","","","-13","","Mainly Clear"
"1996-03-19 19:00","1996","03","19","19:00"," ","-9.7","","-12.8","","78","","6","","11","","24.1","","97.32","","","","-15","","Mainly Clear"
"1996-03-19 20:00","1996","03","19","20:00"," ","-11.6","","-13.8","","84","","10","","7","","24.1","","97.32","","","","-16","","Mainly Clear"
"1996-03-19 21:00","1996","03","19","21:00"," ","-10.8","","-15.0","","71","","12","","17","","24.1","","97.32","","","","-18","","Mainly Clear"
"1996-03-19 22:00","1996","03","19","22:00"," ","-11.7","","-15.6","","73","","12","","19","","24.1","","97.25","","","","-20","","Mainly Clear"
"1996-03-19 23:00","1996","03","19","23:00"," ","-12.3","","-16.4","","71","","13","","17","","24.1","","97.28","","","","-20","","Mainly Clear"
"1996-03-20 00:00","1996","03","20","00:00"," ","-12.7","","-16.7","","72","","14","","15","","24.1","","97.28","","","","-20","","Mainly Clear"
"1996-03-20 01:00","1996","03","20","01:00"," ","-13.0","","-16.9","","72","","13","","20","","24.1","","97.25","","","","-22","","Mainly Clear"
"1996-03-20 02:00","1996","03","20","02:00"
"1996-03-20 03:00","1996","03","20","03:00"," ","-13.4","","-15.8","","82","","14","","19","","24.1","","97.15","","","","-22","","Mainly Clear"
"1996-03-20 04:00","1996","03","20","04:00"," ","-13.4","","-16.2","","79","","15","","20","","24.1","","97.09","","","","-22","","Clear"
"1996-03-20 05:00","1996","03","20","05:00"," ","-13.7","","-16.4","","80","","15","","24","","24.1","","96.99","","","","-23","","Mainly Clear"
"1996-03-20 06:00","1996","03","20","06:00"," ","-13.6","","-16.2","","81","","15","","24","","24.1","","96.96","","","","-23","","Mostly Cloudy"
"1996-03-20 07:00","1996","03","20","07:00"," ","-13.4","","-15.9","","81","","15","","24","","24.1","","96.90","","","","-23","","Cloudy"
"1996-03-20 08:00","1996","03","20","08:00"," ","-12.6","","-15.6","","78","","15","","28","","24.1","","96.77","","","","-23","","Cloudy"
"1996-03-20 09:00","1996","03","20","09:00"," ","-11.3","","-14.8","","75","","15","","30","","24.1","","96.74","","","","-21","","Cloudy"
"1996-03-20 10:00","1996","03","20","10:00"," ","-9.9","","-13.8","","73","","15","","30","","24.1","","96.74","","","","-19","","Cloudy"
"1996-03-20 11:00","1996","03","20","11:00"," ","-8.6","","-12.4","","74","","15","","32","","24.1","","96.64","","","","-18","","Cloudy"
"1996-03-20 12:00","1996","03","20","12:00"," ","-7.6","","-11.8","","72","","15","","32","","24.1","","96.54","","","","-17","","Cloudy"
"1996-03-20 13:00","1996","03","20","13:00"," ","-6.0","","-10.4","","71","","15","","33","","24.1","","96.44","","","","-15","","Mostly Cloudy"
"1996-03-20 14:00","1996","03","20","14:00"," ","-5.2","","-9.4","","72","","14","","33","","24.1","","96.32","","","","-14","","Cloudy"
"1996-03-20 15:00","1996","03","20","15:00"," ","-4.3","","-8.5","","72","","14","","33","","24.1","","96.22","","","","-12","","Mostly Cloudy"
"1996-03-20 16:00","1996","03","20","16:00"," ","-3.4","","-7.5","","73","","14","","33","","24.1","","96.15","","","","-11","","Mostly Cloudy"
"1996-03-20 17:00","1996","03","20","17:00"," ","-2.8","","-7.2","","72","","15","","37","","24.1","","96.09","","","","-11","","Mostly Cloudy"
"1996-03-20 18:00","1996","03","20","18:00"," ","-2.6","","-7.4","","70","","16","","32","","24.1","","96.12","","","","-10","","Mostly Cloudy"
"1996-03-20 19:00","1996","03","20","19:00"," ","-3.4","","-6.7","","78","","15","","24","","24.1","","96.09","","","","-10","","Mainly Clear"
"1996-03-20 20:00","1996","03","20","20:00"," ","-4.3","","-7.1","","81","","14","","20","","24.1","","96.09","","","","-11","","Mainly Clear"
"1996-03-20 21:00","1996","03","20","21:00"," ","-4.8","","-7.4","","82","","14","","19","","24.1","","96.06","","","","-11","","Mainly Clear"
"1996-03-20 22:00","1996","03","20","22:00"," ","-5.3","","-7.5","","84","","14","","19","","24.1","","96.06","","","","-12","","Mostly Cloudy"
"1996-03-20 23:00","1996","03","20","23:00"," ","-4.8","","-7.2","","83","","15","","22","","24.1","","95.99","","","","-12","","Mostly Cloudy"
"1996-03-21 00:00","1996","03","21","00:00"," ","-4.7","","-6.9","","85","","15","","22","","24.1","","95.99","","","","-12","","Cloudy"
"1996-03-21 01:00","1996","03","21","01:00"," ","-4.7","","-6.8","","85","","16","","17","","24.1","","95.99","","","","-11","","Cloudy"
"1996-03-21 02:00","1996","03","21","02:00"," ","-4.7","","-6.5","","87","","14","","6","","24.1","","96.02","","","","-7","","Snow"
"1996-03-21 03:00","1996","03","21","03:00"," ","-4.7","","-6.3","","89","","","","0","","24.1","","96.02","","","","","","Cloudy"
"1996-03-21 04:00","1996","03","21","04:00"," ","-4.7","","-6.1","","90","","","","0","","24.1","","96.06","","","","","","Cloudy"
"1996-03-21 05:00","1996","03","21","05:00"," ","-4.6","","-6.0","","90","","34","","11","","24.1","","96.09","","","","-9","","Cloudy"
"1996-03-21 06:00","1996","03","21","06:00"," ","-4.5","","-6.1","","89","","34","","22","","24.1","","96.19","","","","-11","","Cloudy"
"1996-03-21 07:00","1996","03","21","07:00"," ","-4.3","","-5.7","","90","","34","","22","","24.1","","96.25","","","","-11","","Freezing Drizzle"
"1996-03-21 08:00","1996","03","21","08:00"," ","-3.8","","-5.7","","87","","34","","26","","24.1","","96.28","","","","-11","","Cloudy"
"1996-03-21 09:00","1996","03","21","09:00"," ","-4.2","","-7.0","","81","","34","","28","","24.1","","96.32","","","","-12","","Cloudy"
"1996-03-21 10:00","1996","03","21","10:00"," ","-4.6","","-7.9","","78","","35","","22","","24.1","","96.35","","","","-11","","Cloudy"
"1996-03-21 11:00","1996","03","21","11:00"," ","-4.1","","-7.7","","76","","35","","22","","24.1","","96.41","","","","-11","","Mostly Cloudy"
"1996-03-21 12:00","1996","03","21","12:00"," ","-3.6","","-8.5","","69","","34","","30","","24.1","","96.41","","","","-11","","Mainly Clear"
"1996-03-21 13:00","1996","03","21","13:00"," ","-2.7","","-7.9","","67","","35","","26","","24.1","","96.41","","","","-10","","Mainly Clear"
"1996-03-21 14:00","1996","03","21","14:00"," ","-2.9","","-8.2","","67","","35","","28","","24.1","","96.38","","","","-10","","Mainly Clear"
"1996-03-21 15:00","1996","03","21","15:00"," ","-2.7","","-8.0","","67","","33","","22","","24.1","","96.41","","","","-9","","Mostly Cloudy"
"1996-03-21 16:00","1996","03","21","16:00"," ","-3.1","","-8.5","","66","","33","","22","","24.1","","96.38","","","","-9","","Mostly Cloudy"
"1996-03-21 17:00","1996","03","21","17:00"," ","-3.6","","-8.8","","67","","32","","19","","24.1","","96.38","","","","-10","","Mainly Clear"
"1996-03-21 18:00","1996","03","21","18:00"," ","-3.9","","-9.1","","67","","32","","19","","24.1","","96.41","","","","-10","","Mainly Clear"
"1996-03-21 19:00","1996","03","21","19:00"," ","-4.7","","-9.2","","71","","31","","17","","24.1","","96.38","","","","-11","","Mainly Clear"
"1996-03-21 20:00","1996","03","21","20:00"," ","-5.5","","-8.7","","78","","33","","13","","24.1","","96.38","","","","-11","","Clear"
"1996-03-21 21:00","1996","03","21","21:00"," ","-6.2","","-9.4","","78","","32","","15","","24.1","","96.38","","","","-12","","Clear"
"1996-03-21 22:00","1996","03","21","22:00"," ","-7.4","","-10.8","","77","","33","","13","","24.1","","96.38","","","","-13","","Clear"
"1996-03-21 23:00","1996","03","21","23:00"," ","-7.9","","-10.9","","79","","32","","11","","24.1","","96.38","","","","-13","","Clear"
"1996-03-22 00:00","1996","03","22","00:00"," ","-8.7","","-11.3","","81","","33","","9","","24.1","","96.35","","","","-13","","Clear"
"1996-03-22 01:00","1996","03","22","01:00"," ","-9.6","","-12.1","","82","","33","","9","","24.1","","96.35","","","","-14","","Clear"
"1996-03-22 02:00","1996","03","22","02:00"," ","-10.6","","-12.7","","85","","34","","9","","24.1","","96.32","","","","-16","","Clear"
"1996-03-22 03:00","1996","03","22","03:00"," ","-11.2","","-13.3","","84","","33","","6","","24.1","","96.32","","","","-15","","Clear"
"1996-03-22 04:00","1996","03","22","04:00"," ","-12.7","","-14.4","","87","","27","","6","","24.1","","96.25","","","","-17","","Mainly Clear"
"1996-03-22 05:00","1996","03","22","05:00"," ","-11.4","","-13.5","","84","","35","","6","","16.1","","96.25","","","","-15","","Snow"
"1996-03-22 06:00","1996","03","22","06:00"," ","-11.3","","-13.2","","86","","","","0","","16.1","","96.25","","","","","","Snow"
"1996-03-22 07:00","1996","03","22","07:00"," ","-10.9","","-12.3","","89","","8","","6","","12.9","","96.22","","","","-15","","Snow"
"1996-03-22 08:00","1996","03","22","08:00"," ","-9.7","","-11.1","","89","","13","","9","","8.0","","96.19","","","","-15","","Snow"
"1996-03-22 09:00","1996","03","22","09:00"," ","-8.6","","-10.4","","87","","13","","20","","4.8","","96.15","","","","-16","","Snow"
"1996-03-22 10:00","1996","03","22","10:00"," ","-8.3","","-10.1","","87","","12","","15","","4.8","","96.22","","","","-15","","Snow"
"1996-03-22 11:00","1996","03","22","11:00"," ","-6.8","","-9.8","","79","","12","","15","","19.3","","96.12","","","","-13","","Snow"
"1996-03-22 12:00","1996","03","22","12:00"," ","-6.3","","-9.3","","79","","12","","17","","24.1","","96.09","","","","-13","","Snow"
"1996-03-22 13:00","1996","03","22","13:00"," ","-5.1","","-9.0","","74","","14","","15","","24.1","","96.06","","","","-11","","Mostly Cloudy"
"1996-03-22 14:00","1996","03","22","14:00"," ","-5.0","","-8.9","","74","","13","","19","","24.1","","95.99","","","","-11","","Cloudy"
"1996-03-22 15:00","1996","03","22","15:00"," ","-4.6","","-8.7","","73","","13","","17","","24.1","","95.93","","","","-10","","Cloudy"
"1996-03-22 16:00","1996","03","22","16:00"," ","-4.3","","-9.5","","67","","15","","17","","24.1","","95.93","","","","-10","","Cloudy"
"1996-03-22 17:00","1996","03","22","17:00"," ","-4.2","","-8.5","","72","","11","","15","","24.1","","95.93","","","","-10","","Snow Showers"
"1996-03-22 18:00","1996","03","22","18:00"," ","-4.8","","-7.9","","79","","9","","19","","24.1","","95.93","","","","-11","","Snow Showers"
"1996-03-22 19:00","1996","03","22","19:00"," ","-5.7","","-8.3","","82","","10","","17","","24.1","","95.93","","","","-12","","Mostly Cloudy"
"1996-03-22 20:00","1996","03","22","20:00"," ","-6.0","","-9.3","","77","","6","","11","","24.1","","95.96","","","","-11","","Mostly Cloudy"
"1996-03-22 21:00","1996","03","22","21:00"," ","-7.3","","-10.6","","77","","9","","19","","24.1","","95.96","","","","-14","","Snow"
"1996-03-22 22:00","1996","03","22","22:00"," ","-8.6","","-12.3","","75","","10","","17","","24.1","","95.99","","","","-15","","Mostly Cloudy"
"1996-03-22 23:00","1996","03","22","23:00"," ","-9.1","","-13.1","","73","","11","","20","","24.1","","96.06","","","","-17","","Snow"
"1996-03-23 00:00","1996","03","23","00:00"," ","-9.2","","-13.1","","73","","12","","17","","24.1","","96.09","","","","-16","","Snow"
"1996-03-23 01:00","1996","03","23","01:00"," ","-9.6","","-12.2","","81","","10","","20","","6.4","","96.09","","","","-17","","Snow"
"1996-03-23 02:00","1996","03","23","02:00"," ","-10.0","","-11.9","","86","","9","","15","","3.2","","96.09","","","","-17","","Snow"
"1996-03-23 03:00","1996","03","23","03:00"," ","-10.5","","-12.4","","86","","8","","15","","2.4","","96.06","","","","-17","","Snow"
"1996-03-23 04:00","1996","03","23","04:00"," ","-11.3","","-13.2","","86","","7","","17","","2.8","","96.06","","","","-19","","Snow"
"1996-03-23 05:00","1996","03","23","05:00"," ","-11.4","","-13.4","","85","","5","","15","","2.8","","96.09","","","","-18","","Snow"
"1996-03-23 06:00","1996","03","23","06:00"," ","-12.3","","-14.7","","82","","8","","17","","1.6","","96.12","","","","-20","","Snow"
"1996-03-23 07:00","1996","03","23","07:00"," ","-12.7","","-14.4","","87","","3","","17","","1.6","","96.15","","","","-21","","Snow"
"1996-03-23 08:00","1996","03","23","08:00"," ","-13.7","","-15.7","","85","","2","","19","","3.2","","96.15","","","","-22","","Snow,Fog"
"1996-03-23 09:00","1996","03","23","09:00"," ","-13.6","","-15.5","","86","","3","","20","","1.6","","96.22","","","","-22","","Snow"
"1996-03-23 10:00","1996","03","23","10:00"," ","-13.4","","-15.5","","84","","3","","19","","2.4","","96.25","","","","-22","","Snow"
"1996-03-23 11:00","1996","03","23","11:00"," ","-13.4","","-15.6","","83","","3","","22","","2.4","","96.32","","","","-23","","Snow"
"1996-03-23 12:00","1996","03","23","12:00"," ","-13.4","","-15.6","","83","","2","","22","","4.0","","96.35","","","","-23","","Snow"
"1996-03-23 13:00","1996","03","23","13:00"," ","-13.3","","-15.7","","82","","2","","26","","2.4","","96.38","","","","-23","","Snow"
"1996-03-23 14:00","1996","03","23","14:00"," ","-13.0","","-15.8","","79","","3","","32","","1.6","","96.38","","","","-24","","Snow"
"1996-03-23 15:00","1996","03","23","15:00"," ","-12.7","","-15.3","","81","","2","","32","","4.0","","96.35","","","","-23","","Snow,Blowing Snow"
"1996-03-23 16:00","1996","03","23","16:00"," ","-12.7","","-15.3","","81","","2","","24","","4.8","","96.44","","","","-22","","Snow"
"1996-03-23 17:00","1996","03","23","17:00"," ","-13.1","","-15.3","","84","","2","","24","","1.6","","96.48","","","","-23","","Snow"
"1996-03-23 18:00","1996","03","23","18:00"," ","-13.2","","-15.6","","82","","1","","20","","9.7","","96.51","","","","-22","","Snow"
"1996-03-23 19:00","1996","03","23","19:00"," ","-13.5","","-16.1","","81","","2","","24","","8.0","","96.57","","","","-23","","Snow"
"1996-03-23 20:00","1996","03","23","20:00"," ","-14.1","","-16.8","","80","","2","","26","","12.9","","96.64","","","","-24","","Snow"
"1996-03-23 21:00","1996","03","23","21:00"," ","-14.6","","-17.9","","76","","2","","24","","16.1","","96.74","","","","-24","","Snow"
"1996-03-23 22:00","1996","03","23","22:00"," ","-15.2","","-18.9","","73","","2","","24","","24.1","","96.83","","","","-25","","Cloudy"
"1996-03-23 23:00","1996","03","23","23:00"," ","-15.9","","-19.4","","74","","3","","17","","24.1","","96.90","","","","-25","","Mostly Cloudy"
"1996-03-24 00:00","1996","03","24","00:00"," ","-16.5","","-19.7","","76","","1","","20","","24.1","","96.93","","","","-26","","Mostly Cloudy"
"1996-03-24 01:00","1996","03","24","01:00"," ","-17.5","","-22.7","","64","","36","","24","","24.1","","96.96","","","","-28","","Mostly Cloudy"
"1996-03-24 02:00","1996","03","24","02:00"," ","-18.0","","-25.1","","54","","35","","22","","24.1","","96.99","","","","-28","","Mostly Cloudy"
"1996-03-24 03:00","1996","03","24","03:00"," ","-19.1","","-24.9","","60","","34","","19","","24.1","","96.99","","","","-29","","Mainly Clear"
"1996-03-24 04:00","1996","03","24","04:00"," ","-19.9","","-25.7","","60","","35","","20","","24.1","","96.99","","","","-30","","Mainly Clear"
"1996-03-24 05:00","1996","03","24","05:00"," ","-20.3","","-26.3","","59","","34","","19","","24.1","","97.06","","","","-31","","Mainly Clear"
"1996-03-24 06:00","1996","03","24","06:00"," ","-21.4","","-27.1","","60","","33","","15","","24.1","","97.09","","","","-31","","Mainly Clear"
"1996-03-24 07:00","1996","03","24","07:00"," ","-21.6","","-27.1","","61","","33","","17","","24.1","","97.19","","","","-32","","Mainly Clear"
"1996-03-24 08:00","1996","03","24","08:00"," ","-21.3","","-27.3","","58","","32","","17","","24.1","","97.19","","","","-31","","Mainly Clear"
"1996-03-24 09:00","1996","03","24","09:00"," ","-19.9","","-26.3","","57","","33","","17","","24.1","","97.19","","","","-30","","Mainly Clear"
"1996-03-24 10:00","1996","03","24","10:00"," ","-18.3","","-25.2","","55","","33","","17","","24.1","","97.15","","","","-28","","Mainly Clear"
"1996-03-24 11:00","1996","03","24","11:00"," ","-16.6","","-24.3","","51","","32","","22","","24.1","","97.15","","","","-27","","Clear"
"1996-03-24 12:00","1996","03","24","12:00"," ","-15.8","","-24.3","","48","","32","","32","","24.1","","97.09","","","","-27","","Clear"
"1996-03-24 13:00","1996","03","24","13:00"," ","-14.7","","-24.0","","45","","32","","30","","24.1","","97.06","","","","-26","","Clear"
"1996-03-24 14:00","1996","03","24","14:00"," ","-14.2","","-24.5","","41","","31","","28","","24.1","","96.99","","","","-25","","Clear"
"1996-03-24 15:00","1996","03","24","15:00"," ","-13.7","","-24.0","","42","","31","","33","","24.1","","96.90","","","","-25","","Clear"
"1996-03-24 16:00","1996","03","24","16:00"," ","-13.2","","-22.9","","44","","31","","32","","24.1","","96.83","","","","-24","","Clear"
"1996-03-24 17:00","1996","03","24","17:00"," ","-12.9","","-21.8","","47","","30","","28","","24.1","","96.77","","","","-23","","Clear"
"1996-03-24 18:00","1996","03","24","18:00"," ","-12.9","","-22.0","","46","","30","","30","","24.1","","96.74","","","","-23","","Clear"
"1996-03-24 19:00","1996","03","24","19:00"," ","-13.7","","-21.8","","50","","31","","26","","24.1","","96.67","","","","-24","","Clear"
"1996-03-24 20:00","1996","03","24","20:00"," ","-14.3","","-21.9","","52","","30","","22","","24.1","","96.67","","","","-24","","Clear"
"1996-03-24 21:00","1996","03","24","21:00"," ","-15.1","","-21.6","","58","","29","","22","","24.1","","96.64","","","","-25","","Clear"
"1996-03-24 22:00","1996","03","24","22:00"," ","-15.3","","-21.8","","58","","29","","22","","24.1","","96.54","","","","-25","","Mainly Clear"
"1996-03-24 23:00","1996","03","24","23:00"," ","-14.8","","-20.9","","60","","30","","24","","24.1","","96.48","","","","-25","","Mainly Clear"
"1996-03-25 00:00","1996","03","25","00:00"," ","-15.0","","-20.7","","62","","30","","20","","24.1","","96.44","","","","-24","","Mainly Clear"
"1996-03-25 01:00","1996","03","25","01:00"," ","-14.8","","-20.5","","62","","32","","20","","24.1","","96.41","","","","-24","","Clear"
"1996-03-25 02:00","1996","03","25","02:00"," ","-15.7","","-21.0","","64","","30","","22","","24.1","","96.38","","","","-25","","Clear"
"1996-03-25 03:00","1996","03","25","03:00"," ","-16.2","","-22.1","","60","","32","","22","","24.1","","96.35","","","","-26","","Clear"
"1996-03-25 04:00","1996","03","25","04:00"," ","-17.7","","-24.3","","56","","34","","20","","24.1","","96.41","","","","-28","","Clear"
"1996-03-25 05:00","1996","03","25","05:00"," ","-19.5","","-26.1","","56","","34","","17","","24.1","","96.41","","","","-29","","Clear"
"1996-03-25 06:00","1996","03","25","06:00"," ","-20.6","","-28.1","","51","","33","","15","","24.1","","96.48","","","","-30","","Clear"
"1996-03-25 07:00","1996","03","25","07:00"," ","-20.7","","-28.1","","51","","35","","22","","24.1","","96.54","","","","-32","","Clear"
"1996-03-25 08:00","1996","03","25","08:00"," ","-21.1","","-28.5","","51","","36","","30","","24.1","","96.61","","","","-34","","Clear"
"1996-03-25 09:00","1996","03","25","09:00"," ","-21.3","","-29.8","","46","","35","","24","","24.1","","96.61","","","","-33","","Mainly Clear"
"1996-03-25 10:00","1996","03","25","10:00"," ","-20.9","","-28.6","","50","","35","","24","","24.1","","96.64","","","","-33","","Clear"
"1996-03-25 11:00","1996","03","25","11:00"," ","-20.5","","-28.5","","49","","34","","24","","24.1","","96.64","","","","-32","","Clear"
"1996-03-25 12:00","1996","03","25","12:00"," ","-19.2","","-27.6","","47","","34","","19","","24.1","","96.57","","","","-29","","Clear"
"1996-03-25 13:00","1996","03","25","13:00"," ","-17.9","","-26.9","","45","","35","","19","","24.1","","96.54","","","","-28","","Clear"
"1996-03-25 14:00","1996","03","25","14:00"," ","-16.9","","-25.9","","46","","31","","13","","24.1","","96.51","","","","-25","","Clear"
"1996-03-25 15:00","1996","03","25","15:00"," ","-15.7","","-25.0","","45","","30","","17","","24.1","","96.44","","","","-24","","Clear"
"1996-03-25 16:00","1996","03","25","16:00"," ","-15.9","","-25.3","","44","","29","","11","","24.1","","96.41","","","","-23","","Clear"
"1996-03-25 17:00","1996","03","25","17:00"," ","-14.9","","-24.2","","45","","30","","15","","24.1","","96.41","","","","-23","","Clear"
"1996-03-25 18:00","1996","03","25","18:00"," ","-14.8","","-23.8","","46","","30","","13","","24.1","","96.35","","","","-22","","Mainly Clear"
"1996-03-25 19:00","1996","03","25","19:00"," ","-16.1","","-24.6","","48","","31","","6","","24.1","","96.32","","","","-21","","Mainly Clear"
"1996-03-25 20:00","1996","03","25","20:00"," ","-19.4","","-25.8","","57","","","","0","","24.1","","96.25","","","","","","Mostly Cloudy"
"1996-03-25 21:00","1996","03","25","21:00"," ","-17.5","","-23.1","","62","","15","","9","","24.1","","96.22","","","","-24","","Mainly Clear"
"1996-03-25 22:00","1996","03","25","22:00"," ","-18.5","","-24.2","","61","","18","","13","","24.1","","96.12","","","","-27","","Mostly Cloudy"
"1996-03-25 23:00","1996","03","25","23:00"," ","-17.8","","-23.8","","59","","17","","9","","24.1","","96.06","","","","-24","","Mostly Cloudy"
"1996-03-26 00:00","1996","03","26","00:00"," ","-17.1","","-24.0","","55","","18","","11","","24.1","","96.02","","","","-24","","Mostly Cloudy"
"1996-03-26 01:00","1996","03","26","01:00"," ","-17.6","","-23.7","","59","","18","","13","","24.1","","95.96","","","","-25","","Mostly Cloudy"
"1996-03-26 02:00","1996","03","26","02:00"," ","-18.5","","-24.4","","60","","17","","13","","24.1","","95.90","","","","-27","","Mostly Cloudy"
"1996-03-26 03:00","1996","03","26","03:00"," ","-18.8","","-24.4","","61","","17","","20","","24.1","","95.80","","","","-29","","Mostly Cloudy"
"1996-03-26 04:00","1996","03","26","04:00"," ","-19.1","","-25.1","","59","","17","","22","","24.1","","95.70","","","","-30","","Mostly Cloudy"
"1996-03-26 05:00","1996","03","26","05:00"," ","-19.5","","-25.2","","61","","16","","20","","24.1","","95.64","","","","-30","","Mostly Cloudy"
"1996-03-26 06:00","1996","03","26","06:00"," ","-19.5","","-25.5","","59","","16","","22","","24.1","","95.54","","","","-30","","Mostly Cloudy"
"1996-03-26 07:00","1996","03","26","07:00"," ","-18.8","","-25.3","","57","","15","","26","","24.1","","95.48","","","","-30","","Mostly Cloudy"
"1996-03-26 08:00","1996","03","26","08:00"," ","-17.7","","-23.9","","58","","15","","28","","24.1","","95.41","","","","-29","","Mostly Cloudy"
"1996-03-26 09:00","1996","03","26","09:00"," ","-16.2","","-22.7","","57","","15","","30","","24.1","","95.35","","","","-28","","Mostly Cloudy"
"1996-03-26 10:00","1996","03","26","10:00"," ","-14.5","","-20.5","","60","","15","","28","","24.1","","95.25","","","","-25","","Mostly Cloudy"
"1996-03-26 11:00","1996","03","26","11:00"," ","-12.3","","-19.2","","56","","16","","32","","24.1","","95.22","","","","-23","","Mostly Cloudy"
"1996-03-26 12:00","1996","03","26","12:00"," ","-10.8","","-17.3","","59","","16","","28","","24.1","","95.22","","","","-20","","Cloudy"
"1996-03-26 13:00","1996","03","26","13:00"," ","-9.0","","-15.5","","59","","19","","24","","24.1","","95.15","","","","-17","","Cloudy"
"1996-03-26 14:00","1996","03","26","14:00"," ","-9.3","","-12.5","","78","","20","","17","","1.6","","95.19","","","","-16","","Snow"
"1996-03-26 15:00","1996","03","26","15:00"," ","-8.3","","-11.0","","81","","18","","9","","3.2","","95.22","","","","-13","","Snow"
"1996-03-26 16:00","1996","03","26","16:00"," ","-7.1","","-10.4","","77","","19","","2","","16.1","","95.22","","","","-8","","Snow"
"1996-03-26 17:00","1996","03","26","17:00"," ","-7.2","","-10.0","","80","","32","","9","","2.4","","95.31","","","","-12","","Snow"
"1996-03-26 18:00","1996","03","26","18:00"," ","-7.8","","-11.4","","75","","30","","24","","4.8","","95.38","","","","-16","","Snow Showers"
"1996-03-26 19:00","1996","03","26","19:00"," ","-8.6","","-12.7","","72","","31","","22","","19.3","","95.48","","","","-16","","Mostly Cloudy"
"1996-03-26 20:00","1996","03","26","20:00"," ","-9.7","","-14.0","","71","","31","","22","","24.1","","95.57","","","","-18","","Mostly Cloudy"
"1996-03-26 21:00","1996","03","26","21:00"," ","-10.2","","-14.5","","71","","31","","20","","24.1","","95.64","","","","-18","","Mainly Clear"
"1996-03-26 22:00","1996","03","26","22:00"," ","-12.0","","-14.5","","82","","29","","19","","24.1","","95.73","","","","-20","","Mainly Clear"
"1996-03-26 23:00","1996","03","26","23:00"," ","-12.0","","-14.8","","80","","30","","19","","24.1","","95.77","","","","-20","","Mainly Clear"
"1996-03-27 00:00","1996","03","27","00:00"," ","-12.6","","-15.4","","80","","30","","22","","24.1","","95.83","","","","-22","","Mainly Clear"
"1996-03-27 01:00","1996","03","27","01:00"," ","-12.4","","-14.9","","82","","31","","20","","19.3","","95.90","","","","-21","","Snow"
"1996-03-27 02:00","1996","03","27","02:00"," ","-12.6","","-15.3","","80","","30","","22","","24.1","","95.93","","","","-22","","Snow"
"1996-03-27 03:00","1996","03","27","03:00"," ","-12.8","","-15.5","","80","","31","","19","","24.1","","95.96","","","","-21","","Snow"
"1996-03-27 04:00","1996","03","27","04:00"," ","-13.4","","-15.7","","83","","31","","26","","12.9","","96.02","","","","-23","","Snow"
"1996-03-27 05:00","1996","03","27","05:00"," ","-13.7","","-16.2","","81","","31","","30","","9.7","","96.06","","","","-24","","Snow"
"1996-03-27 06:00","1996","03","27","06:00"," ","-15.4","","-17.7","","83","","30","","19","","19.3","","96.15","","","","-24","","Snow"
"1996-03-27 07:00","1996","03","27","07:00"," ","-15.9","","-18.1","","83","","30","","17","","19.3","","96.25","","","","-25","","Snow"
"1996-03-27 08:00","1996","03","27","08:00"," ","-15.8","","-18.3","","81","","30","","20","","24.1","","96.32","","","","-25","","Mainly Clear"
"1996-03-27 09:00","1996","03","27","09:00"," ","-14.9","","-17.7","","79","","32","","22","","24.1","","96.35","","","","-24","","Mainly Clear"
"1996-03-27 10:00","1996","03","27","10:00"," ","-14.0","","-17.0","","78","","31","","19","","24.1","","96.48","","","","-23","","Mainly Clear"
"1996-03-27 11:00","1996","03","27","11:00"," ","-13.0","","-16.6","","74","","30","","19","","24.1","","96.51","","","","-21","","Clear"
"1996-03-27 12:00","1996","03","27","12:00"," ","-12.3","","-16.1","","73","","31","","20","","24.1","","96.54","","","","-21","","Mainly Clear"
"1996-03-27 13:00","1996","03","27","13:00"," ","-11.5","","-15.9","","70","","31","","22","","24.1","","96.57","","","","-20","","Clear"
"1996-03-27 14:00","1996","03","27","14:00"," ","-11.5","","-16.4","","67","","30","","22","","24.1","","96.61","","","","-20","","Clear"
"1996-03-27 15:00","1996","03","27","15:00"," ","-11.1","","-16.1","","67","","31","","22","","24.1","","96.64","","","","-20","","Clear"
"1996-03-27 16:00","1996","03","27","16:00"," ","-11.3","","-16.8","","64","","32","","20","","24.1","","96.64","","","","-20","","Mainly Clear"
"1996-03-27 17:00","1996","03","27","17:00"," ","-11.9","","-16.9","","66","","30","","20","","24.1","","96.64","","","","-20","","Mainly Clear"
"1996-03-27 18:00","1996","03","27","18:00"," ","-11.7","","-16.7","","66","","32","","20","","24.1","","96.67","","","","-20","","Mainly Clear"
"1996-03-27 19:00","1996","03","27","19:00"," ","-13.2","","-17.8","","68","","31","","13","","24.1","","96.67","","","","-20","","Clear"
"1996-03-27 20:00","1996","03","27","20:00"," ","-15.0","","-18.4","","75","","30","","13","","24.1","","96.70","","","","-22","","Clear"
"1996-03-27 21:00","1996","03","27","21:00"," ","-17.0","","-19.4","","82","","28","","9","","24.1","","96.74","","","","-23","","Clear"
"1996-03-27 22:00","1996","03","27","22:00"," ","-17.2","","-19.7","","81","","28","","11","","24.1","","96.74","","","","-24","","Clear"
"1996-03-27 23:00","1996","03","27","23:00"," ","-19.0","","-20.7","","86","","26","","13","","24.1","","96.74","","","","-27","","Clear"
"1996-03-28 00:00","1996","03","28","00:00"," ","-19.3","","-20.7","","89","","28","","13","","24.1","","96.74","","","","-28","","Clear"
"1996-03-28 01:00","1996","03","28","01:00"," ","-21.6","","-23.0","","88","","24","","11","","24.1","","96.74","","","","-30","","Clear"
"1996-03-28 02:00","1996","03","28","02:00"," ","-22.0","","-26.5","","67","","24","","13","","24.1","","96.74","","","","-31","","Clear"
"1996-03-28 03:00","1996","03","28","03:00"," ","-22.0","","-26.1","","69","","23","","13","","24.1","","96.67","","","","-31","","Clear"
"1996-03-28 04:00","1996","03","28","04:00"," ","-22.4","","-26.6","","69","","25","","13","","24.1","","96.64","","","","-31","","Clear"
"1996-03-28 05:00","1996","03","28","05:00"," ","-23.8","","-27.5","","71","","21","","4","","24.1","","96.61","","","","-28","","Clear"
"1996-03-28 06:00","1996","03","28","06:00"," ","-23.8","","-27.3","","73","","18","","6","","24.1","","96.57","","","","-29","","Clear"
"1996-03-28 07:00","1996","03","28","07:00"," ","-23.7","","-28.0","","68","","19","","4","","24.1","","96.61","","","","-28","","Clear"
"1996-03-28 08:00","1996","03","28","08:00"," ","-21.1","","-25.5","","68","","18","","2","","24.1","","96.61","","","","-23","","Clear"
"1996-03-28 09:00","1996","03","28","09:00"," ","-18.5","","-22.9","","68","","16","","6","","24.1","","96.57","","","","-23","","Clear"
"1996-03-28 10:00","1996","03","28","10:00"," ","-14.7","","-21.2","","58","","18","","7","","24.1","","96.54","","","","-19","","Clear"
"1996-03-28 11:00","1996","03","28","11:00"," ","-13.0","","-20.3","","54","","20","","7","","24.1","","96.48","","","","-18","","Clear"
"1996-03-28 12:00","1996","03","28","12:00"," ","-11.9","","-18.9","","56","","19","","11","","24.1","","96.48","","","","-18","","Clear"
"1996-03-28 13:00","1996","03","28","13:00"," ","-10.9","","-17.6","","58","","19","","11","","24.1","","96.41","","","","-17","","Clear"
"1996-03-28 14:00","1996","03","28","14:00"," ","-10.2","","-17.2","","56","","21","","9","","24.1","","96.38","","","","-15","","Mainly Clear"
"1996-03-28 15:00","1996","03","28","15:00"," ","-9.4","","-16.3","","57","","20","","11","","24.1","","96.35","","","","-15","","Mainly Clear"
"1996-03-28 16:00","1996","03","28","16:00"," ","-8.6","","-16.2","","54","","23","","13","","24.1","","96.28","","","","-15","","Mainly Clear"
"1996-03-28 17:00","1996","03","28","17:00"," ","-8.5","","-16.3","","53","","21","","9","","24.1","","96.22","","","","-13","","Clear"
"1996-03-28 18:00","1996","03","28","18:00"," ","-8.9","","-16.6","","54","","17","","7","","24.1","","96.22","","","","-13","","Clear"
"1996-03-28 19:00","1996","03","28","19:00"," ","-10.9","","-17.4","","59","","15","","11","","24.1","","96.22","","","","-17","","Clear"
"1996-03-28 20:00","1996","03","28","20:00"," ","-13.4","","-19.0","","63","","15","","11","","24.1","","96.22","","","","-20","","Mainly Clear"
"1996-03-28 21:00","1996","03","28","21:00"," ","-13.4","","-19.1","","62","","18","","15","","24.1","","96.25","","","","-21","","Mainly Clear"
"1996-03-28 22:00","1996","03","28","22:00"," ","-14.3","","-19.5","","65","","18","","13","","24.1","","96.25","","","","-21","","Mainly Clear"
"1996-03-28 23:00","1996","03","28","23:00"," ","-15.0","","-20.5","","63","","18","","15","","24.1","","96.25","","","","-23","","Mainly Clear"
"1996-03-29 00:00","1996","03","29","00:00"," ","-15.8","","-21.1","","64","","18","","17","","24.1","","96.25","","","","-24","","Mainly Clear"
"1996-03-29 01:00","1996","03","29","01:00"," ","-17.2","","-21.5","","69","","19","","13","","24.1","","96.25","","","","-25","","Mainly Clear"
"1996-03-29 02:00","1996","03","29","02:00"," ","-18.9","","-22.9","","71","","19","","11","","24.1","","96.25","","","","-26","","Clear"
"1996-03-29 03:00","1996","03","29","03:00"," ","-19.4","","-23.6","","69","","","","0","","24.1","","96.22","","","","","","Clear"
"1996-03-29 04:00","1996","03","29","04:00"," ","-20.8","","-25.6","","65","","18","","6","","24.1","","96.22","","","","-26","","Clear"
"1996-03-29 05:00","1996","03","29","05:00"," ","-21.9","","-25.2","","75","","","","0","","24.1","","96.19","","","","","","Clear"
"1996-03-29 06:00","1996","03","29","06:00"," ","-22.6","","-26.8","","69","","14","","4","","24.1","","96.15","","","","-26","","Mainly Clear"
"1996-03-29 07:00","1996","03","29","07:00"," ","-20.4","","-24.1","","72","","14","","2","","24.1","","96.15","","","","-22","","Mostly Cloudy"
"1996-03-29 08:00","1996","03","29","08:00"," ","-20.0","","-23.7","","72","","","","0","","24.1","","96.15","","","","","","Mostly Cloudy"
"1996-03-29 09:00","1996","03","29","09:00"," ","-15.8","","-20.0","","70","","11","","4","","24.1","","96.12","","","","-19","","Mostly Cloudy"
"1996-03-29 10:00","1996","03","29","10:00"," ","-12.5","","-17.4","","67","","11","","6","","24.1","","96.09","","","","-16","","Mostly Cloudy"
"1996-03-29 11:00","1996","03","29","11:00"," ","-11.4","","-16.8","","64","","14","","7","","24.1","","96.06","","","","-16","","Cloudy"
"1996-03-29 12:00","1996","03","29","12:00"," ","-10.4","","-15.9","","64","","12","","7","","24.1","","96.02","","","","-14","","Cloudy"
"1996-03-29 13:00","1996","03","29","13:00"," ","-9.6","","-15.4","","63","","14","","7","","24.1","","95.99","","","","-14","","Cloudy"
"1996-03-29 14:00","1996","03","29","14:00"," ","-9.1","","-14.1","","67","","12","","6","","12.9","","95.96","","","","-12","","Snow"
"1996-03-29 15:00","1996","03","29","15:00"," ","-9.1","","-12.4","","77","","8","","7","","6.4","","95.99","","","","-13","","Snow"
"1996-03-29 16:00","1996","03","29","16:00"," ","-9.1","","-11.9","","80","","7","","7","","4.8","","95.90","","","","-13","","Snow"
"1996-03-29 17:00","1996","03","29","17:00"," ","-9.4","","-11.5","","85","","6","","9","","2.0","","95.90","","","","-14","","Snow"
"1996-03-29 18:00","1996","03","29","18:00"," ","-9.3","","-11.4","","85","","5","","7","","6.4","","95.86","","","","-13","","Snow"
"1996-03-29 19:00","1996","03","29","19:00"," ","-9.8","","-11.5","","87","","3","","9","","6.4","","95.83","","","","-15","","Snow"
"1996-03-29 20:00","1996","03","29","20:00"," ","-10.5","","-12.0","","89","","35","","2","","16.1","","95.90","","","","-12","","Snow"
"1996-03-29 21:00","1996","03","29","21:00"," ","-10.4","","-11.7","","90","","35","","4","","4.8","","95.90","","","","-13","","Snow"
"1996-03-29 22:00","1996","03","29","22:00"," ","-10.8","","-12.2","","89","","33","","6","","12.9","","95.90","","","","-14","","Snow"
"1996-03-29 23:00","1996","03","29","23:00"," ","-11.6","","-12.8","","91","","32","","7","","16.1","","95.86","","","","-16","","Snow"
"1996-03-30 00:00","1996","03","30","00:00"," ","-11.0","","-13.0","","85","","32","","11","","16.1","","95.86","","","","-17","","Snow"
"1996-03-30 01:00","1996","03","30","01:00"," ","-10.5","","-12.9","","82","","32","","9","","24.1","","95.86","","","","-15","","Cloudy"
"1996-03-30 02:00","1996","03","30","02:00"," ","-11.0","","-13.0","","85","","31","","11","","24.1","","95.86","","","","-17","","Cloudy"
"1996-03-30 03:00","1996","03","30","03:00"," ","-10.7","","-12.7","","85","","31","","15","","24.1","","95.86","","","","-18","","Cloudy"
"1996-03-30 04:00","1996","03","30","04:00"," ","-10.8","","-13.0","","84","","31","","17","","24.1","","95.90","","","","-18","","Cloudy"
"1996-03-30 05:00","1996","03","30","05:00"," ","-11.1","","-13.7","","81","","32","","17","","24.1","","95.90","","","","-19","","Mostly Cloudy"
"1996-03-30 06:00","1996","03","30","06:00"," ","-11.9","","-15.1","","77","","32","","19","","24.1","","95.90","","","","-20","","Cloudy"
"1996-03-30 07:00","1996","03","30","07:00"," ","-12.5","","-15.5","","78","","32","","13","","24.1","","95.93","","","","-19","","Cloudy"
"1996-03-30 08:00","1996","03","30","08:00"," ","-11.8","","-15.4","","75","","31","","15","","24.1","","95.99","","","","-19","","Mostly Cloudy"
"1996-03-30 09:00","1996","03","30","09:00"," ","-11.3","","-14.4","","78","","31","","17","","24.1","","95.99","","","","-19","","Mostly Cloudy"
"1996-03-30 10:00","1996","03","30","10:00"," ","-9.8","","-13.4","","75","","31","","17","","24.1","","96.06","","","","-17","","Mostly Cloudy"
"1996-03-30 11:00","1996","03","30","11:00"," ","-7.7","","-12.7","","67","","31","","17","","24.1","","96.06","","","","-14","","Mainly Clear"
"1996-03-30 12:00","1996","03","30","12:00"," ","-6.2","","-12.3","","62","","31","","15","","24.1","","96.02","","","","-12","","Clear"
"1996-03-30 13:00","1996","03","30","13:00"," ","-4.7","","-12.0","","57","","34","","9","","24.1","","96.06","","","","-9","","Clear"
"1996-03-30 14:00","1996","03","30","14:00"," ","-4.1","","-12.9","","50","","31","","17","","24.1","","96.06","","","","-10","","Clear"
"1996-03-30 15:00","1996","03","30","15:00"," ","-3.4","","-11.8","","52","","32","","19","","24.1","","96.06","","","","-9","","Mainly Clear"
"1996-03-30 16:00","1996","03","30","16:00"," ","-3.3","","-12.7","","48","","31","","19","","24.1","","96.06","","","","-9","","Mainly Clear"
"1996-03-30 17:00","1996","03","30","17:00"," ","-3.2","","-12.0","","51","","30","","19","","24.1","","96.09","","","","-9","","Mostly Cloudy"
"1996-03-30 18:00","1996","03","30","18:00"," ","-3.9","","-12.1","","53","","31","","19","","24.1","","96.12","","","","-10","","Mostly Cloudy"
"1996-03-30 19:00","1996","03","30","19:00"," ","-4.5","","-12.0","","56","","31","","20","","24.1","","96.15","","","","-11","","Cloudy"
"1996-03-30 20:00","1996","03","30","20:00"," ","-5.1","","-10.5","","66","","32","","19","","24.1","","96.22","","","","-12","","Cloudy"
"1996-03-30 21:00","1996","03","30","21:00"," ","-6.1","","-10.6","","70","","31","","19","","24.1","","96.28","","","","-13","","Cloudy"
"1996-03-30 22:00","1996","03","30","22:00"," ","-7.2","","-12.1","","68","","31","","15","","24.1","","96.32","","","","-13","","Mostly Cloudy"
"1996-03-30 23:00","1996","03","30","23:00"," ","-8.5","","-12.7","","72","","31","","17","","24.1","","96.35","","","","-15","","Mostly Cloudy"
"1996-03-31 00:00","1996","03","31","00:00"," ","-9.0","","-12.7","","74","","30","","15","","24.1","","96.35","","","","-16","","Mostly Cloudy"
"1996-03-31 01:00","1996","03","31","01:00"," ","-9.9","","-12.4","","82","","29","","15","","24.1","","96.41","","","","-17","","Mostly Cloudy"
"1996-03-31 02:00","1996","03","31","02:00"," ","-10.9","","-12.8","","86","","30","","15","","24.1","","96.44","","","","-18","","Mostly Cloudy"
"1996-03-31 03:00","1996","03","31","03:00"," ","-11.6","","-14.1","","82","","30","","15","","24.1","","96.48","","","","-19","","Mainly Clear"
"1996-03-31 04:00","1996","03","31","04:00"," ","-12.4","","-15.5","","78","","30","","13","","24.1","","96.51","","","","-19","","Mainly Clear"
"1996-03-31 05:00","1996","03","31","05:00"," ","-13.4","","-16.2","","79","","30","","13","","24.1","","96.54","","","","-20","","Clear"
"1996-03-31 06:00","1996","03","31","06:00"," ","-13.7","","-16.4","","80","","31","","9","","24.1","","96.61","","","","-19","","Clear"
"1996-03-31 07:00","1996","03","31","07:00"," ","-14.8","","-17.1","","83","","29","","9","","24.1","","96.64","","","","-21","","Mainly Clear"
"1996-03-31 08:00","1996","03","31","08:00"," ","-12.7","","-15.6","","79","","29","","9","","24.1","","96.70","","","","-18","","Mainly Clear"
"1996-03-31 09:00","1996","03","31","09:00"," ","-10.5","","-15.1","","69","","34","","11","","24.1","","96.77","","","","-16","","Mostly Cloudy"
"1996-03-31 10:00","1996","03","31","10:00"," ","-9.2","","-15.1","","62","","35","","11","","24.1","","96.77","","","","-15","","Mostly Cloudy"
"1996-03-31 11:00","1996","03","31","11:00"," ","-6.8","","-15.3","","51","","2","","11","","24.1","","96.77","","","","-12","","Mainly Clear"
"1996-03-31 12:00","1996","03","31","12:00"," ","-6.4","","-14.7","","52","","36","","7","","24.1","","96.80","","","","-10","","Mostly Cloudy"
"1996-03-31 13:00","1996","03","31","13:00"," ","-5.1","","-14.2","","49","","3","","2","","24.1","","96.80","","","","-6","","Mostly Cloudy"
"1996-03-31 14:00","1996","03","31","14:00"," ","-4.3","","-15.0","","43","","26","","2","","24.1","","96.77","","","","-5","","Mostly Cloudy"
"1996-03-31 15:00","1996","03","31","15:00"," ","-4.6","","-15.0","","44","","5","","6","","24.1","","96.77","","","","-7","","Mostly Cloudy"
"1996-03-31 16:00","1996","03","31","16:00"," ","-4.7","","-15.3","","43","","33","","13","","24.1","","96.77","","","","-10","","Mostly Cloudy"
"1996-03-31 17:00","1996","03","31","17:00"," ","-4.7","","-15.0","","44","","35","","9","","24.1","","96.74","","","","-9","","Mostly Cloudy"
"1996-03-31 18:00","1996","03","31","18:00"," ","-5.1","","-14.9","","46","","34","","9","","24.1","","96.77","","","","-9","","Mostly Cloudy"
"1996-03-31 19:00","1996","03","31","19:00"," ","-6.4","","-14.7","","52","","36","","7","","24.1","","96.77","","","","-10","","Mostly Cloudy"
"1996-03-31 20:00","1996","03","31","20:00"," ","-8.9","","-14.1","","66","","36","","2","","24.1","","96.80","","","","-10","","Mostly Cloudy"
"1996-03-31 21:00","1996","03","31","21:00"," ","-10.5","","-14.9","","70","","","","0","","24.1","","96.80","","","","","","Mostly Cloudy"
"1996-03-31 22:00","1996","03","31","22:00"," ","-9.9","","-14.2","","71","","19","","2","","24.1","","96.83","","","","-11","","Mostly Cloudy"
"1996-03-31 23:00","1996","03","31","23:00"," ","-10.8","","-13.7","","79","","","","0","","24.1","","96.83","","","","","","Mostly Cloudy"
