"Station Name","YORKTON"
"Province","SASKATCHEWAN"
"Latitude","51.26"
"Longitude","-102.46"
"Elevation","498.30"
"Climate Identifier","4019085"
"WMO Identifier","71138"
"TC Identifier","YQV"
"All times are specified in Local Standard Time (LST). Add 1 hour to adjust for Daylight Saving Time where and when it is observed."

"Legend"
"E","Estimated"
"M","Missing"
"NA","Not Available"
"‡","Partner data that is not subject to review by the National Climate Archives"

"Date/Time","Year","Month","Day","Time","Data Quality","Temp (°C)","Temp Flag","Dew Point Temp (°C)","Dew Point Temp Flag","Rel Hum (%)","Rel Hum Flag","Wind Dir (10s deg)","Wind Dir Flag","Wind Spd (km/h)","Wind Spd Flag","Visibility (km)","Visibility Flag","Stn Press (kPa)","Stn Press Flag","Hmdx","Hmdx Flag","Wind Chill","Wind Chill Flag","Weather"
"2006-03-01 00:00","2006","03","01","00:00"," ","-8.5","","-12.0","","76","","8","","19","","15.0","","95.07","","","","-16","",""
"2006-03-01 01:00","2006","03","01","01:00"," ","-8.1","","-11.7","","75","","9","","22","","15.0","","95.08","","","","-16","",""
"2006-03-01 02:00","2006","03","01","02:00"," ","-7.8","","-11.7","","74","","8","","22","","15.0","","95.06","","","","-15","",""
"2006-03-01 03:00","2006","03","01","03:00"," ","-7.1","","-11.5","","71","","11","","15","","15.0","","95.17","","","","-13","","Snow"
"2006-03-01 04:00","2006","03","01","04:00"," ","-7.9","","-10.6","","81","","9","","26","","2.6","","95.13","","","","-16","","Snow"
"2006-03-01 05:00","2006","03","01","05:00"," ","-8.2","","-11.1","","80","","9","","35","","11.3","","95.02","","","","-18","",""
"2006-03-01 06:00","2006","03","01","06:00"," ","-8.4","","-10.6","","84","","9","","28","","1.0","","95.02","","","","-17","","Snow"
"2006-03-01 07:00","2006","03","01","07:00"," ","-8.4","","-10.7","","83","","10","","20","","1.3","","95.06","","","","-16","","Snow"
"2006-03-01 08:00","2006","03","01","08:00"," ","-8.3","","-10.9","","81","","10","","19","","6.4","","95.13","","","","-16","","Snow"
"2006-03-01 09:00","2006","03","01","09:00"," ","-8.7","","-10.9","","84","","12","","15","","1.1","","95.25","","","","-15","","Snow"
"2006-03-01 10:00","2006","03","01","10:00"," ","-8.9","","-11.3","","83","","9","","22","","2.4","","95.29","","","","-17","",""
"2006-03-01 11:00","2006","03","01","11:00"," ","-9.2","","-11.9","","81","","10","","26","","5.6","","95.33","","","","-18","","Snow"
"2006-03-01 12:00","2006","03","01","12:00"," ","-9.9","","-13.0","","78","","10","","28","","3.7","","95.37","","","","-19","","Snow"
"2006-03-01 13:00","2006","03","01","13:00"," ","-9.4","","-12.7","","77","","9","","20","","15.0","","95.40","","","","-17","",""
"2006-03-01 14:00","2006","03","01","14:00"," ","-9.5","","-12.9","","76","","9","","19","","15.0","","95.43","","","","-17","",""
"2006-03-01 15:00","2006","03","01","15:00"," ","-9.3","","-12.2","","79","","7","","11","","15.0","","95.47","","","","-15","","Snow"
"2006-03-01 16:00","2006","03","01","16:00"," ","-9.4","","-12.4","","79","","7","","13","","14.5","","95.54","","","","-15","","Snow"
"2006-03-01 17:00","2006","03","01","17:00"," ","-11.0","","-13.9","","79","","1","","19","","9.7","","95.64","","","","-19","","Snow"
"2006-03-01 18:00","2006","03","01","18:00"," ","-11.3","","-14.1","","80","","1","","15","","5.6","","95.75","","","","-18","","Snow"
"2006-03-01 19:00","2006","03","01","19:00"," ","-11.3","","-13.9","","81","","1","","11","","4.8","","95.85","","","","-17","","Snow"
"2006-03-01 20:00","2006","03","01","20:00"," ","-10.7","","-13.4","","80","","3","","9","","15.0","","95.93","","","","-16","",""
"2006-03-01 21:00","2006","03","01","21:00"," ","-10.6","","-12.9","","83","","11","","11","","2.6","","96.03","","","","-16","","Snow"
"2006-03-01 22:00","2006","03","01","22:00"," ","-10.9","","-13.1","","84","","","","0","","3.4","","96.12","","","","","","Snow"
"2006-03-01 23:00","2006","03","01","23:00"," ","-12.0","","-14.6","","81","","3","","11","","3.4","","96.20","","","","-18","","Snow"
"2006-03-02 00:00","2006","03","02","00:00"," ","-12.3","","-14.9","","81","","1","","13","","6.4","","96.26","","","","-19","","Snow"
"2006-03-02 01:00","2006","03","02","01:00"," ","-12.6","","-15.3","","80","","36","","15","","15.0","","96.31","","","","-20","","Snow"
"2006-03-02 02:00","2006","03","02","02:00"," ","-12.8","","-15.7","","79","","3","","17","","12.9","","96.36","","","","-21","","Snow"
"2006-03-02 03:00","2006","03","02","03:00"," ","-12.8","","-15.5","","80","","3","","15","","2.6","","96.42","","","","-20","","Snow"
"2006-03-02 04:00","2006","03","02","04:00"," ","-12.7","","-15.6","","79","","2","","15","","15.0","","96.46","","","","-20","","Snow"
"2006-03-02 05:00","2006","03","02","05:00"," ","-12.7","","-15.5","","80","","2","","13","","3.7","","96.56","","","","-20","","Snow"
"2006-03-02 06:00","2006","03","02","06:00"," ","-12.7","","-15.6","","79","","1","","17","","2.7","","96.63","","","","-21","","Snow"
"2006-03-02 07:00","2006","03","02","07:00"," ","-12.8","","-15.7","","79","","1","","17","","4.8","","96.70","","","","-21","","Snow"
"2006-03-02 08:00","2006","03","02","08:00"," ","-12.7","","-15.6","","79","","1","","15","","9.7","","96.74","","","","-20","","Snow"
"2006-03-02 09:00","2006","03","02","09:00"," ","-12.7","","-15.5","","80","","2","","17","","4.8","","96.80","","","","-21","","Snow"
"2006-03-02 10:00","2006","03","02","10:00"," ","-12.3","","-15.4","","78","","4","","17","","8.0","","96.87","","","","-20","","Snow"
"2006-03-02 11:00","2006","03","02","11:00"," ","-11.9","","-15.2","","76","","4","","15","","14.5","","96.91","","","","-19","","Snow"
"2006-03-02 12:00","2006","03","02","12:00"," ","-11.7","","-15.2","","75","","3","","9","","15.0","","96.95","","","","-17","","Snow"
"2006-03-02 13:00","2006","03","02","13:00"," ","-11.4","","-14.9","","75","","1","","13","","15.0","","96.98","","","","-18","","Snow"
"2006-03-02 14:00","2006","03","02","14:00"," ","-11.2","","-14.9","","74","","36","","11","","15.0","","96.98","","","","-17","","Snow"
"2006-03-02 15:00","2006","03","02","15:00"," ","-10.9","","-14.9","","72","","1","","11","","15.0","","97.01","","","","-17","","Snow"
"2006-03-02 16:00","2006","03","02","16:00"," ","-10.5","","-14.6","","72","","1","","13","","15.0","","97.01","","","","-17","",""
"2006-03-02 17:00","2006","03","02","17:00"," ","-10.6","","-14.1","","75","","1","","11","","15.0","","97.02","","","","-16","","Snow"
"2006-03-02 18:00","2006","03","02","18:00"," ","-11.0","","-14.2","","77","","34","","7","","15.0","","97.03","","","","-15","","Snow"
"2006-03-02 19:00","2006","03","02","19:00"," ","-12.9","","-15.7","","79","","36","","9","","15.0","","97.02","","","","-18","","Snow"
"2006-03-02 20:00","2006","03","02","20:00"," ","-13.8","","-16.3","","81","","33","","7","","15.0","","97.06","","","","-18","",""
"2006-03-02 21:00","2006","03","02","21:00"," ","-12.7","","-15.3","","81","","29","","7","","15.0","","97.09","","","","-17","","Snow"
"2006-03-02 22:00","2006","03","02","22:00"," ","-12.1","","-14.9","","80","","29","","7","","15.0","","97.08","","","","-16","","Snow"
"2006-03-02 23:00","2006","03","02","23:00"," ","-14.4","","-17.0","","81","","27","","7","","15.0","","97.07","","","","-19","","Snow"
"2006-03-03 00:00","2006","03","03","00:00"," ","-15.1","","-17.6","","81","","28","","9","","15.0","","97.08","","","","-21","","Snow"
"2006-03-03 01:00","2006","03","03","01:00"," ","-16.6","","-18.9","","82","","29","","9","","15.0","","97.07","","","","-23","",""
"2006-03-03 02:00","2006","03","03","02:00"," ","-16.1","","-18.2","","84","","28","","7","","15.0","","97.11","","","","-21","",""
"2006-03-03 03:00","2006","03","03","03:00"," ","-17.7","","-19.9","","83","","28","","6","","12.9","","97.16","","","","-22","","Snow"
"2006-03-03 04:00","2006","03","03","04:00"," ","-19.0","","-21.6","","80","","28","","7","","15.0","","97.16","","","","-24","",""
"2006-03-03 05:00","2006","03","03","05:00"," ","-19.5","","-21.9","","81","","28","","7","","15.0","","97.14","","","","-25","",""
"2006-03-03 06:00","2006","03","03","06:00"," ","-20.4","","-22.1","","86","","29","","6","","0.3","","97.15","","","","-25","",""
"2006-03-03 07:00","2006","03","03","07:00"," ","-20.5","","-21.3","","93","","27","","4","","0.3","","97.17","","","","-24","",""
"2006-03-03 08:00","2006","03","03","08:00"," ","-20.9","","-23.0","","83","","27","","4","","0.3","","97.15","","","","-24","",""
"2006-03-03 09:00","2006","03","03","09:00"," ","-21.0","","-22.7","","86","","25","","4","","0.3","","97.15","","","","-25","",""
"2006-03-03 10:00","2006","03","03","10:00"," ","-19.5","","-21.0","","88","","","","0","","9.7","","97.16","","","","","",""
"2006-03-03 11:00","2006","03","03","11:00"," ","-17.9","","-19.7","","86","","26","","4","","2.4","","97.18","","","","-21","","Snow"
"2006-03-03 12:00","2006","03","03","12:00"," ","-16.9","","-18.8","","85","","7","","4","","15.0","","97.15","","","","-20","",""
"2006-03-03 13:00","2006","03","03","13:00"," ","-16.5","","-19.7","","76","","8","","7","","15.0","","97.13","","","","-22","",""
"2006-03-03 14:00","2006","03","03","14:00"," ","-15.1","","-19.1","","71","","","","0","","15.0","","97.08","","","","","",""
"2006-03-03 15:00","2006","03","03","15:00"," ","-14.0","","-18.3","","70","","3","","4","","15.0","","97.02","","","","-17","",""
"2006-03-03 16:00","2006","03","03","16:00"," ","-12.9","","-17.2","","70","","4","","4","","15.0","","96.97","","","","-16","",""
"2006-03-03 17:00","2006","03","03","17:00"," ","-14.0","","-18.4","","69","","36","","7","","15.0","","96.94","","","","-19","",""
"2006-03-03 18:00","2006","03","03","18:00"," ","-14.5","","-19.0","","69","","36","","4","","15.0","","96.92","","","","-17","",""
"2006-03-03 19:00","2006","03","03","19:00"," ","-15.4","","-19.2","","73","","","","0","","15.0","","96.88","","","","","",""
"2006-03-03 20:00","2006","03","03","20:00"," ","-15.6","","-18.5","","78","","4","","4","","15.0","","96.88","","","","-19","",""
"2006-03-03 21:00","2006","03","03","21:00"," ","-15.5","","-18.3","","79","","9","","4","","15.0","","96.86","","","","-18","",""
"2006-03-03 22:00","2006","03","03","22:00"," ","-14.9","","-17.6","","80","","9","","4","","15.0","","96.86","","","","-18","","Snow"
"2006-03-03 23:00","2006","03","03","23:00"," ","-13.6","","-16.3","","80","","10","","4","","8.0","","96.86","","","","-16","","Snow"
"2006-03-04 00:00","2006","03","04","00:00"," ","-9.7","","-11.8","","85","","11","","11","","11.3","","96.87","","","","-15","","Snow"
"2006-03-04 01:00","2006","03","04","01:00"," ","-9.6","","-11.7","","85","","11","","13","","15.0","","96.85","","","","-16","","Snow"
"2006-03-04 02:00","2006","03","04","02:00"," ","-9.6","","-12.1","","82","","9","","11","","12.9","","96.80","","","","-15","","Snow"
"2006-03-04 03:00","2006","03","04","03:00"," ","-9.3","","-12.0","","81","","10","","17","","14.5","","96.71","","","","-16","","Snow"
"2006-03-04 04:00","2006","03","04","04:00"," ","-9.6","","-11.5","","86","","12","","11","","15.0","","96.66","","","","-15","","Snow"
"2006-03-04 05:00","2006","03","04","05:00"," ","-9.7","","-11.9","","84","","10","","11","","4.8","","96.64","","","","-15","","Snow"
"2006-03-04 06:00","2006","03","04","06:00"," ","-11.6","","-13.8","","84","","8","","17","","12.9","","96.56","","","","-19","","Snow"
"2006-03-04 07:00","2006","03","04","07:00"," ","-10.4","","-13.0","","81","","9","","17","","15.0","","96.56","","","","-18","","Snow"
"2006-03-04 08:00","2006","03","04","08:00"," ","-10.1","","-12.5","","83","","9","","17","","15.0","","96.51","","","","-17","","Snow"
"2006-03-04 09:00","2006","03","04","09:00"," ","-9.7","","-12.0","","83","","9","","20","","15.0","","96.48","","","","-17","",""
"2006-03-04 10:00","2006","03","04","10:00"," ","-9.4","","-11.8","","83","","8","","22","","15.0","","96.43","","","","-17","",""
"2006-03-04 11:00","2006","03","04","11:00"," ","-8.9","","-11.6","","81","","9","","20","","15.0","","96.42","","","","-16","",""
"2006-03-04 12:00","2006","03","04","12:00"," ","-8.4","","-11.4","","79","","9","","26","","15.0","","96.38","","","","-17","",""
"2006-03-04 13:00","2006","03","04","13:00"," ","-8.3","","-11.3","","79","","8","","35","","15.0","","96.28","","","","-18","",""
"2006-03-04 14:00","2006","03","04","14:00"," ","-7.3","","-10.2","","80","","8","","32","","15.0","","96.19","","","","-16","",""
"2006-03-04 15:00","2006","03","04","15:00"," ","-7.1","","-10.2","","78","","8","","26","","15.0","","96.07","","","","-15","","Snow"
"2006-03-04 16:00","2006","03","04","16:00"," ","-6.9","","-9.8","","80","","8","","33","","15.0","","96.01","","","","-16","",""
"2006-03-04 17:00","2006","03","04","17:00"," ","-6.5","","-9.2","","81","","9","","28","","12.9","","95.96","","","","-15","","Snow"
"2006-03-04 18:00","2006","03","04","18:00"," ","-6.9","","-9.0","","85","","10","","30","","1.4","","96.00","","","","-15","","Snow"
"2006-03-04 19:00","2006","03","04","19:00"," ","-7.1","","-9.5","","83","","9","","32","","12.9","","96.01","","","","-16","","Snow"
"2006-03-04 20:00","2006","03","04","20:00"," ","-7.0","","-9.5","","82","","9","","30","","14.5","","95.97","","","","-16","","Snow"
"2006-03-04 21:00","2006","03","04","21:00"," ","-6.7","","-9.5","","80","","10","","32","","15.0","","95.97","","","","-15","",""
"2006-03-04 22:00","2006","03","04","22:00"," ","-6.1","","-9.2","","79","","10","","22","","15.0","","95.92","","","","-13","","Snow"
"2006-03-04 23:00","2006","03","04","23:00"," ","-5.9","","-8.7","","81","","11","","20","","15.0","","95.88","","","","-13","","Snow"
"2006-03-05 00:00","2006","03","05","00:00"," ","-5.7","","-7.4","","88","","11","","22","","5.6","","95.81","","","","-13","","Freezing Drizzle"
"2006-03-05 01:00","2006","03","05","01:00"," ","-5.5","","-7.1","","88","","11","","24","","4.0","","95.77","","","","-13","","Freezing Drizzle"
"2006-03-05 02:00","2006","03","05","02:00"," ","-5.5","","-7.2","","88","","9","","19","","6.4","","95.76","","","","-12","","Snow"
"2006-03-05 03:00","2006","03","05","03:00"," ","-5.3","","-6.8","","89","","7","","13","","8.0","","95.71","","","","-10","","Snow"
"2006-03-05 04:00","2006","03","05","04:00"," ","-5.1","","-6.8","","88","","8","","13","","15.0","","95.68","","","","-10","","Snow"
"2006-03-05 05:00","2006","03","05","05:00"," ","-4.8","","-6.3","","89","","10","","11","","9.7","","95.65","","","","-9","","Snow"
"2006-03-05 06:00","2006","03","05","06:00"," ","-4.7","","-5.9","","91","","9","","7","","5.6","","95.67","","","","-8","",""
"2006-03-05 07:00","2006","03","05","07:00"," ","-4.6","","-5.8","","91","","4","","6","","2.9","","95.69","","","","-7","","Snow"
"2006-03-05 08:00","2006","03","05","08:00"," ","-4.3","","-5.5","","91","","4","","7","","2.7","","95.72","","","","-7","","Snow"
"2006-03-05 09:00","2006","03","05","09:00"," ","-4.4","","-5.6","","91","","36","","13","","1.8","","95.75","","","","-9","","Snow"
"2006-03-05 10:00","2006","03","05","10:00"," ","-4.5","","-5.4","","93","","36","","13","","1.8","","95.81","","","","-10","","Snow"
"2006-03-05 11:00","2006","03","05","11:00"," ","-4.6","","-5.1","","96","","36","","17","","2.6","","95.85","","","","-10","","Snow"
"2006-03-05 12:00","2006","03","05","12:00"," ","-4.4","","-5.1","","95","","1","","15","","11.3","","95.90","","","","-10","",""
"2006-03-05 13:00","2006","03","05","13:00"," ","-4.2","","-5.9","","88","","35","","15","","15.0","","95.95","","","","-10","","Snow"
"2006-03-05 14:00","2006","03","05","14:00"," ","-3.8","","-5.5","","88","","32","","17","","15.0","","95.96","","","","-10","",""
"2006-03-05 15:00","2006","03","05","15:00"," ","-3.5","","-5.6","","85","","33","","17","","15.0","","95.97","","","","-9","",""
"2006-03-05 16:00","2006","03","05","16:00"," ","-3.3","","-5.3","","86","","36","","15","","15.0","","96.05","","","","-8","",""
"2006-03-05 17:00","2006","03","05","17:00"," ","-2.9","","-5.5","","82","","33","","19","","15.0","","96.13","","","","-9","",""
"2006-03-05 18:00","2006","03","05","18:00"," ","-3.1","","-5.4","","84","","31","","13","","15.0","","96.19","","","","-8","",""
"2006-03-05 19:00","2006","03","05","19:00"," ","-3.6","","-5.8","","85","","30","","15","","15.0","","96.22","","","","-9","",""
"2006-03-05 20:00","2006","03","05","20:00"," ","-3.7","","-6.0","","84","","30","","15","","15.0","","96.28","","","","-9","",""
"2006-03-05 21:00","2006","03","05","21:00"," ","-4.0","","-6.3","","84","","31","","15","","15.0","","96.27","","","","-9","",""
"2006-03-05 22:00","2006","03","05","22:00"," ","-4.2","","-6.3","","85","","31","","13","","15.0","","96.28","","","","-9","",""
"2006-03-05 23:00","2006","03","05","23:00"," ","-4.4","","-6.4","","86","","30","","15","","15.0","","96.34","","","","-10","",""
"2006-03-06 00:00","2006","03","06","00:00"," ","-4.6","","-6.8","","85","","31","","11","","15.0","","96.33","","","","-9","",""
"2006-03-06 01:00","2006","03","06","01:00"," ","-4.9","","-7.1","","85","","29","","11","","15.0","","96.30","","","","-9","",""
"2006-03-06 02:00","2006","03","06","02:00"," ","-5.0","","-7.3","","84","","28","","11","","15.0","","96.31","","","","-10","",""
"2006-03-06 03:00","2006","03","06","03:00"," ","-5.1","","-7.4","","84","","27","","7","","15.0","","96.33","","","","-8","",""
"2006-03-06 04:00","2006","03","06","04:00"," ","-5.2","","-7.0","","87","","","","0","","15.0","","96.29","","","","","",""
"2006-03-06 05:00","2006","03","06","05:00"," ","-5.5","","-7.7","","84","","22","","6","","15.0","","96.29","","","","-8","",""
"2006-03-06 06:00","2006","03","06","06:00"," ","-5.5","","-7.6","","85","","21","","4","","15.0","","96.30","","","","-7","",""
"2006-03-06 07:00","2006","03","06","07:00"," ","-5.4","","-7.4","","86","","14","","9","","15.0","","96.25","","","","-9","",""
"2006-03-06 08:00","2006","03","06","08:00"," ","-5.0","","-7.2","","85","","18","","13","","15.0","","96.23","","","","-10","",""
"2006-03-06 09:00","2006","03","06","09:00"," ","-4.9","","-7.2","","84","","17","","19","","15.0","","96.20","","","","-11","",""
"2006-03-06 10:00","2006","03","06","10:00"," ","-4.9","","-7.3","","83","","18","","20","","15.0","","96.19","","","","-11","",""
"2006-03-06 11:00","2006","03","06","11:00"," ","-4.3","","-7.0","","81","","17","","17","","15.0","","96.13","","","","-10","",""
"2006-03-06 12:00","2006","03","06","12:00"," ","-3.8","","-6.8","","80","","17","","22","","15.0","","96.03","","","","-10","",""
"2006-03-06 13:00","2006","03","06","13:00"," ","-3.1","","-6.2","","79","","17","","22","","15.0","","96.01","","","","-9","",""
"2006-03-06 14:00","2006","03","06","14:00"," ","-2.6","","-5.9","","78","","16","","24","","15.0","","95.91","","","","-9","",""
"2006-03-06 15:00","2006","03","06","15:00"," ","-2.2","","-5.7","","77","","16","","22","","15.0","","95.79","","","","-8","",""
"2006-03-06 16:00","2006","03","06","16:00"," ","-2.2","","-5.6","","77","","15","","26","","15.0","","95.71","","","","-9","",""
"2006-03-06 17:00","2006","03","06","17:00"," ","-1.9","","-5.4","","77","","15","","32","","15.0","","95.59","","","","-9","",""
"2006-03-06 18:00","2006","03","06","18:00"," ","-2.2","","-5.5","","78","","15","","30","","15.0","","95.53","","","","-9","",""
"2006-03-06 19:00","2006","03","06","19:00"," ","-3.0","","-6.0","","80","","15","","26","","15.0","","95.48","","","","-10","",""
"2006-03-06 20:00","2006","03","06","20:00"," ","-3.5","","-6.2","","82","","15","","26","","15.0","","95.44","","","","-11","",""
"2006-03-06 21:00","2006","03","06","21:00"," ","-4.0","","-6.5","","83","","16","","26","","15.0","","95.43","","","","-11","",""
"2006-03-06 22:00","2006","03","06","22:00"," ","-4.4","","-6.7","","84","","15","","22","","15.0","","95.36","","","","-11","",""
"2006-03-06 23:00","2006","03","06","23:00"," ","-3.8","","-6.2","","83","","17","","20","","15.0","","95.31","","","","-10","",""
"2006-03-07 00:00","2006","03","07","00:00"," ","-3.8","","-6.1","","84","","15","","20","","15.0","","95.23","","","","-10","",""
"2006-03-07 01:00","2006","03","07","01:00"," ","-3.7","","-6.0","","84","","16","","24","","15.0","","95.13","","","","-11","",""
"2006-03-07 02:00","2006","03","07","02:00"," ","-3.5","","-5.8","","84","","16","","24","","15.0","","95.05","","","","-10","",""
"2006-03-07 03:00","2006","03","07","03:00"," ","-3.3","","-5.6","","84","","15","","20","","15.0","","94.98","","","","-9","",""
"2006-03-07 04:00","2006","03","07","04:00"," ","-3.3","","-5.3","","86","","14","","20","","12.9","","94.88","","","","-9","",""
"2006-03-07 05:00","2006","03","07","05:00"," ","-3.4","","-5.2","","87","","14","","17","","9.7","","94.85","","","","-9","",""
"2006-03-07 06:00","2006","03","07","06:00"," ","-3.6","","-5.2","","89","","14","","15","","8.0","","94.79","","","","-9","",""
"2006-03-07 07:00","2006","03","07","07:00"," ","-3.6","","-5.2","","89","","14","","17","","6.4","","94.72","","","","-9","",""
"2006-03-07 08:00","2006","03","07","08:00"," ","-3.5","","-5.1","","89","","16","","19","","6.4","","94.71","","","","-9","",""
"2006-03-07 09:00","2006","03","07","09:00"," ","-3.6","","-5.3","","88","","14","","20","","8.0","","94.63","","","","-10","",""
"2006-03-07 10:00","2006","03","07","10:00"," ","-3.4","","-4.9","","89","","15","","22","","6.4","","94.53","","","","-10","",""
"2006-03-07 11:00","2006","03","07","11:00"," ","-2.8","","-4.5","","88","","17","","19","","6.4","","94.50","","","","-9","","Snow"
"2006-03-07 12:00","2006","03","07","12:00"," ","-2.1","","-4.0","","87","","14","","15","","11.3","","94.42","","","","-7","","Snow"
"2006-03-07 13:00","2006","03","07","13:00"," ","-1.8","","-4.2","","84","","16","","13","","12.9","","94.40","","","","-6","",""
"2006-03-07 14:00","2006","03","07","14:00"," ","-1.4","","-4.1","","82","","21","","9","","14.5","","94.39","","","","-5","",""
"2006-03-07 15:00","2006","03","07","15:00"," ","-1.0","","-3.8","","81","","21","","6","","12.9","","94.34","","","","-3","",""
"2006-03-07 16:00","2006","03","07","16:00"," ","-0.5","","-3.6","","80","","10","","6","","12.9","","94.32","","","","-3","",""
"2006-03-07 17:00","2006","03","07","17:00"," ","-1.0","","-3.7","","82","","12","","11","","11.3","","94.30","","","","-5","",""
"2006-03-07 18:00","2006","03","07","18:00"," ","-1.3","","-3.9","","82","","17","","6","","12.9","","94.33","","","","-4","",""
"2006-03-07 19:00","2006","03","07","19:00"," ","-2.2","","-4.3","","85","","12","","6","","11.3","","94.32","","","","-5","",""
"2006-03-07 20:00","2006","03","07","20:00"," ","-2.7","","-4.7","","86","","14","","6","","11.3","","94.32","","","","-5","",""
"2006-03-07 21:00","2006","03","07","21:00"," ","-3.3","","-5.0","","88","","13","","7","","9.7","","94.29","","","","-6","",""
"2006-03-07 22:00","2006","03","07","22:00"," ","-2.2","","-4.3","","85","","18","","11","","9.7","","94.28","","","","-6","",""
"2006-03-07 23:00","2006","03","07","23:00"," ","-2.4","","-4.5","","85","","18","","11","","11.3","","94.23","","","","-6","",""
"2006-03-08 00:00","2006","03","08","00:00"," ","-3.6","","-5.5","","87","","19","","13","","8.0","","94.22","","","","-8","",""
"2006-03-08 01:00","2006","03","08","01:00"," ","-2.9","","-4.6","","88","","22","","13","","5.6","","94.20","","","","-8","",""
"2006-03-08 02:00","2006","03","08","02:00"," ","-1.7","","-3.5","","87","","24","","15","","8.0","","94.19","","","","-7","",""
"2006-03-08 03:00","2006","03","08","03:00"," ","-0.7","","-2.1","","90","","25","","17","","6.4","","94.18","","","","-6","",""
"2006-03-08 04:00","2006","03","08","04:00"," ","-0.7","","-2.1","","90","","25","","13","","1.4","","94.16","","","","-5","",""
"2006-03-08 05:00","2006","03","08","05:00"," ","-0.7","","-1.9","","92","","25","","9","","1.4","","94.14","","","","-4","",""
"2006-03-08 06:00","2006","03","08","06:00"," ","-0.5","","-1.8","","91","","29","","15","","2.6","","94.15","","","","-5","","Snow"
"2006-03-08 07:00","2006","03","08","07:00"," ","-1.9","","-3.6","","88","","34","","19","","2.4","","94.19","","","","-7","","Freezing Drizzle"
"2006-03-08 08:00","2006","03","08","08:00"," ","-1.9","","-3.6","","88","","32","","19","","3.9","","94.24","","","","-7","","Freezing Drizzle"
"2006-03-08 09:00","2006","03","08","09:00"," ","-1.8","","-3.8","","86","","32","","19","","4.0","","94.29","","","","-7","","Snow"
"2006-03-08 10:00","2006","03","08","10:00"," ","-1.4","","-3.5","","86","","30","","19","","11.3","","94.32","","","","-7","","Snow"
"2006-03-08 11:00","2006","03","08","11:00"," ","-1.9","","-4.8","","81","","33","","24","","8.0","","94.34","","","","-8","","Snow"
"2006-03-08 12:00","2006","03","08","12:00"," ","-1.8","","-4.6","","81","","31","","20","","4.8","","94.34","","","","-8","","Snow"
"2006-03-08 13:00","2006","03","08","13:00"," ","-1.3","","-5.0","","76","","31","","20","","15.0","","94.33","","","","-7","",""
"2006-03-08 14:00","2006","03","08","14:00"," ","-1.3","","-4.7","","78","","29","","24","","15.0","","94.28","","","","-7","",""
"2006-03-08 15:00","2006","03","08","15:00"," ","-1.6","","-5.7","","74","","30","","26","","15.0","","94.23","","","","-8","",""
"2006-03-08 16:00","2006","03","08","16:00"," ","-1.7","","-6.1","","72","","30","","17","","15.0","","94.22","","","","-7","",""
"2006-03-08 17:00","2006","03","08","17:00"," ","-1.6","","-6.1","","71","","31","","19","","15.0","","94.19","","","","-7","",""
"2006-03-08 18:00","2006","03","08","18:00"," ","-2.0","","-6.3","","72","","29","","17","","15.0","","94.20","","","","-7","",""
"2006-03-08 19:00","2006","03","08","19:00"," ","-2.3","","-6.0","","76","","31","","11","","15.0","","94.17","","","","-6","",""
"2006-03-08 20:00","2006","03","08","20:00"," ","-2.5","","-5.9","","77","","32","","7","","15.0","","94.14","","","","-5","",""
"2006-03-08 21:00","2006","03","08","21:00"," ","-2.6","","-5.9","","78","","27","","4","","15.0","","94.10","","","","-4","",""
"2006-03-08 22:00","2006","03","08","22:00"," ","-2.6","","-6.2","","76","","32","","6","","15.0","","94.02","","","","-5","",""
"2006-03-08 23:00","2006","03","08","23:00"," ","-2.8","","-6.0","","79","","","","0","","15.0","","93.94","","","","","",""
"2006-03-09 00:00","2006","03","09","00:00"," ","-3.1","","-6.5","","77","","22","","7","","15.0","","93.87","","","","-6","",""
"2006-03-09 01:00","2006","03","09","01:00"," ","-3.7","","-6.5","","81","","21","","13","","15.0","","93.79","","","","-9","",""
"2006-03-09 02:00","2006","03","09","02:00"," ","-4.0","","-6.4","","83","","16","","11","","15.0","","93.72","","","","-8","",""
"2006-03-09 03:00","2006","03","09","03:00"," ","-4.6","","-6.7","","85","","16","","17","","14.5","","93.65","","","","-10","",""
"2006-03-09 04:00","2006","03","09","04:00"," ","-4.8","","-6.9","","85","","16","","15","","15.0","","93.58","","","","-10","",""
"2006-03-09 05:00","2006","03","09","05:00"," ","-4.8","","-6.8","","86","","14","","17","","14.5","","93.50","","","","-11","",""
"2006-03-09 06:00","2006","03","09","06:00"," ","-4.7","","-6.4","","88","","14","","15","","3.1","","93.46","","","","-10","",""
"2006-03-09 07:00","2006","03","09","07:00"," ","-5.0","","-6.7","","88","","14","","24","","1.4","","93.42","","","","-12","","Snow"
"2006-03-09 08:00","2006","03","09","08:00"," ","-4.9","","-6.8","","87","","15","","22","","3.1","","93.41","","","","-12","","Snow"
"2006-03-09 09:00","2006","03","09","09:00"," ","-4.3","","-6.1","","87","","14","","19","","6.4","","93.37","","","","-10","",""
"2006-03-09 10:00","2006","03","09","10:00"," ","-3.6","","-5.4","","87","","13","","22","","6.4","","93.34","","","","-10","","Snow"
"2006-03-09 11:00","2006","03","09","11:00"," ","-2.9","","-4.9","","86","","13","","24","","6.4","","93.30","","","","-10","",""
"2006-03-09 12:00","2006","03","09","12:00"," ","-1.8","","-4.2","","84","","16","","20","","11.3","","93.31","","","","-8","",""
"2006-03-09 13:00","2006","03","09","13:00"," ","-1.2","","-3.9","","82","","13","","22","","12.9","","93.26","","","","-7","",""
"2006-03-09 14:00","2006","03","09","14:00"," ","-0.5","","-3.8","","78","","14","","28","","12.9","","93.19","","","","-7","",""
"2006-03-09 15:00","2006","03","09","15:00"," ","0.2","","-3.3","","77","","15","","22","","15.0","","93.20","","","","","",""
"2006-03-09 16:00","2006","03","09","16:00"," ","0.3","","-3.4","","76","","16","","24","","14.5","","93.21","","","","","",""
"2006-03-09 17:00","2006","03","09","17:00"," ","0.5","","-3.1","","77","","15","","19","","14.5","","93.24","","","","","",""
"2006-03-09 18:00","2006","03","09","18:00"," ","0.3","","-2.7","","80","","12","","19","","12.9","","93.26","","","","","",""
"2006-03-09 19:00","2006","03","09","19:00"," ","-0.3","","-3.0","","82","","13","","17","","9.7","","93.30","","","","-5","","Snow"
"2006-03-09 20:00","2006","03","09","20:00"," ","-0.5","","-2.7","","85","","13","","17","","4.8","","93.36","","","","-5","","Snow"
"2006-03-09 21:00","2006","03","09","21:00"," ","-0.9","","-2.7","","88","","13","","15","","2.1","","93.39","","","","-6","","Snow"
"2006-03-09 22:00","2006","03","09","22:00"," ","-1.2","","-2.7","","90","","13","","17","","1.6","","93.41","","","","-6","","Snow"
"2006-03-09 23:00","2006","03","09","23:00"," ","-1.3","","-2.7","","90","","13","","15","","1.3","","93.42","","","","-6","","Snow"
"2006-03-10 00:00","2006","03","10","00:00"," ","-1.6","","-3.1","","89","","12","","13","","4.8","","93.42","","","","-6","","Snow"
"2006-03-10 01:00","2006","03","10","01:00"," ","-1.6","","-3.4","","87","","12","","13","","8.0","","93.42","","","","-6","",""
"2006-03-10 02:00","2006","03","10","02:00"," ","-1.9","","-3.8","","87","","12","","17","","8.0","","93.42","","","","-7","",""
"2006-03-10 03:00","2006","03","10","03:00"," ","-2.1","","-4.1","","86","","12","","13","","8.0","","93.44","","","","-7","",""
"2006-03-10 04:00","2006","03","10","04:00"," ","-2.2","","-4.2","","86","","12","","11","","9.7","","93.46","","","","-6","",""
"2006-03-10 05:00","2006","03","10","05:00"," ","-2.2","","-4.1","","87","","11","","9","","9.7","","93.49","","","","-6","",""
"2006-03-10 06:00","2006","03","10","06:00"," ","-2.6","","-4.7","","85","","9","","7","","9.7","","93.52","","","","-5","",""
"2006-03-10 07:00","2006","03","10","07:00"," ","-2.7","","-4.9","","85","","10","","13","","11.3","","93.55","","","","-7","",""
"2006-03-10 08:00","2006","03","10","08:00"," ","-2.7","","-4.7","","86","","5","","7","","11.3","","93.58","","","","-6","",""
"2006-03-10 09:00","2006","03","10","09:00"," ","-2.5","","-5.0","","83","","9","","9","","11.3","","93.65","","","","-6","",""
"2006-03-10 10:00","2006","03","10","10:00"," ","-2.5","","-5.2","","82","","9","","11","","15.0","","93.71","","","","-7","",""
"2006-03-10 11:00","2006","03","10","11:00"," ","-2.2","","-5.1","","80","","7","","9","","15.0","","93.75","","","","-6","",""
"2006-03-10 12:00","2006","03","10","12:00"," ","-2.1","","-4.4","","84","","6","","7","","2.9","","93.81","","","","-5","","Snow"
"2006-03-10 13:00","2006","03","10","13:00"," ","-1.9","","-4.3","","84","","5","","13","","5.6","","93.82","","","","-6","","Snow"
"2006-03-10 14:00","2006","03","10","14:00"," ","-1.9","","-4.3","","84","","2","","13","","4.8","","93.84","","","","-6","","Snow"
"2006-03-10 15:00","2006","03","10","15:00"," ","-2.0","","-4.5","","83","","2","","13","","8.0","","93.88","","","","-6","","Snow"
"2006-03-10 16:00","2006","03","10","16:00"," ","-2.1","","-4.2","","86","","3","","11","","3.2","","93.96","","","","-6","","Snow"
"2006-03-10 17:00","2006","03","10","17:00"," ","-2.2","","-4.4","","85","","3","","11","","12.9","","94.00","","","","-6","","Snow"
"2006-03-10 18:00","2006","03","10","18:00"," ","-2.4","","-4.5","","85","","3","","13","","8.0","","94.07","","","","-7","","Snow"
"2006-03-10 19:00","2006","03","10","19:00"," ","-2.8","","-4.7","","87","","3","","7","","12.9","","94.15","","","","-6","","Snow"
"2006-03-10 20:00","2006","03","10","20:00"," ","-3.0","","-5.0","","86","","3","","9","","5.6","","94.23","","","","-7","","Snow"
"2006-03-10 21:00","2006","03","10","21:00"," ","-3.1","","-5.0","","87","","5","","15","","2.3","","94.29","","","","-8","","Snow"
"2006-03-10 22:00","2006","03","10","22:00"," ","-3.6","","-5.7","","85","","5","","15","","3.2","","94.34","","","","-9","","Snow"
"2006-03-10 23:00","2006","03","10","23:00"," ","-4.0","","-6.0","","86","","5","","13","","2.6","","94.41","","","","-9","","Snow"
"2006-03-11 00:00","2006","03","11","00:00"," ","-4.5","","-6.5","","86","","4","","13","","1.8","","94.45","","","","-10","","Snow"
"2006-03-11 01:00","2006","03","11","01:00"," ","-5.1","","-7.3","","85","","5","","13","","15.0","","94.47","","","","-10","","Snow"
"2006-03-11 02:00","2006","03","11","02:00"," ","-5.0","","-7.4","","83","","5","","20","","15.0","","94.50","","","","-12","","Snow"
"2006-03-11 03:00","2006","03","11","03:00"," ","-5.2","","-7.4","","84","","5","","15","","15.0","","94.47","","","","-11","","Snow"
"2006-03-11 04:00","2006","03","11","04:00"," ","-5.3","","-7.6","","84","","5","","11","","15.0","","94.51","","","","-10","","Snow"
"2006-03-11 05:00","2006","03","11","05:00"," ","-5.3","","-8.0","","81","","3","","13","","15.0","","94.57","","","","-10","",""
"2006-03-11 06:00","2006","03","11","06:00"," ","-5.9","","-8.5","","82","","1","","15","","15.0","","94.59","","","","-12","",""
"2006-03-11 07:00","2006","03","11","07:00"," ","-6.2","","-8.8","","82","","1","","15","","15.0","","94.60","","","","-12","","Snow"
"2006-03-11 08:00","2006","03","11","08:00"," ","-6.3","","-8.8","","82","","4","","17","","15.0","","94.62","","","","-13","","Snow"
"2006-03-11 09:00","2006","03","11","09:00"," ","-6.1","","-8.7","","82","","4","","22","","8.0","","94.67","","","","-13","","Snow"
"2006-03-11 10:00","2006","03","11","10:00"," ","-5.8","","-8.3","","82","","5","","17","","5.6","","94.73","","","","-12","","Snow"
"2006-03-11 11:00","2006","03","11","11:00"," ","-5.7","","-8.3","","82","","3","","17","","4.0","","94.74","","","","-12","","Snow"
"2006-03-11 12:00","2006","03","11","12:00"," ","-5.7","","-8.7","","79","","3","","19","","15.0","","94.75","","","","-12","","Snow"
"2006-03-11 13:00","2006","03","11","13:00"," ","-6.1","","-8.8","","81","","36","","22","","15.0","","94.77","","","","-13","","Snow"
"2006-03-11 14:00","2006","03","11","14:00"," ","-6.1","","-9.2","","79","","2","","20","","15.0","","94.79","","","","-13","","Snow"
"2006-03-11 15:00","2006","03","11","15:00"," ","-6.4","","-9.4","","79","","1","","24","","15.0","","94.82","","","","-14","","Snow"
"2006-03-11 16:00","2006","03","11","16:00"," ","-6.8","","-9.9","","79","","2","","24","","15.0","","94.87","","","","-14","","Snow"
"2006-03-11 17:00","2006","03","11","17:00"," ","-7.7","","-10.7","","79","","2","","26","","14.5","","94.92","","","","-16","","Snow"
"2006-03-11 18:00","2006","03","11","18:00"," ","-8.3","","-11.3","","79","","1","","26","","12.9","","95.00","","","","-17","","Snow"
"2006-03-11 19:00","2006","03","11","19:00"," ","-8.6","","-11.5","","80","","1","","24","","4.8","","95.06","","","","-17","","Snow"
"2006-03-11 20:00","2006","03","11","20:00"," ","-8.7","","-11.4","","81","","1","","24","","3.4","","95.12","","","","-17","","Snow"
"2006-03-11 21:00","2006","03","11","21:00"," ","-8.8","","-12.0","","78","","1","","26","","8.0","","95.18","","","","-17","","Snow"
"2006-03-11 22:00","2006","03","11","22:00"," ","-9.3","","-12.4","","78","","1","","24","","8.0","","95.26","","","","-18","","Snow"
"2006-03-11 23:00","2006","03","11","23:00"," ","-9.5","","-12.5","","79","","1","","20","","12.9","","95.34","","","","-17","","Snow"
"2006-03-12 00:00","2006","03","12","00:00"," ","-9.9","","-12.8","","79","","35","","17","","3.4","","95.40","","","","-17","","Snow"
"2006-03-12 01:00","2006","03","12","01:00"," ","-10.6","","-13.5","","79","","35","","15","","5.6","","95.45","","","","-17","","Snow"
"2006-03-12 02:00","2006","03","12","02:00"," ","-11.7","","-14.3","","81","","33","","11","","8.0","","95.52","","","","-18","","Snow"
"2006-03-12 03:00","2006","03","12","03:00"," ","-12.6","","-14.9","","83","","34","","7","","6.4","","95.58","","","","-17","","Snow"
"2006-03-12 04:00","2006","03","12","04:00"," ","-13.3","","-15.6","","83","","32","","9","","15.0","","95.61","","","","-19","","Snow"
"2006-03-12 05:00","2006","03","12","05:00"," ","-14.9","","-17.0","","84","","29","","7","","15.0","","95.66","","","","-20","","Snow"
"2006-03-12 06:00","2006","03","12","06:00"," ","-16.2","","-17.8","","87","","31","","9","","15.0","","95.72","","","","-22","",""
"2006-03-12 07:00","2006","03","12","07:00"," ","-15.2","","-17.0","","86","","32","","7","","15.0","","95.71","","","","-20","",""
"2006-03-12 08:00","2006","03","12","08:00"," ","-16.9","","-18.9","","84","","30","","9","","15.0","","95.76","","","","-23","",""
"2006-03-12 09:00","2006","03","12","09:00"," ","-14.8","","-16.9","","84","","30","","6","","15.0","","95.87","","","","-19","",""
"2006-03-12 10:00","2006","03","12","10:00"," ","-12.3","","-14.2","","86","","34","","9","","4.8","","95.95","","","","-18","","Snow"
"2006-03-12 11:00","2006","03","12","11:00"," ","-11.9","","-14.8","","79","","36","","11","","8.0","","95.96","","","","-18","","Snow"
"2006-03-12 12:00","2006","03","12","12:00"," ","-11.1","","-14.6","","75","","36","","11","","12.9","","95.98","","","","-17","","Snow"
"2006-03-12 13:00","2006","03","12","13:00"," ","-11.0","","-14.8","","73","","36","","9","","15.0","","96.00","","","","-16","","Snow"
"2006-03-12 14:00","2006","03","12","14:00"," ","-10.7","","-14.7","","72","","34","","6","","15.0","","96.00","","","","-14","",""
"2006-03-12 15:00","2006","03","12","15:00"," ","-10.1","","-14.4","","71","","1","","4","","15.0","","95.99","","","","-12","","Snow"
"2006-03-12 16:00","2006","03","12","16:00"," ","-10.1","","-14.1","","72","","1","","9","","11.3","","96.00","","","","-15","","Snow"
"2006-03-12 17:00","2006","03","12","17:00"," ","-10.6","","-14.2","","75","","1","","13","","15.0","","96.00","","","","-17","","Snow"
"2006-03-12 18:00","2006","03","12","18:00"," ","-11.9","","-15.6","","74","","36","","7","","15.0","","96.06","","","","-16","",""
"2006-03-12 19:00","2006","03","12","19:00"," ","-12.7","","-15.7","","78","","32","","6","","15.0","","96.12","","","","-17","",""
"2006-03-12 20:00","2006","03","12","20:00"," ","-12.9","","-15.8","","79","","28","","6","","15.0","","96.13","","","","-17","",""
"2006-03-12 21:00","2006","03","12","21:00"," ","-15.4","","-17.6","","83","","27","","11","","15.0","","96.14","","","","-22","","Snow"
"2006-03-12 22:00","2006","03","12","22:00"," ","-16.1","","-18.5","","82","","28","","9","","15.0","","96.13","","","","-22","","Snow"
"2006-03-12 23:00","2006","03","12","23:00"," ","-17.7","","-19.7","","84","","32","","6","","15.0","","96.13","","","","-22","","Snow"
"2006-03-13 00:00","2006","03","13","00:00"," ","-18.0","","-20.5","","81","","28","","11","","15.0","","96.10","","","","-25","",""
"2006-03-13 01:00","2006","03","13","01:00"," ","-19.8","","-22.5","","79","","28","","13","","15.0","","96.06","","","","-28","",""
"2006-03-13 02:00","2006","03","13","02:00"," ","-18.6","","-21.4","","79","","","","0","","15.0","","96.06","","","","","",""
"2006-03-13 03:00","2006","03","13","03:00"," ","-18.7","","-21.5","","79","","28","","7","","14.5","","96.03","","","","-24","","Snow"
"2006-03-13 04:00","2006","03","13","04:00"," ","-18.7","","-21.3","","80","","","","0","","15.0","","96.02","","","","","","Snow"
"2006-03-13 05:00","2006","03","13","05:00"," ","-20.9","","-23.7","","78","","","","0","","6.4","","96.01","","","","","","Snow"
"2006-03-13 06:00","2006","03","13","06:00"," ","-19.3","","-22.3","","77","","28","","6","","15.0","","96.02","","","","-24","",""
"2006-03-13 07:00","2006","03","13","07:00"," ","-19.0","","-22.0","","77","","30","","4","","15.0","","95.99","","","","-22","","Snow"
"2006-03-13 08:00","2006","03","13","08:00"," ","-18.7","","-21.7","","77","","","","0","","3.1","","95.95","","","","","","Snow"
"2006-03-13 09:00","2006","03","13","09:00"," ","-18.0","","-21.2","","76","","","","0","","15.0","","95.93","","","","","","Snow"
"2006-03-13 10:00","2006","03","13","10:00"," ","-16.9","","-20.3","","75","","30","","4","","3.5","","95.93","","","","-20","","Snow"
"2006-03-13 11:00","2006","03","13","11:00"," ","-15.4","","-19.4","","71","","","","0","","4.8","","95.90","","","","","","Snow"
"2006-03-13 12:00","2006","03","13","12:00"," ","-15.2","","-18.8","","74","","36","","4","","6.4","","95.87","","","","-18","","Snow"
"2006-03-13 13:00","2006","03","13","13:00"," ","-13.8","","-17.8","","72","","34","","4","","11.3","","95.83","","","","-17","","Snow"
"2006-03-13 14:00","2006","03","13","14:00"," ","-13.2","","-17.4","","71","","34","","6","","11.3","","95.80","","","","-17","",""
"2006-03-13 15:00","2006","03","13","15:00"," ","-12.7","","-16.5","","73","","2","","6","","4.8","","95.78","","","","-17","","Snow"
"2006-03-13 16:00","2006","03","13","16:00"," ","-12.8","","-16.6","","73","","6","","6","","15.0","","95.80","","","","-17","",""
"2006-03-13 17:00","2006","03","13","17:00"," ","-11.4","","-16.5","","66","","","","0","","15.0","","95.80","","","","","",""
"2006-03-13 18:00","2006","03","13","18:00"," ","-11.8","","-16.7","","67","","","","0","","15.0","","95.82","","","","","",""
"2006-03-13 19:00","2006","03","13","19:00"," ","-13.6","","-17.5","","72","","23","","4","","15.0","","95.83","","","","-16","",""
"2006-03-13 20:00","2006","03","13","20:00"," ","-17.6","","-20.5","","78","","28","","9","","15.0","","95.83","","","","-24","",""
"2006-03-13 21:00","2006","03","13","21:00"," ","-16.9","","-19.8","","78","","28","","9","","15.0","","95.83","","","","-23","",""
"2006-03-13 22:00","2006","03","13","22:00"," ","-17.9","","-21.3","","75","","31","","6","","15.0","","95.84","","","","-23","",""
"2006-03-13 23:00","2006","03","13","23:00"," ","-19.4","","-22.9","","74","","30","","9","","15.0","","95.87","","","","-26","",""
"2006-03-14 00:00","2006","03","14","00:00"," ","-20.3","","-23.8","","74","","29","","9","","15.0","","95.89","","","","-27","",""
"2006-03-14 01:00","2006","03","14","01:00"," ","-20.6","","-24.0","","74","","30","","9","","15.0","","95.88","","","","-27","",""
"2006-03-14 02:00","2006","03","14","02:00"," ","-20.8","","-24.1","","75","","30","","7","","15.0","","95.88","","","","-27","",""
"2006-03-14 03:00","2006","03","14","03:00"," ","-21.2","","-24.4","","75","","29","","7","","15.0","","95.90","","","","-27","",""
"2006-03-14 04:00","2006","03","14","04:00"," ","-22.4","","-25.9","","73","","28","","9","","15.0","","95.94","","","","-30","",""
"2006-03-14 05:00","2006","03","14","05:00"," ","-21.6","","-24.5","","77","","29","","6","","15.0","","96.00","","","","-27","",""
"2006-03-14 06:00","2006","03","14","06:00"," ","-21.6","","-24.2","","79","","27","","6","","15.0","","96.07","","","","-27","",""
"2006-03-14 07:00","2006","03","14","07:00"," ","-23.5","","-25.4","","84","","","","0","","15.0","","96.11","","","","","",""
"2006-03-14 08:00","2006","03","14","08:00"," ","-21.5","","-24.2","","79","","29","","4","","15.0","","96.12","","","","-25","",""
"2006-03-14 09:00","2006","03","14","09:00"," ","-21.0","","-23.8","","78","","28","","6","","15.0","","96.16","","","","-26","",""
"2006-03-14 10:00","2006","03","14","10:00"," ","-19.4","","-22.0","","80","","","","0","","15.0","","96.19","","","","","",""
"2006-03-14 11:00","2006","03","14","11:00"," ","-18.8","","-21.5","","79","","","","0","","15.0","","96.22","","","","","",""
"2006-03-14 12:00","2006","03","14","12:00"," ","-16.2","","-20.4","","70","","","","0","","15.0","","96.24","","","","","",""
"2006-03-14 13:00","2006","03","14","13:00"," ","-16.2","","-19.1","","78","","8","","7","","15.0","","96.21","","","","-21","",""
"2006-03-14 14:00","2006","03","14","14:00"," ","-13.3","","-17.2","","72","","","","0","","15.0","","96.23","","","","","",""
"2006-03-14 15:00","2006","03","14","15:00"," ","-13.0","","-16.5","","75","","2","","4","","15.0","","96.23","","","","-16","",""
"2006-03-14 16:00","2006","03","14","16:00"," ","-12.4","","-16.5","","71","","5","","4","","15.0","","96.22","","","","-15","",""
"2006-03-14 17:00","2006","03","14","17:00"," ","-13.0","","-16.9","","72","","11","","4","","15.0","","96.22","","","","-16","",""
"2006-03-14 18:00","2006","03","14","18:00"," ","-14.9","","-18.6","","73","","9","","4","","15.0","","96.20","","","","-18","",""
"2006-03-14 19:00","2006","03","14","19:00"," ","-15.5","","-18.6","","77","","","","0","","15.0","","96.20","","","","","",""
"2006-03-14 20:00","2006","03","14","20:00"," ","-16.3","","-19.2","","78","","16","","7","","15.0","","96.25","","","","-21","",""
"2006-03-14 21:00","2006","03","14","21:00"," ","-18.0","","-20.0","","84","","","","0","","15.0","","96.23","","","","","",""
"2006-03-14 22:00","2006","03","14","22:00"," ","-18.0","","-21.0","","77","","16","","9","","15.0","","96.24","","","","-24","",""
"2006-03-14 23:00","2006","03","14","23:00"," ","-17.1","","-20.0","","78","","17","","11","","15.0","","96.29","","","","-24","",""
"2006-03-15 00:00","2006","03","15","00:00"," ","-23.2","","-27.1","","70","","10","","6","","15.0","","96.32","","","","-29","",""
"2006-03-15 01:00","2006","03","15","01:00"," ","-22.5","","-26.2","","72","","","","0","","15.0","","96.29","","","","","",""
"2006-03-15 02:00","2006","03","15","02:00"," ","-22.5","","-26.3","","71","","","","0","","15.0","","96.32","","","","","",""
"2006-03-15 03:00","2006","03","15","03:00"," ","-23.5","","-28.0","","66","","","","0","","15.0","","96.33","","","","","",""
"2006-03-15 04:00","2006","03","15","04:00"," ","-22.5","","-27.0","","67","","","","0","","15.0","","96.35","","","","","",""
"2006-03-15 05:00","2006","03","15","05:00"," ","-22.1","","-27.0","","64","","16","","6","","15.0","","96.38","","","","-27","",""
"2006-03-15 06:00","2006","03","15","06:00"," ","-24.7","","-29.0","","67","","","","0","","15.0","","96.37","","","","","",""
"2006-03-15 07:00","2006","03","15","07:00"," ","-24.7","","-29.2","","66","","","","0","","15.0","","96.34","","","","","",""
"2006-03-15 08:00","2006","03","15","08:00"," ","-23.5","","-27.6","","69","","","","0","","15.0","","96.40","","","","","",""
"2006-03-15 09:00","2006","03","15","09:00"," ","-21.4","","-24.9","","73","","","","0","","15.0","","96.44","","","","","",""
"2006-03-15 10:00","2006","03","15","10:00"," ","-20.6","","-24.3","","72","","2","","4","","15.0","","96.47","","","","-24","",""
"2006-03-15 11:00","2006","03","15","11:00"," ","-17.7","","-21.2","","74","","","","0","","15.0","","96.46","","","","","",""
"2006-03-15 12:00","2006","03","15","12:00"," ","-12.0","","-15.7","","74","","9","","13","","15.0","","96.45","","","","-19","",""
"2006-03-15 13:00","2006","03","15","13:00"," ","-10.2","","-14.9","","68","","11","","22","","15.0","","96.47","","","","-18","",""
"2006-03-15 14:00","2006","03","15","14:00"," ","-9.3","","-14.2","","67","","9","","22","","15.0","","96.45","","","","-17","",""
"2006-03-15 15:00","2006","03","15","15:00"," ","-8.9","","-14.2","","65","","10","","20","","15.0","","96.46","","","","-16","",""
"2006-03-15 16:00","2006","03","15","16:00"," ","-8.9","","-14.4","","64","","10","","19","","15.0","","96.51","","","","-16","",""
"2006-03-15 17:00","2006","03","15","17:00"," ","-9.2","","-14.9","","63","","11","","17","","15.0","","96.56","","","","-16","",""
"2006-03-15 18:00","2006","03","15","18:00"," ","-12.2","","-16.1","","73","","5","","9","","15.0","","96.62","","","","-17","",""
"2006-03-15 19:00","2006","03","15","19:00"," ","-13.0","","-16.5","","75","","9","","7","","15.0","","96.69","","","","-18","",""
"2006-03-15 20:00","2006","03","15","20:00"," ","-13.7","","-16.7","","78","","10","","6","","15.0","","96.75","","","","-18","",""
"2006-03-15 21:00","2006","03","15","21:00"," ","-15.1","","-18.7","","74","","9","","11","","15.0","","96.81","","","","-22","",""
"2006-03-15 22:00","2006","03","15","22:00"," ","-16.2","","-19.3","","77","","13","","11","","15.0","","96.87","","","","-23","",""
"2006-03-15 23:00","2006","03","15","23:00"," ","-19.3","","-21.6","","82","","12","","6","","15.0","","96.90","","","","-24","",""
"2006-03-16 00:00","2006","03","16","00:00"," ","-20.8","","-22.8","","84","","8","","4","","15.0","","96.92","","","","-24","",""
"2006-03-16 01:00","2006","03","16","01:00"," ","-19.8","","-22.2","","81","","","","0","","15.0","","96.95","","","","","",""
"2006-03-16 02:00","2006","03","16","02:00"," ","-19.7","","-22.0","","82","","","","0","","15.0","","97.00","","","","","",""
"2006-03-16 03:00","2006","03","16","03:00"," ","-22.2","","-25.0","","78","","","","0","","15.0","","97.00","","","","","",""
"2006-03-16 04:00","2006","03","16","04:00"," ","-21.2","","-24.0","","78","","","","0","","15.0","","97.01","","","","","",""
"2006-03-16 05:00","2006","03","16","05:00"," ","-22.6","","-26.3","","72","","36","","4","","15.0","","97.05","","","","-26","",""
"2006-03-16 06:00","2006","03","16","06:00"," ","-21.4","","-24.5","","76","","","","0","","15.0","","97.08","","","","","",""
"2006-03-16 07:00","2006","03","16","07:00"," ","-22.3","","-25.6","","74","","","","0","","15.0","","97.10","","","","","",""
"2006-03-16 08:00","2006","03","16","08:00"," ","-21.7","","-24.3","","79","","","","0","","15.0","","97.13","","","","","",""
"2006-03-16 09:00","2006","03","16","09:00"," ","-17.1","","-18.9","","86","","16","","4","","15.0","","97.16","","","","-20","",""
"2006-03-16 10:00","2006","03","16","10:00"," ","-16.9","","-19.2","","82","","11","","6","","15.0","","97.16","","","","-21","",""
"2006-03-16 11:00","2006","03","16","11:00"," ","-13.1","","-14.2","","91","","8","","4","","15.0","","97.19","","","","-16","",""
"2006-03-16 12:00","2006","03","16","12:00"," ","-10.7","","-14.0","","77","","13","","20","","15.0","","97.19","","","","-19","",""
"2006-03-16 13:00","2006","03","16","13:00"," ","-8.9","","-13.3","","70","","13","","17","","15.0","","97.17","","","","-16","",""
"2006-03-16 14:00","2006","03","16","14:00"," ","-8.7","","-13.6","","68","","12","","20","","15.0","","97.11","","","","-16","",""
"2006-03-16 15:00","2006","03","16","15:00"," ","-8.0","","-13.1","","67","","13","","24","","15.0","","97.08","","","","-16","",""
"2006-03-16 16:00","2006","03","16","16:00"," ","-7.5","","-12.8","","66","","13","","19","","15.0","","97.08","","","","-15","","Snow"
"2006-03-16 17:00","2006","03","16","17:00"," ","-7.9","","-12.5","","69","","12","","20","","15.0","","97.04","","","","-15","",""
"2006-03-16 18:00","2006","03","16","18:00"," ","-8.8","","-13.4","","69","","12","","13","","15.0","","97.04","","","","-15","",""
"2006-03-16 19:00","2006","03","16","19:00"," ","-9.0","","-14.2","","66","","11","","20","","15.0","","97.05","","","","-17","",""
"2006-03-16 20:00","2006","03","16","20:00"," ","-9.7","","-14.9","","66","","10","","20","","15.0","","97.05","","","","-17","",""
"2006-03-16 21:00","2006","03","16","21:00"," ","-10.3","","-15.3","","67","","11","","17","","15.0","","97.07","","","","-18","",""
"2006-03-16 22:00","2006","03","16","22:00"," ","-11.3","","-16.4","","66","","11","","22","","15.0","","97.10","","","","-20","",""
"2006-03-16 23:00","2006","03","16","23:00"," ","-11.4","","-16.2","","68","","11","","19","","15.0","","97.11","","","","-19","",""
"2006-03-17 00:00","2006","03","17","00:00"," ","-10.9","","-15.8","","67","","12","","24","","15.0","","97.11","","","","-20","",""
"2006-03-17 01:00","2006","03","17","01:00"," ","-11.3","","-16.3","","66","","13","","19","","15.0","","97.11","","","","-19","",""
"2006-03-17 02:00","2006","03","17","02:00"," ","-11.0","","-15.9","","67","","12","","24","","15.0","","97.10","","","","-20","",""
"2006-03-17 03:00","2006","03","17","03:00"," ","-11.0","","-16.2","","65","","13","","24","","15.0","","97.09","","","","-20","",""
"2006-03-17 04:00","2006","03","17","04:00"," ","-11.0","","-16.6","","63","","14","","24","","15.0","","97.06","","","","-20","",""
"2006-03-17 05:00","2006","03","17","05:00"," ","-11.0","","-16.9","","62","","13","","26","","15.0","","97.05","","","","-20","",""
"2006-03-17 06:00","2006","03","17","06:00"," ","-11.8","","-17.0","","65","","12","","22","","15.0","","97.09","","","","-21","",""
"2006-03-17 07:00","2006","03","17","07:00"," ","-12.4","","-17.8","","64","","13","","24","","15.0","","97.07","","","","-22","",""
"2006-03-17 08:00","2006","03","17","08:00"," ","-12.1","","-17.7","","63","","13","","24","","15.0","","97.07","","","","-21","",""
"2006-03-17 09:00","2006","03","17","09:00"," ","-10.9","","-16.6","","63","","13","","30","","15.0","","97.06","","","","-21","",""
"2006-03-17 10:00","2006","03","17","10:00"," ","-10.3","","-16.0","","63","","13","","26","","15.0","","97.07","","","","-19","",""
"2006-03-17 11:00","2006","03","17","11:00"," ","-8.8","","-14.0","","66","","12","","28","","15.0","","97.09","","","","-18","",""
"2006-03-17 12:00","2006","03","17","12:00"," ","-7.6","","-12.9","","66","","11","","28","","15.0","","97.08","","","","-16","",""
"2006-03-17 13:00","2006","03","17","13:00"," ","-6.8","","-12.4","","64","","12","","30","","15.0","","97.08","","","","-15","",""
"2006-03-17 14:00","2006","03","17","14:00"," ","-6.1","","-12.0","","63","","12","","30","","15.0","","97.04","","","","-14","",""
"2006-03-17 15:00","2006","03","17","15:00"," ","-6.1","","-11.9","","63","","12","","32","","15.0","","96.99","","","","-15","",""
"2006-03-17 16:00","2006","03","17","16:00"," ","-6.1","","-12.9","","59","","12","","33","","15.0","","96.99","","","","-15","",""
"2006-03-17 17:00","2006","03","17","17:00"," ","-6.3","","-12.3","","62","","12","","32","","15.0","","96.98","","","","-15","",""
"2006-03-17 18:00","2006","03","17","18:00"," ","-7.8","","-13.4","","64","","11","","26","","15.0","","97.01","","","","-16","",""
"2006-03-17 19:00","2006","03","17","19:00"," ","-9.3","","-14.2","","67","","11","","20","","15.0","","97.02","","","","-17","",""
"2006-03-17 20:00","2006","03","17","20:00"," ","-10.2","","-14.5","","71","","10","","17","","15.0","","97.06","","","","-17","",""
"2006-03-17 21:00","2006","03","17","21:00"," ","-11.3","","-15.3","","72","","10","","19","","15.0","","97.06","","","","-19","",""
"2006-03-17 22:00","2006","03","17","22:00"," ","-12.0","","-16.3","","70","","11","","19","","15.0","","97.06","","","","-20","",""
"2006-03-17 23:00","2006","03","17","23:00"," ","-12.7","","-17.6","","67","","11","","17","","15.0","","97.09","","","","-21","",""
"2006-03-18 00:00","2006","03","18","00:00"," ","-13.1","","-18.3","","65","","12","","19","","15.0","","97.08","","","","-22","",""
"2006-03-18 01:00","2006","03","18","01:00"," ","-13.2","","-18.5","","64","","12","","17","","15.0","","97.08","","","","-21","",""
"2006-03-18 02:00","2006","03","18","02:00"," ","-13.8","","-19.0","","65","","13","","13","","15.0","","97.08","","","","-21","",""
"2006-03-18 03:00","2006","03","18","03:00"," ","-14.2","","-19.2","","66","","12","","13","","15.0","","97.07","","","","-21","",""
"2006-03-18 04:00","2006","03","18","04:00"," ","-14.5","","-19.6","","65","","12","","13","","15.0","","97.07","","","","-22","",""
"2006-03-18 05:00","2006","03","18","05:00"," ","-13.2","","-19.1","","61","","12","","17","","15.0","","97.05","","","","-21","",""
"2006-03-18 06:00","2006","03","18","06:00"," ","-13.0","","-19.1","","60","","10","","22","","15.0","","97.08","","","","-22","",""
"2006-03-18 07:00","2006","03","18","07:00"," ","-13.8","","-19.6","","62","","12","","15","","15.0","","97.13","","","","-21","",""
"2006-03-18 08:00","2006","03","18","08:00"," ","-13.3","","-19.8","","58","","11","","15","","15.0","","97.14","","","","-21","",""
"2006-03-18 09:00","2006","03","18","09:00"," ","-10.7","","-17.9","","55","","11","","22","","15.0","","97.14","","","","-19","",""
"2006-03-18 10:00","2006","03","18","10:00"," ","-9.2","","-16.6","","55","","11","","28","","15.0","","97.17","","","","-18","",""
"2006-03-18 11:00","2006","03","18","11:00"," ","-7.9","","-15.5","","54","","11","","33","","15.0","","97.18","","","","-17","",""
"2006-03-18 12:00","2006","03","18","12:00"," ","-6.4","","-14.1","","54","","11","","28","","15.0","","97.18","","","","-15","",""
"2006-03-18 13:00","2006","03","18","13:00"," ","-5.6","","-14.2","","51","","11","","28","","15.0","","97.20","","","","-14","",""
"2006-03-18 14:00","2006","03","18","14:00"," ","-4.8","","-12.7","","54","","11","","30","","15.0","","97.18","","","","-13","",""
"2006-03-18 15:00","2006","03","18","15:00"," ","-4.9","","-13.1","","53","","11","","32","","15.0","","97.16","","","","-13","",""
"2006-03-18 16:00","2006","03","18","16:00"," ","-5.6","","-13.3","","55","","10","","30","","15.0","","97.20","","","","-14","",""
"2006-03-18 17:00","2006","03","18","17:00"," ","-6.4","","-13.9","","55","","10","","30","","15.0","","97.21","","","","-15","",""
"2006-03-18 18:00","2006","03","18","18:00"," ","-7.6","","-14.6","","57","","10","","26","","15.0","","97.23","","","","-16","",""
"2006-03-18 19:00","2006","03","18","19:00"," ","-8.1","","-15.4","","56","","10","","28","","15.0","","97.26","","","","-17","",""
"2006-03-18 20:00","2006","03","18","20:00"," ","-8.4","","-15.7","","56","","10","","28","","15.0","","97.29","","","","-17","",""
"2006-03-18 21:00","2006","03","18","21:00"," ","-8.5","","-15.8","","56","","10","","26","","15.0","","97.33","","","","-17","",""
"2006-03-18 22:00","2006","03","18","22:00"," ","-8.6","","-14.9","","60","","11","","26","","15.0","","97.40","","","","-17","",""
"2006-03-18 23:00","2006","03","18","23:00"," ","-8.3","","-14.9","","59","","10","","30","","15.0","","97.46","","","","-17","",""
"2006-03-19 00:00","2006","03","19","00:00"," ","-8.4","","-15.3","","57","","11","","26","","15.0","","97.49","","","","-17","",""
"2006-03-19 01:00","2006","03","19","01:00"," ","-8.6","","-15.5","","57","","11","","20","","15.0","","97.48","","","","-16","",""
"2006-03-19 02:00","2006","03","19","02:00"," ","-8.9","","-15.3","","60","","12","","9","","15.0","","97.47","","","","-14","",""
"2006-03-19 03:00","2006","03","19","03:00"," ","-8.7","","-16.1","","55","","10","","17","","15.0","","97.45","","","","-16","",""
"2006-03-19 04:00","2006","03","19","04:00"," ","-9.7","","-16.5","","58","","10","","15","","15.0","","97.45","","","","-16","",""
"2006-03-19 05:00","2006","03","19","05:00"," ","-10.1","","-16.8","","58","","11","","13","","15.0","","97.48","","","","-16","",""
"2006-03-19 06:00","2006","03","19","06:00"," ","-10.7","","-17.5","","57","","11","","20","","15.0","","97.49","","","","-19","",""
"2006-03-19 07:00","2006","03","19","07:00"," ","-12.0","","-17.9","","61","","12","","13","","15.0","","97.48","","","","-19","",""
"2006-03-19 08:00","2006","03","19","08:00"," ","-11.3","","-17.4","","61","","12","","17","","15.0","","97.51","","","","-19","",""
"2006-03-19 09:00","2006","03","19","09:00"," ","-9.9","","-16.3","","59","","11","","9","","15.0","","97.51","","","","-15","",""
"2006-03-19 10:00","2006","03","19","10:00"," ","-8.7","","-15.1","","60","","12","","15","","15.0","","97.54","","","","-15","",""
"2006-03-19 11:00","2006","03","19","11:00"," ","-7.5","","-14.3","","58","","12","","20","","15.0","","97.57","","","","-15","",""
"2006-03-19 12:00","2006","03","19","12:00"," ","-6.1","","-13.2","","57","","11","","20","","15.0","","97.56","","","","-13","",""
"2006-03-19 13:00","2006","03","19","13:00"," ","-5.4","","-12.7","","56","","11","","24","","15.0","","97.54","","","","-13","",""
"2006-03-19 14:00","2006","03","19","14:00"," ","-4.5","","-12.6","","53","","11","","24","","15.0","","97.50","","","","-12","",""
"2006-03-19 15:00","2006","03","19","15:00"," ","-4.1","","-12.5","","52","","11","","20","","15.0","","97.47","","","","-10","",""
"2006-03-19 16:00","2006","03","19","16:00"," ","-3.7","","-12.3","","51","","11","","19","","15.0","","97.45","","","","-10","",""
"2006-03-19 17:00","2006","03","19","17:00"," ","-4.0","","-11.9","","54","","10","","17","","15.0","","97.44","","","","-10","",""
"2006-03-19 18:00","2006","03","19","18:00"," ","-6.1","","-12.8","","59","","11","","11","","15.0","","97.42","","","","-11","",""
"2006-03-19 19:00","2006","03","19","19:00"," ","-9.3","","-14.9","","64","","10","","11","","15.0","","97.42","","","","-15","",""
"2006-03-19 20:00","2006","03","19","20:00"," ","-10.2","","-15.9","","63","","11","","11","","15.0","","97.40","","","","-16","",""
"2006-03-19 21:00","2006","03","19","21:00"," ","-10.7","","-17.4","","58","","11","","9","","15.0","","97.40","","","","-16","",""
"2006-03-19 22:00","2006","03","19","22:00"," ","-11.7","","-18.6","","57","","11","","9","","15.0","","97.43","","","","-17","",""
"2006-03-19 23:00","2006","03","19","23:00"," ","-12.7","","-19.6","","56","","10","","7","","15.0","","97.44","","","","-17","",""
"2006-03-20 00:00","2006","03","20","00:00"," ","-13.4","","-20.1","","57","","14","","6","","15.0","","97.42","","","","-17","",""
"2006-03-20 01:00","2006","03","20","01:00"," ","-14.8","","-20.5","","62","","9","","7","","15.0","","97.39","","","","-20","",""
"2006-03-20 02:00","2006","03","20","02:00"," ","-15.3","","-20.8","","63","","36","","4","","15.0","","97.34","","","","-18","",""
"2006-03-20 03:00","2006","03","20","03:00"," ","-13.2","","-20.0","","57","","8","","6","","15.0","","97.31","","","","-17","",""
"2006-03-20 04:00","2006","03","20","04:00"," ","-14.1","","-20.0","","61","","","","0","","15.0","","97.28","","","","","",""
"2006-03-20 05:00","2006","03","20","05:00"," ","-11.7","","-18.7","","56","","17","","4","","15.0","","97.29","","","","-14","",""
"2006-03-20 06:00","2006","03","20","06:00"," ","-14.8","","-19.8","","66","","4","","4","","15.0","","97.29","","","","-18","",""
"2006-03-20 07:00","2006","03","20","07:00"," ","-15.8","","-20.3","","68","","35","","4","","15.0","","97.28","","","","-19","",""
"2006-03-20 08:00","2006","03","20","08:00"," ","-14.8","","-20.0","","65","","","","0","","15.0","","97.28","","","","","",""
"2006-03-20 09:00","2006","03","20","09:00"," ","-13.3","","-18.5","","65","","7","","6","","15.0","","97.26","","","","-17","",""
"2006-03-20 10:00","2006","03","20","10:00"," ","-9.6","","-16.2","","59","","11","","11","","15.0","","97.25","","","","-15","",""
"2006-03-20 11:00","2006","03","20","11:00"," ","-6.7","","-14.4","","54","","12","","17","","15.0","","97.27","","","","-13","",""
"2006-03-20 12:00","2006","03","20","12:00"," ","-5.7","","-13.9","","52","","12","","22","","15.0","","97.28","","","","-13","",""
"2006-03-20 13:00","2006","03","20","13:00"," ","-4.7","","-12.6","","54","","11","","19","","15.0","","97.25","","","","-11","",""
"2006-03-20 14:00","2006","03","20","14:00"," ","-3.5","","-12.6","","49","","11","","24","","15.0","","97.20","","","","-10","",""
"2006-03-20 15:00","2006","03","20","15:00"," ","-3.1","","-13.1","","46","","12","","22","","15.0","","97.14","","","","-9","",""
"2006-03-20 16:00","2006","03","20","16:00"," ","-3.5","","-13.6","","45","","12","","24","","15.0","","97.12","","","","-10","",""
"2006-03-20 17:00","2006","03","20","17:00"," ","-3.6","","-13.1","","48","","12","","20","","15.0","","97.12","","","","-10","",""
"2006-03-20 18:00","2006","03","20","18:00"," ","-4.7","","-12.7","","54","","12","","19","","15.0","","97.11","","","","-11","",""
"2006-03-20 19:00","2006","03","20","19:00"," ","-6.4","","-13.9","","55","","11","","17","","15.0","","97.10","","","","-13","",""
"2006-03-20 20:00","2006","03","20","20:00"," ","-8.2","","-15.0","","58","","11","","19","","15.0","","97.13","","","","-15","",""
"2006-03-20 21:00","2006","03","20","21:00"," ","-8.6","","-15.1","","59","","11","","15","","15.0","","97.16","","","","-15","",""
"2006-03-20 22:00","2006","03","20","22:00"," ","-9.5","","-15.5","","62","","12","","15","","15.0","","97.18","","","","-16","",""
"2006-03-20 23:00","2006","03","20","23:00"," ","-10.0","","-16.2","","60","","13","","9","","15.0","","97.20","","","","-15","",""
"2006-03-21 00:00","2006","03","21","00:00"," ","-10.6","","-16.8","","60","","12","","15","","15.0","","97.19","","","","-17","",""
"2006-03-21 01:00","2006","03","21","01:00"," ","-10.7","","-17.2","","59","","16","","4","","15.0","","97.20","","","","-13","",""
"2006-03-21 02:00","2006","03","21","02:00"," ","-12.3","","-19.3","","56","","14","","9","","15.0","","97.18","","","","-18","",""
"2006-03-21 03:00","2006","03","21","03:00"," ","-11.2","","-19.3","","51","","11","","9","","15.0","","97.17","","","","-16","",""
"2006-03-21 04:00","2006","03","21","04:00"," ","-12.2","","-19.1","","56","","","","0","","15.0","","97.16","","","","","",""
"2006-03-21 05:00","2006","03","21","05:00"," ","-12.5","","-18.7","","60","","12","","7","","15.0","","97.15","","","","-17","",""
"2006-03-21 06:00","2006","03","21","06:00"," ","-13.6","","-19.2","","63","","11","","6","","15.0","","97.17","","","","-18","",""
"2006-03-21 07:00","2006","03","21","07:00"," ","-13.1","","-18.8","","62","","12","","7","","15.0","","97.20","","","","-18","",""
"2006-03-21 08:00","2006","03","21","08:00"," ","-15.0","","-20.0","","66","","11","","7","","15.0","","97.22","","","","-20","",""
"2006-03-21 09:00","2006","03","21","09:00"," ","-11.8","","-18.5","","57","","11","","11","","15.0","","97.25","","","","-18","",""
"2006-03-21 10:00","2006","03","21","10:00"," ","-9.6","","-16.6","","57","","12","","17","","15.0","","97.28","","","","-17","",""
"2006-03-21 11:00","2006","03","21","11:00"," ","-7.2","","-14.7","","55","","11","","17","","15.0","","97.31","","","","-14","",""
"2006-03-21 12:00","2006","03","21","12:00"," ","-5.4","","-12.9","","56","","12","","15","","15.0","","97.33","","","","-11","",""
"2006-03-21 13:00","2006","03","21","13:00"," ","-3.8","","-13.1","","48","","12","","17","","15.0","","97.33","","","","-10","",""
"2006-03-21 14:00","2006","03","21","14:00"," ","-3.3","","-11.7","","52","","10","","19","","15.0","","97.30","","","","-9","",""
"2006-03-21 15:00","2006","03","21","15:00"," ","-3.2","","-12.2","","50","","12","","22","","15.0","","97.27","","","","-10","",""
"2006-03-21 16:00","2006","03","21","16:00"," ","-3.1","","-13.3","","45","","12","","26","","15.0","","97.25","","","","-10","",""
"2006-03-21 17:00","2006","03","21","17:00"," ","-3.4","","-12.2","","51","","13","","15","","15.0","","97.27","","","","-9","",""
"2006-03-21 18:00","2006","03","21","18:00"," ","-3.8","","-12.7","","50","","13","","11","","15.0","","97.29","","","","-8","",""
"2006-03-21 19:00","2006","03","21","19:00"," ","-6.1","","-13.6","","55","","11","","20","","15.0","","97.29","","","","-13","",""
"2006-03-21 20:00","2006","03","21","20:00"," ","-7.2","","-15.0","","54","","11","","24","","15.0","","97.30","","","","-15","",""
"2006-03-21 21:00","2006","03","21","21:00"," ","-7.7","","-15.5","","54","","10","","26","","15.0","","97.31","","","","-16","",""
"2006-03-21 22:00","2006","03","21","22:00"," ","-8.5","","-16.2","","54","","12","","19","","15.0","","97.32","","","","-16","",""
"2006-03-21 23:00","2006","03","21","23:00"," ","-9.5","","-16.2","","58","","12","","19","","15.0","","97.34","","","","-17","",""
"2006-03-22 00:00","2006","03","22","00:00"," ","-9.9","","-16.3","","59","","16","","9","","15.0","","97.37","","","","-15","",""
"2006-03-22 01:00","2006","03","22","01:00"," ","-10.5","","-16.7","","60","","13","","9","","15.0","","97.39","","","","-15","",""
"2006-03-22 02:00","2006","03","22","02:00"," ","-11.7","","-17.1","","64","","12","","4","","15.0","","97.40","","","","-14","",""
"2006-03-22 03:00","2006","03","22","03:00"," ","-11.7","","-17.0","","65","","","","0","","15.0","","97.42","","","","","",""
"2006-03-22 04:00","2006","03","22","04:00"," ","-12.9","","-17.6","","68","","32","","4","","15.0","","97.47","","","","-16","",""
"2006-03-22 05:00","2006","03","22","05:00"," ","-14.1","","-18.0","","72","","36","","4","","15.0","","97.50","","","","-17","",""
"2006-03-22 06:00","2006","03","22","06:00"," ","-13.4","","-17.7","","70","","","","0","","15.0","","97.53","","","","","",""
"2006-03-22 07:00","2006","03","22","07:00"," ","-15.4","","-18.9","","75","","36","","6","","15.0","","97.58","","","","-20","",""
"2006-03-22 08:00","2006","03","22","08:00"," ","-14.8","","-18.5","","73","","","","0","","15.0","","97.61","","","","","",""
"2006-03-22 09:00","2006","03","22","09:00"," ","-13.0","","-17.9","","67","","","","0","","15.0","","97.63","","","","","",""
"2006-03-22 10:00","2006","03","22","10:00"," ","-8.3","","-16.3","","52","","","","0","","15.0","","97.66","","","","","",""
"2006-03-22 11:00","2006","03","22","11:00"," ","-8.2","","-15.0","","58","","8","","4","","15.0","","97.68","","","","-10","",""
"2006-03-22 12:00","2006","03","22","12:00"," ","-5.7","","-12.6","","58","","7","","4","","15.0","","97.68","","","","-8","",""
"2006-03-22 13:00","2006","03","22","13:00"," ","-3.7","","-11.2","","56","","","","0","","15.0","","97.69","","","","","",""
"2006-03-22 14:00","2006","03","22","14:00"," ","-2.9","","-11.0","","54","","4","","6","","15.0","","97.69","","","","-5","",""
"2006-03-22 15:00","2006","03","22","15:00"," ","-2.1","","-10.9","","51","","","","0","","15.0","","97.67","","","","","",""
"2006-03-22 16:00","2006","03","22","16:00"," ","-2.1","","-11.0","","50","","6","","4","","15.0","","97.68","","","","-4","",""
"2006-03-22 17:00","2006","03","22","17:00"," ","-3.3","","-9.1","","64","","4","","11","","15.0","","97.68","","","","-8","",""
"2006-03-22 18:00","2006","03","22","18:00"," ","-4.4","","-10.9","","60","","3","","6","","15.0","","97.68","","","","-7","",""
"2006-03-22 19:00","2006","03","22","19:00"," ","-5.3","","-12.1","","59","","","","0","","15.0","","97.67","","","","","",""
"2006-03-22 20:00","2006","03","22","20:00"," ","-6.1","","-12.9","","59","","1","","4","","15.0","","97.68","","","","-8","",""
"2006-03-22 21:00","2006","03","22","21:00"," ","-7.0","","-13.9","","58","","","","0","","15.0","","97.69","","","","","",""
"2006-03-22 22:00","2006","03","22","22:00"," ","-8.0","","-13.9","","62","","","","0","","15.0","","97.71","","","","","",""
"2006-03-22 23:00","2006","03","22","23:00"," ","-8.8","","-15.7","","57","","","","0","","15.0","","97.73","","","","","",""
"2006-03-23 00:00","2006","03","23","00:00"," ","-11.0","","-16.9","","62","","","","0","","15.0","","97.73","","","","","",""
"2006-03-23 01:00","2006","03","23","01:00"," ","-15.0","","-20.7","","62","","","","0","","15.0","","97.74","","","","","",""
"2006-03-23 02:00","2006","03","23","02:00"," ","-12.4","","-16.8","","70","","29","","7","","15.0","","97.76","","","","-17","",""
"2006-03-23 03:00","2006","03","23","03:00"," ","-15.7","","-19.3","","74","","","","0","","15.0","","97.73","","","","","",""
"2006-03-23 04:00","2006","03","23","04:00"," ","-15.0","","-18.2","","77","","","","0","","15.0","","97.73","","","","","",""
"2006-03-23 05:00","2006","03","23","05:00"," ","-16.8","","-20.1","","76","","27","","9","","15.0","","97.78","","","","-23","",""
"2006-03-23 06:00","2006","03","23","06:00"," ","-18.3","","-21.5","","76","","28","","6","","15.0","","97.79","","","","-23","",""
"2006-03-23 07:00","2006","03","23","07:00"," ","-18.1","","-20.9","","79","","","","0","","15.0","","97.79","","","","","",""
"2006-03-23 08:00","2006","03","23","08:00"," ","-17.3","","-19.9","","80","","30","","7","","15.0","","97.81","","","","-23","",""
"2006-03-23 09:00","2006","03","23","09:00"," ","-14.6","","-19.3","","67","","","","0","","15.0","","97.79","","","","","",""
"2006-03-23 10:00","2006","03","23","10:00"," ","-12.2","","-17.7","","64","","","","0","","15.0","","97.77","","","","","",""
"2006-03-23 11:00","2006","03","23","11:00"," ","-11.7","","-16.4","","68","","","","0","","15.0","","97.76","","","","","",""
"2006-03-23 12:00","2006","03","23","12:00"," ","-9.2","","-14.1","","68","","36","","4","","15.0","","97.75","","","","-11","",""
"2006-03-23 13:00","2006","03","23","13:00"," ","-6.2","","-12.9","","59","","","","0","","15.0","","97.69","","","","","",""
"2006-03-23 14:00","2006","03","23","14:00"," ","-2.1","","-11.7","","48","","","","0","","15.0","","97.63","","","","","",""
"2006-03-23 15:00","2006","03","23","15:00"," ","-3.8","","-11.2","","56","","","","0","","15.0","","97.60","","","","","",""
"2006-03-23 16:00","2006","03","23","16:00"," ","-3.5","","-10.7","","57","","34","","6","","15.0","","97.55","","","","-6","",""
"2006-03-23 17:00","2006","03","23","17:00"," ","-3.4","","-11.5","","53","","","","0","","15.0","","97.52","","","","","",""
"2006-03-23 18:00","2006","03","23","18:00"," ","-3.3","","-11.9","","51","","","","0","","15.0","","97.47","","","","","",""
"2006-03-23 19:00","2006","03","23","19:00"," ","-4.8","","-12.5","","55","","","","0","","15.0","","97.44","","","","","",""
"2006-03-23 20:00","2006","03","23","20:00"," ","-6.4","","-13.0","","59","","","","0","","15.0","","97.40","","","","","",""
"2006-03-23 21:00","2006","03","23","21:00"," ","-7.0","","-13.7","","59","","","","0","","15.0","","97.37","","","","","",""
"2006-03-23 22:00","2006","03","23","22:00"," ","-7.1","","-14.0","","58","","25","","6","","15.0","","97.35","","","","-10","",""
"2006-03-23 23:00","2006","03","23","23:00"," ","-12.7","","-17.4","","68","","24","","4","","15.0","","97.32","","","","-15","",""
"2006-03-24 00:00","2006","03","24","00:00"," ","-13.3","","-16.8","","75","","27","","4","","15.0","","97.28","","","","-16","",""
"2006-03-24 01:00","2006","03","24","01:00"," ","-16.0","","-18.5","","81","","","","0","","15.0","","97.25","","","","","",""
"2006-03-24 02:00","2006","03","24","02:00"," ","-14.1","","-16.9","","79","","","","0","","15.0","","97.23","","","","","",""
"2006-03-24 03:00","2006","03","24","03:00"," ","-16.1","","-18.0","","85","","","","0","","15.0","","97.18","","","","","",""
"2006-03-24 04:00","2006","03","24","04:00"," ","-15.4","","-17.8","","82","","23","","4","","15.0","","97.18","","","","-18","",""
"2006-03-24 05:00","2006","03","24","05:00"," ","-19.3","","-22.2","","78","","","","0","","15.0","","97.17","","","","","",""
"2006-03-24 06:00","2006","03","24","06:00"," ","-19.9","","-22.1","","83","","","","0","","15.0","","97.18","","","","","",""
"2006-03-24 07:00","2006","03","24","07:00"," ","-18.7","","-20.9","","83","","","","0","","15.0","","97.15","","","","","",""
"2006-03-24 08:00","2006","03","24","08:00"," ","-19.6","","-21.8","","83","","","","0","","15.0","","97.14","","","","","",""
"2006-03-24 09:00","2006","03","24","09:00"," ","-15.8","","-19.1","","76","","","","0","","11.3","","97.13","","","","","",""
"2006-03-24 10:00","2006","03","24","10:00"," ","-15.4","","-18.4","","78","","","","0","","11.3","","97.11","","","","","",""
"2006-03-24 11:00","2006","03","24","11:00"," ","-12.7","","-16.6","","73","","5","","4","","15.0","","97.14","","","","-15","",""
"2006-03-24 12:00","2006","03","24","12:00"," ","-9.7","","-14.5","","68","","","","0","","15.0","","97.09","","","","","",""
"2006-03-24 13:00","2006","03","24","13:00"," ","-7.4","","-12.5","","67","","3","","4","","15.0","","97.03","","","","-9","",""
"2006-03-24 14:00","2006","03","24","14:00"," ","-5.4","","-10.6","","67","","","","0","","15.0","","96.98","","","","","",""
"2006-03-24 15:00","2006","03","24","15:00"," ","-2.7","","-8.3","","65","","8","","4","","15.0","","96.90","","","","-4","",""
"2006-03-24 16:00","2006","03","24","16:00"," ","-1.4","","-7.5","","63","","","","0","","15.0","","96.87","","","","","",""
"2006-03-24 17:00","2006","03","24","17:00"," ","-2.2","","-6.9","","70","","4","","9","","15.0","","96.84","","","","-6","",""
"2006-03-24 18:00","2006","03","24","18:00"," ","-4.1","","-8.2","","73","","5","","7","","15.0","","96.83","","","","-7","",""
"2006-03-24 19:00","2006","03","24","19:00"," ","-6.1","","-10.2","","73","","9","","9","","15.0","","96.81","","","","-10","",""
"2006-03-24 20:00","2006","03","24","20:00"," ","-6.6","","-11.5","","68","","10","","6","","15.0","","96.78","","","","-10","",""
"2006-03-24 21:00","2006","03","24","21:00"," ","-7.7","","-12.5","","68","","13","","9","","15.0","","96.79","","","","-12","",""
"2006-03-24 22:00","2006","03","24","22:00"," ","-8.5","","-13.0","","70","","14","","11","","15.0","","96.78","","","","-14","",""
"2006-03-24 23:00","2006","03","24","23:00"," ","-9.9","","-13.7","","74","","14","","9","","15.0","","96.75","","","","-15","",""
"2006-03-25 00:00","2006","03","25","00:00"," ","-11.4","","-14.8","","76","","14","","6","","15.0","","96.75","","","","-15","",""
"2006-03-25 01:00","2006","03","25","01:00"," ","-9.9","","-13.0","","78","","15","","11","","15.0","","96.70","","","","-15","",""
"2006-03-25 02:00","2006","03","25","02:00"," ","-9.6","","-12.2","","81","","16","","11","","15.0","","96.70","","","","-15","",""
"2006-03-25 03:00","2006","03","25","03:00"," ","-10.2","","-12.4","","84","","16","","11","","15.0","","96.66","","","","-16","",""
"2006-03-25 04:00","2006","03","25","04:00"," ","-10.6","","-11.9","","90","","15","","11","","15.0","","96.61","","","","-16","",""
"2006-03-25 05:00","2006","03","25","05:00"," ","-10.0","","-11.8","","87","","15","","9","","15.0","","96.60","","","","-15","",""
"2006-03-25 06:00","2006","03","25","06:00"," ","-8.0","","-10.7","","81","","15","","13","","15.0","","96.55","","","","-14","",""
"2006-03-25 07:00","2006","03","25","07:00"," ","-5.9","","-9.1","","78","","16","","17","","15.0","","96.52","","","","-12","",""
"2006-03-25 08:00","2006","03","25","08:00"," ","-6.1","","-9.3","","78","","15","","15","","15.0","","96.50","","","","-12","",""
"2006-03-25 09:00","2006","03","25","09:00"," ","-4.1","","-8.2","","73","","15","","20","","15.0","","96.46","","","","-10","",""
"2006-03-25 10:00","2006","03","25","10:00"," ","-3.2","","-7.5","","72","","15","","28","","15.0","","96.40","","","","-10","",""
"2006-03-25 11:00","2006","03","25","11:00"," ","-2.2","","-6.8","","71","","15","","30","","15.0","","96.36","","","","-9","",""
"2006-03-25 12:00","2006","03","25","12:00"," ","-1.5","","-6.3","","70","","16","","26","","15.0","","96.34","","","","-8","",""
"2006-03-25 13:00","2006","03","25","13:00"," ","-1.3","","-6.0","","70","","14","","32","","15.0","","96.25","","","","-8","",""
"2006-03-25 14:00","2006","03","25","14:00"," ","-1.0","","-5.6","","71","","14","","37","","15.0","","96.15","","","","-8","",""
"2006-03-25 15:00","2006","03","25","15:00"," ","-0.7","","-4.7","","74","","14","","32","","15.0","","96.08","","","","-8","",""
"2006-03-25 16:00","2006","03","25","16:00"," ","-0.6","","-4.6","","74","","14","","37","","15.0","","96.00","","","","-8","",""
"2006-03-25 17:00","2006","03","25","17:00"," ","-0.5","","-4.2","","76","","14","","30","","15.0","","95.94","","","","-7","",""
"2006-03-25 18:00","2006","03","25","18:00"," ","-0.6","","-4.4","","75","","14","","30","","15.0","","95.83","","","","-7","",""
"2006-03-25 19:00","2006","03","25","19:00"," ","-0.8","","-4.2","","78","","14","","35","","15.0","","95.80","","","","-8","",""
"2006-03-25 20:00","2006","03","25","20:00"," ","-1.6","","-4.6","","80","","14","","28","","15.0","","95.73","","","","-8","",""
"2006-03-25 21:00","2006","03","25","21:00"," ","-2.2","","-5.4","","79","","13","","30","","15.0","","95.65","","","","-9","",""
"2006-03-25 22:00","2006","03","25","22:00"," ","-2.7","","-5.5","","81","","14","","28","","15.0","","95.56","","","","-10","",""
"2006-03-25 23:00","2006","03","25","23:00"," ","-3.0","","-5.5","","83","","14","","30","","15.0","","95.50","","","","-10","",""
"2006-03-26 00:00","2006","03","26","00:00"," ","-3.3","","-5.7","","83","","15","","30","","15.0","","95.49","","","","-11","",""
"2006-03-26 01:00","2006","03","26","01:00"," ","-3.4","","-5.9","","83","","14","","30","","15.0","","95.44","","","","-11","",""
"2006-03-26 02:00","2006","03","26","02:00"," ","-3.0","","-5.4","","83","","14","","39","","15.0","","95.38","","","","-11","",""
"2006-03-26 03:00","2006","03","26","03:00"," ","-2.6","","-5.6","","80","","14","","32","","15.0","","95.35","","","","-10","","Snow"
"2006-03-26 04:00","2006","03","26","04:00"," ","-2.4","","-5.5","","79","","14","","41","","15.0","","95.27","","","","-11","","Snow"
"2006-03-26 05:00","2006","03","26","05:00"," ","-2.3","","-4.4","","85","","14","","37","","15.0","","95.24","","","","-10","","Snow"
"2006-03-26 06:00","2006","03","26","06:00"," ","-2.3","","-5.2","","80","","14","","33","","15.0","","95.18","","","","-10","","Snow"
"2006-03-26 07:00","2006","03","26","07:00"," ","-2.7","","-5.4","","82","","14","","41","","15.0","","95.11","","","","-11","","Snow"
"2006-03-26 08:00","2006","03","26","08:00"," ","-2.6","","-5.3","","82","","15","","35","","15.0","","95.14","","","","-10","","Snow"
"2006-03-26 09:00","2006","03","26","09:00"," ","-2.2","","-5.0","","81","","14","","37","","15.0","","95.11","","","","-10","","Snow"
"2006-03-26 10:00","2006","03","26","10:00"," ","-1.6","","-4.3","","82","","15","","32","","15.0","","95.08","","","","-9","",""
"2006-03-26 11:00","2006","03","26","11:00"," ","-1.1","","-3.8","","82","","14","","28","","15.0","","95.05","","","","-8","",""
"2006-03-26 12:00","2006","03","26","12:00"," ","-0.5","","-3.5","","80","","14","","33","","15.0","","95.01","","","","-7","",""
"2006-03-26 13:00","2006","03","26","13:00"," ","-0.1","","-3.4","","78","","14","","33","","15.0","","95.05","","","","-7","",""
"2006-03-26 14:00","2006","03","26","14:00"," ","0.2","","-3.0","","79","","14","","24","","15.0","","95.05","","","","","",""
"2006-03-26 15:00","2006","03","26","15:00"," ","0.8","","-2.6","","78","","13","","26","","15.0","","95.02","","","","","",""
"2006-03-26 16:00","2006","03","26","16:00"," ","0.8","","-2.6","","78","","13","","22","","15.0","","95.01","","","","","",""
"2006-03-26 17:00","2006","03","26","17:00"," ","0.9","","-2.3","","79","","13","","24","","15.0","","95.02","","","","","",""
"2006-03-26 18:00","2006","03","26","18:00"," ","0.7","","-2.4","","80","","13","","28","","15.0","","95.03","","","","","",""
"2006-03-26 19:00","2006","03","26","19:00"," ","0.3","","-2.7","","80","","13","","22","","15.0","","95.03","","","","","",""
"2006-03-26 20:00","2006","03","26","20:00"," ","0.3","","-2.5","","81","","14","","22","","15.0","","95.04","","","","","",""
"2006-03-26 21:00","2006","03","26","21:00"," ","0.4","","-2.3","","82","","14","","26","","15.0","","95.08","","","","","",""
"2006-03-26 22:00","2006","03","26","22:00"," ","0.3","","-2.0","","85","","14","","20","","14.5","","95.05","","","","","",""
"2006-03-26 23:00","2006","03","26","23:00"," ","0.5","","-1.8","","85","","15","","24","","14.5","","95.03","","","","","",""
"2006-03-27 00:00","2006","03","27","00:00"," ","0.6","","-1.7","","85","","16","","26","","12.9","","95.00","","","","","",""
"2006-03-27 01:00","2006","03","27","01:00"," ","0.6","","-1.6","","85","","17","","19","","12.9","","95.04","","","","","",""
"2006-03-27 02:00","2006","03","27","02:00"," ","0.9","","-1.4","","85","","18","","15","","12.9","","95.05","","","","","",""
"2006-03-27 03:00","2006","03","27","03:00"," ","0.9","","-1.2","","86","","17","","9","","12.9","","95.06","","","","","",""
"2006-03-27 04:00","2006","03","27","04:00"," ","0.9","","-1.0","","87","","21","","9","","9.7","","95.10","","","","","","Snow"
"2006-03-27 05:00","2006","03","27","05:00"," ","0.6","","-0.8","","90","","24","","13","","2.9","","95.17","","","","","",""
"2006-03-27 06:00","2006","03","27","06:00"," ","0.9","","-0.9","","88","","29","","24","","11.3","","95.24","","","","","",""
"2006-03-27 07:00","2006","03","27","07:00"," ","0.7","","-1.6","","85","","30","","30","","9.7","","95.36","","","","","","Snow"
"2006-03-27 08:00","2006","03","27","08:00"," ","-0.4","","-3.0","","83","","30","","26","","15.0","","95.46","","","","-7","",""
"2006-03-27 09:00","2006","03","27","09:00"," ","-0.3","","-3.0","","82","","30","","20","","15.0","","95.52","","","","-6","",""
"2006-03-27 10:00","2006","03","27","10:00"," ","0.3","","-2.8","","80","","30","","22","","15.0","","95.58","","","","","",""
"2006-03-27 11:00","2006","03","27","11:00"," ","1.7","","-2.0","","76","","29","","19","","15.0","","95.64","","","","","",""
"2006-03-27 12:00","2006","03","27","12:00"," ","2.6","","-1.7","","73","","27","","15","","15.0","","95.69","","","","","",""
"2006-03-27 13:00","2006","03","27","13:00"," ","3.5","","-1.7","","69","","28","","13","","15.0","","95.70","","","","","",""
"2006-03-27 14:00","2006","03","27","14:00"," ","4.2","","-1.2","","68","","23","","13","","15.0","","95.71","","","","","",""
"2006-03-27 15:00","2006","03","27","15:00"," ","3.6","","-1.2","","71","","25","","17","","15.0","","95.74","","","","","",""
"2006-03-27 16:00","2006","03","27","16:00"," ","4.0","","-1.1","","69","","23","","17","","15.0","","95.74","","","","","",""
"2006-03-27 17:00","2006","03","27","17:00"," ","4.0","","-1.5","","67","","23","","19","","15.0","","95.74","","","","","",""
"2006-03-27 18:00","2006","03","27","18:00"," ","4.0","","-1.9","","65","","23","","9","","15.0","","95.74","","","","","",""
"2006-03-27 19:00","2006","03","27","19:00"," ","2.7","","-1.9","","72","","22","","13","","15.0","","95.73","","","","","",""
"2006-03-27 20:00","2006","03","27","20:00"," ","2.0","","-2.4","","73","","21","","11","","15.0","","95.74","","","","","",""
"2006-03-27 21:00","2006","03","27","21:00"," ","1.3","","-2.7","","75","","21","","15","","15.0","","95.74","","","","","",""
"2006-03-27 22:00","2006","03","27","22:00"," ","0.6","","-3.1","","76","","20","","15","","15.0","","95.72","","","","","",""
"2006-03-27 23:00","2006","03","27","23:00"," ","0.3","","-3.4","","76","","19","","15","","15.0","","95.69","","","","","",""
"2006-03-28 00:00","2006","03","28","00:00"," ","0.3","","-3.7","","74","","19","","13","","15.0","","95.66","","","","","",""
"2006-03-28 01:00","2006","03","28","01:00"," ","-0.1","","-4.5","","72","","20","","13","","15.0","","95.66","","","","-4","",""
"2006-03-28 02:00","2006","03","28","02:00"," ","-1.1","","-5.3","","73","","20","","9","","15.0","","95.63","","","","-4","",""
"2006-03-28 03:00","2006","03","28","03:00"," ","-1.6","","-5.9","","72","","20","","9","","15.0","","95.61","","","","-5","",""
"2006-03-28 04:00","2006","03","28","04:00"," ","-1.8","","-6.2","","72","","20","","13","","15.0","","95.55","","","","-6","",""
"2006-03-28 05:00","2006","03","28","05:00"," ","-1.7","","-6.0","","72","","20","","15","","15.0","","95.51","","","","-7","",""
"2006-03-28 06:00","2006","03","28","06:00"," ","-0.7","","-5.4","","70","","20","","15","","15.0","","95.49","","","","-5","",""
"2006-03-28 07:00","2006","03","28","07:00"," ","-0.3","","-5.1","","70","","18","","15","","15.0","","95.46","","","","-5","",""
"2006-03-28 08:00","2006","03","28","08:00"," ","-0.8","","-4.8","","74","","17","","15","","15.0","","95.42","","","","-5","",""
"2006-03-28 09:00","2006","03","28","09:00"," ","1.2","","-3.8","","69","","18","","17","","15.0","","95.39","","","","","",""
"2006-03-28 10:00","2006","03","28","10:00"," ","3.1","","-2.5","","67","","18","","17","","15.0","","95.35","","","","","",""
"2006-03-28 11:00","2006","03","28","11:00"
"2006-03-28 12:00","2006","03","28","12:00"," ","5.2","","-1.8","","61","","17","","17","","15.0","","95.29","","","","","",""
"2006-03-28 13:00","2006","03","28","13:00"," ","5.8","","-1.1","","61","","16","","13","","15.0","","95.23","","","","","",""
"2006-03-28 14:00","2006","03","28","14:00"," ","6.2","","-1.1","","59","","16","","11","","15.0","","95.19","","","","","",""
"2006-03-28 15:00","2006","03","28","15:00"," ","6.2","","-0.9","","60","","15","","15","","15.0","","95.15","","","","","",""
"2006-03-28 16:00","2006","03","28","16:00"," ","6.2","","-0.3","","63","","7","","4","","15.0","","95.11","","","","","",""
"2006-03-28 17:00","2006","03","28","17:00"," ","5.3","","0.3","","70","","13","","11","","15.0","","95.03","","","","","",""
"2006-03-28 18:00","2006","03","28","18:00"," ","5.1","","0.1","","70","","13","","6","","15.0","","95.02","","","","","",""
"2006-03-28 19:00","2006","03","28","19:00"," ","1.3","","-0.3","","89","","34","","11","","15.0","","95.03","","","","","",""
"2006-03-28 20:00","2006","03","28","20:00"," ","0.9","","-0.8","","88","","5","","4","","15.0","","95.05","","","","","",""
"2006-03-28 21:00","2006","03","28","21:00"," ","0.5","","-0.9","","90","","10","","4","","15.0","","95.07","","","","","",""
"2006-03-28 22:00","2006","03","28","22:00"," ","-0.5","","-1.3","","94","","","","0","","15.0","","95.08","","","","","",""
"2006-03-28 23:00","2006","03","28","23:00"," ","-1.2","","-2.0","","94","","9","","4","","15.0","","95.07","","","","-3","",""
"2006-03-29 00:00","2006","03","29","00:00"," ","-1.2","","-1.9","","95","","","","0","","15.0","","95.07","","","","","",""
"2006-03-29 01:00","2006","03","29","01:00"," ","-2.7","","-3.3","","96","","34","","7","","11.3","","95.07","","","","-6","",""
"2006-03-29 02:00","2006","03","29","02:00"," ","-3.6","","-3.9","","98","","35","","7","","8.0","","95.05","","","","-7","",""
"2006-03-29 03:00","2006","03","29","03:00"," ","-3.6","","-3.9","","98","","35","","6","","5.6","","95.03","","","","-6","",""
"2006-03-29 04:00","2006","03","29","04:00"," ","-3.4","","-3.6","","99","","34","","9","","5.6","","95.02","","","","-7","",""
"2006-03-29 05:00","2006","03","29","05:00"," ","-3.5","","-3.7","","99","","33","","9","","6.4","","95.06","","","","-7","",""
"2006-03-29 06:00","2006","03","29","06:00"," ","-2.9","","-3.3","","97","","35","","13","","8.0","","95.08","","","","-8","",""
"2006-03-29 07:00","2006","03","29","07:00"," ","-2.6","","-3.0","","97","","35","","7","","8.0","","95.12","","","","-5","",""
"2006-03-29 08:00","2006","03","29","08:00"," ","-2.0","","-2.7","","95","","35","","7","","9.7","","95.12","","","","-5","",""
"2006-03-29 09:00","2006","03","29","09:00"," ","-1.1","","-2.7","","89","","1","","9","","12.9","","95.09","","","","-4","",""
"2006-03-29 10:00","2006","03","29","10:00"," ","0.9","","-1.3","","85","","36","","11","","15.0","","95.08","","","","","",""
"2006-03-29 11:00","2006","03","29","11:00"," ","2.0","","-1.2","","79","","1","","13","","15.0","","95.06","","","","","",""
"2006-03-29 12:00","2006","03","29","12:00"," ","2.5","","-0.6","","80","","36","","17","","15.0","","95.06","","","","","",""
"2006-03-29 13:00","2006","03","29","13:00"," ","2.9","","-1.1","","75","","36","","15","","15.0","","95.06","","","","","",""
"2006-03-29 14:00","2006","03","29","14:00"," ","3.2","","-1.8","","70","","2","","19","","15.0","","95.04","","","","","",""
"2006-03-29 15:00","2006","03","29","15:00"," ","3.1","","-1.7","","71","","3","","13","","15.0","","95.03","","","","","",""
"2006-03-29 16:00","2006","03","29","16:00"," ","2.9","","-1.6","","72","","4","","17","","15.0","","95.02","","","","","",""
"2006-03-29 17:00","2006","03","29","17:00"," ","2.8","","-1.6","","73","","4","","15","","15.0","","95.02","","","","","",""
"2006-03-29 18:00","2006","03","29","18:00"," ","2.0","","-1.2","","79","","4","","19","","15.0","","95.02","","","","","",""
"2006-03-29 19:00","2006","03","29","19:00"," ","1.4","","-1.3","","82","","4","","17","","15.0","","95.02","","","","","",""
"2006-03-29 20:00","2006","03","29","20:00"," ","1.1","","-1.9","","80","","4","","17","","15.0","","95.05","","","","","",""
"2006-03-29 21:00","2006","03","29","21:00"," ","0.8","","-2.7","","77","","3","","17","","15.0","","95.11","","","","","",""
"2006-03-29 22:00","2006","03","29","22:00"," ","-0.2","","-3.4","","79","","3","","15","","15.0","","95.12","","","","-5","",""
"2006-03-29 23:00","2006","03","29","23:00"," ","-0.4","","-3.6","","79","","36","","19","","15.0","","95.15","","","","-6","",""
"2006-03-30 00:00","2006","03","30","00:00"," ","-0.2","","-4.2","","74","","1","","19","","15.0","","95.14","","","","-5","",""
"2006-03-30 01:00","2006","03","30","01:00"," ","-1.0","","-4.7","","76","","1","","24","","15.0","","95.13","","","","-7","",""
"2006-03-30 02:00","2006","03","30","02:00"," ","-1.4","","-5.1","","76","","1","","20","","15.0","","95.12","","","","-7","",""
"2006-03-30 03:00","2006","03","30","03:00"," ","-2.4","","-5.5","","79","","36","","19","","15.0","","95.12","","","","-8","",""
"2006-03-30 04:00","2006","03","30","04:00"," ","-2.4","","-5.5","","79","","1","","22","","15.0","","95.15","","","","-9","",""
"2006-03-30 05:00","2006","03","30","05:00"," ","-2.9","","-5.9","","80","","2","","20","","15.0","","95.18","","","","-9","",""
"2006-03-30 06:00","2006","03","30","06:00"," ","-3.5","","-6.3","","81","","36","","13","","15.0","","95.24","","","","-8","",""
"2006-03-30 07:00","2006","03","30","07:00"," ","-3.5","","-6.3","","81","","1","","24","","15.0","","95.27","","","","-10","",""
"2006-03-30 08:00","2006","03","30","08:00"," ","-3.3","","-5.9","","82","","2","","28","","15.0","","95.27","","","","-11","",""
"2006-03-30 09:00","2006","03","30","09:00"," ","-2.9","","-5.5","","82","","2","","24","","15.0","","95.31","","","","-10","",""
"2006-03-30 10:00","2006","03","30","10:00"
"2006-03-30 11:00","2006","03","30","11:00"," ","-1.6","","-4.4","","81","","2","","28","","15.0","","95.38","","","","-8","",""
"2006-03-30 12:00","2006","03","30","12:00"," ","-0.7","","-3.2","","83","","1","","30","","","M","95.39","","","","-7","",""
"2006-03-30 13:00","2006","03","30","13:00"," ","0.3","","-2.7","","80","","1","","26","","15.0","","95.41","","","","","",""
"2006-03-30 14:00","2006","03","30","14:00"," ","0.5","","-2.9","","78","","1","","28","","15.0","","95.40","","","","","",""
"2006-03-30 15:00","2006","03","30","15:00"," ","0.9","","-3.7","","71","","1","","28","","15.0","","95.38","","","","","",""
"2006-03-30 16:00","2006","03","30","16:00"," ","1.1","","-4.4","","67","","36","","28","","15.0","","95.41","","","","","",""
"2006-03-30 17:00","2006","03","30","17:00"," ","1.0","","-4.5","","67","","36","","24","","15.0","","95.44","","","","","",""
"2006-03-30 18:00","2006","03","30","18:00"," ","0.3","","-4.7","","69","","1","","20","","15.0","","95.47","","","","","",""
"2006-03-30 19:00","2006","03","30","19:00"," ","-1.0","","-4.9","","75","","36","","15","","15.0","","95.50","","","","-6","",""
"2006-03-30 20:00","2006","03","30","20:00"," ","-2.2","","-5.9","","76","","36","","15","","15.0","","95.58","","","","-7","",""
"2006-03-30 21:00","2006","03","30","21:00"," ","-3.9","","-6.3","","83","","35","","15","","15.0","","95.65","","","","-9","",""
"2006-03-30 22:00","2006","03","30","22:00"," ","-4.9","","-6.9","","86","","34","","13","","15.0","","95.70","","","","-10","",""
"2006-03-30 23:00","2006","03","30","23:00"," ","-6.0","","-7.8","","87","","35","","9","","15.0","","95.74","","","","-10","",""
"2006-03-31 00:00","2006","03","31","00:00"," ","-6.3","","-8.5","","84","","34","","11","","15.0","","95.73","","","","-11","",""
"2006-03-31 01:00","2006","03","31","01:00"," ","-6.4","","-8.7","","84","","34","","13","","15.0","","95.72","","","","-12","",""
"2006-03-31 02:00","2006","03","31","02:00"," ","-7.3","","-9.2","","86","","35","","11","","15.0","","95.71","","","","-12","",""
"2006-03-31 03:00","2006","03","31","03:00"," ","-6.8","","-9.0","","84","","34","","13","","15.0","","95.74","","","","-12","",""
"2006-03-31 04:00","2006","03","31","04:00"," ","-7.3","","-9.3","","86","","35","","11","","15.0","","95.72","","","","-12","",""
"2006-03-31 05:00","2006","03","31","05:00"," ","-7.1","","-9.0","","86","","33","","13","","15.0","","95.74","","","","-13","",""
"2006-03-31 06:00","2006","03","31","06:00"," ","-8.5","","-9.7","","91","","33","","7","","15.0","","95.74","","","","-12","",""
"2006-03-31 07:00","2006","03","31","07:00"," ","-8.7","","-9.7","","92","","33","","6","","15.0","","95.75","","","","-12","",""
"2006-03-31 08:00","2006","03","31","08:00"," ","-6.1","","-7.9","","87","","28","","6","","15.0","","95.82","","","","-9","",""
"2006-03-31 09:00","2006","03","31","09:00"," ","-4.7","","-7.4","","81","","1","","7","","15.0","","95.82","","","","-8","",""
"2006-03-31 10:00","2006","03","31","10:00"," ","-3.3","","-6.4","","79","","3","","6","","15.0","","95.84","","","","-6","",""
"2006-03-31 11:00","2006","03","31","11:00"," ","-1.9","","-5.8","","75","","32","","6","","15.0","","95.89","","","","-4","",""
"2006-03-31 12:00","2006","03","31","12:00"," ","-0.5","","-6.3","","65","","","","0","","15.0","","95.86","","","","","",""
"2006-03-31 13:00","2006","03","31","13:00"," ","1.0","","-5.1","","64","","","","0","","15.0","","95.80","","","","","",""
"2006-03-31 14:00","2006","03","31","14:00"," ","1.5","","-5.1","","61","","7","","6","","15.0","","95.79","","","","","",""
"2006-03-31 15:00","2006","03","31","15:00"," ","2.0","","-4.1","","64","","6","","6","","15.0","","95.75","","","","","",""
"2006-03-31 16:00","2006","03","31","16:00"," ","2.8","","-3.6","","63","","7","","7","","15.0","","95.73","","","","","",""
"2006-03-31 17:00","2006","03","31","17:00"," ","3.9","","-5.5","","50","","17","","6","","15.0","","95.69","","","","","",""
"2006-03-31 18:00","2006","03","31","18:00"," ","2.5","","-3.4","","65","","13","","9","","15.0","","95.68","","","","","",""
"2006-03-31 19:00","2006","03","31","19:00"," ","1.3","","-3.9","","68","","14","","9","","15.0","","95.64","","","","","",""
"2006-03-31 20:00","2006","03","31","20:00"," ","0.6","","-3.9","","72","","14","","11","","15.0","","95.62","","","","","",""
"2006-03-31 21:00","2006","03","31","21:00"," ","-0.1","","-4.7","","71","","16","","15","","15.0","","95.61","","","","-5","",""
"2006-03-31 22:00","2006","03","31","22:00"," ","-0.1","","-6.2","","63","","16","","17","","15.0","","95.58","","","","-5","",""
"2006-03-31 23:00","2006","03","31","23:00"," ","-0.2","","-5.6","","67","","16","","19","","15.0","","95.55","","","","-5","",""
